{
  "type": "FeatureCollection",
  "bbox": [
    4.14,
    45.46,
    9.19,
    51.95
  ],
  "metadata": {
    "route_id": "EUR-MIL",
    "lane": "NLRTM-ITMIL",
    "contracted": false,
    "total_distance_km": 811.3,
    "total_duration_days": 3,
    "leg_count": 1
  },
  "features": [
    {
      "type": "Feature",
      "bbox": [
        4.14,
        45.46,
        9.19,
        51.95
      ],
      "properties": {
        "route_id": "EUR-MIL",
        "leg_index": 0,
        "from": "NLRTM",
        "to": "ITMIL",
        "mode": "rail",
        "duration_days": 3,
        "distance_km": 811.3,
        "waypoints": [
          {
            "id": "NLRTM",
            "name": "Rotterdam",
            "lon": 4.14,
            "lat": 51.95,
            "source": "masterdata",
            "ref": "locations.jsonl:NLRTM"
          },
          {
            "id": "ITMIL",
            "name": "Milan",
            "lon": 9.19,
            "lat": 45.46,
            "source": "masterdata",
            "ref": "locations.jsonl:ITMIL"
          }
        ]
      },
      "geometry": {
        "type": "LineString",
        "coordinates": [
          [
            4.14,
            51.95
          ],
          [
            9.19,
            45.46
          ]
        ]
      }
    }
  ]
}
