{
  "type": "FeatureCollection",
  "bbox": [
    -9.599999999999994,
    12.492562499999998,
    59.96525,
    54.3
  ],
  "metadata": {
    "route_id": "MEA-SUEZ",
    "lane": "AEJEA-DEHAM",
    "contracted": false,
    "total_distance_km": 12357.7,
    "total_duration_days": 18,
    "leg_count": 1
  },
  "features": [
    {
      "type": "Feature",
      "bbox": [
        -9.599999999999994,
        12.492562499999998,
        59.96525,
        54.3
      ],
      "properties": {
        "route_id": "MEA-SUEZ",
        "leg_index": 0,
        "from": "AEJEA",
        "to": "DEHAM",
        "mode": "ocean",
        "duration_days": 18,
        "distance_km": 12357.7,
        "waypoints": [
          {
            "id": "AEJEA",
            "name": "Jebel Ali",
            "lon": 55.06,
            "lat": 25.01,
            "source": "masterdata",
            "ref": "locations.jsonl:AEJEA"
          },
          {
            "id": "HORMUZ",
            "name": "Strait of Hormuz",
            "lon": 56.25,
            "lat": 26.57,
            "source": "naturalearth",
            "ref": "data/vendor/naturalearth/10m-physical/ne_10m_land"
          },
          {
            "id": "BAB_EL_MANDEB",
            "name": "Bab-el-Mandeb (Gulf of Aden entrance)",
            "lon": 43.33,
            "lat": 12.58,
            "source": "naturalearth",
            "ref": "data/vendor/naturalearth/10m-physical/ne_10m_land"
          },
          {
            "id": "BAB_EL_MANDEB_N",
            "name": "Red Sea proper, past the strait",
            "lon": 41.8,
            "lat": 15.5,
            "source": "naturalearth",
            "ref": "data/vendor/naturalearth/10m-physical/ne_10m_land"
          },
          {
            "id": "RED_SEA_MID",
            "name": "Central Red Sea, off Port Sudan",
            "lon": 38.5,
            "lat": 20.0,
            "source": "naturalearth",
            "ref": "data/vendor/naturalearth/10m-physical/ne_10m_land"
          },
          {
            "id": "SUEZ_SOUTH",
            "name": "Suez, Gulf of Suez",
            "lon": 32.55,
            "lat": 29.97,
            "source": "naturalearth",
            "ref": "data/vendor/naturalearth/10m-physical/ne_10m_land"
          },
          {
            "id": "SUEZ_NORTH",
            "name": "Port Said, Mediterranean entrance",
            "lon": 32.31,
            "lat": 31.26,
            "source": "naturalearth",
            "ref": "data/vendor/naturalearth/10m-physical/ne_10m_land"
          },
          {
            "id": "NORTH_OF_PORT_SAID",
            "name": "Mediterranean, just off Port Said",
            "lon": 32.0,
            "lat": 32.3,
            "source": "naturalearth",
            "ref": "data/vendor/naturalearth/10m-physical/ne_10m_land"
          },
          {
            "id": "SOUTH_OF_CRETE",
            "name": "Mediterranean, south of Crete",
            "lon": 25.0,
            "lat": 34.0,
            "source": "naturalearth",
            "ref": "data/vendor/naturalearth/10m-physical/ne_10m_land"
          },
          {
            "id": "SOUTH_OF_SICILY",
            "name": "Mediterranean, south of Sicily",
            "lon": 14.0,
            "lat": 35.5,
            "source": "naturalearth",
            "ref": "data/vendor/naturalearth/10m-physical/ne_10m_land"
          },
          {
            "id": "NORTH_OF_CAPE_BON",
            "name": "Sicilian Channel, north of Cape Bon",
            "lon": 11.2,
            "lat": 37.6,
            "source": "naturalearth",
            "ref": "data/vendor/naturalearth/10m-physical/ne_10m_land"
          },
          {
            "id": "SOUTH_OF_SARDINIA",
            "name": "Mediterranean, south of Sardinia",
            "lon": 8.0,
            "lat": 37.8,
            "source": "naturalearth",
            "ref": "data/vendor/naturalearth/10m-physical/ne_10m_land"
          },
          {
            "id": "OFFSHORE_ALGERIA",
            "name": "Mediterranean, offshore Algeria",
            "lon": 2.0,
            "lat": 37.0,
            "source": "naturalearth",
            "ref": "data/vendor/naturalearth/10m-physical/ne_10m_land"
          },
          {
            "id": "GIBRALTAR",
            "name": "Strait of Gibraltar",
            "lon": -5.6,
            "lat": 35.95,
            "source": "naturalearth",
            "ref": "data/vendor/naturalearth/10m-physical/ne_10m_land"
          },
          {
            "id": "DEHAM_MOUTH",
            "name": "Elbe mouth, German Bight",
            "lon": 7.0,
            "lat": 54.3,
            "source": "naturalearth",
            "ref": "data/vendor/naturalearth/10m-physical/ne_10m_land"
          },
          {
            "id": "DEHAM",
            "name": "Hamburg",
            "lon": 9.99,
            "lat": 53.55,
            "source": "masterdata",
            "ref": "locations.jsonl:DEHAM"
          }
        ]
      },
      "geometry": {
        "type": "LineString",
        "coordinates": [
          [
            55.06,
            25.01
          ],
          [
            55.06,
            25.03
          ],
          [
            55.06,
            25.05
          ],
          [
            55.06,
            25.07
          ],
          [
            55.06,
            25.090000000000003
          ],
          [
            55.06,
            25.110000000000003
          ],
          [
            55.06,
            25.130000000000003
          ],
          [
            55.06,
            25.150000000000002
          ],
          [
            55.06,
            25.17
          ],
          [
            55.06,
            25.19
          ],
          [
            55.06,
            25.21
          ],
          [
            55.06,
            25.23
          ],
          [
            55.06,
            25.25
          ],
          [
            55.06,
            25.270000000000003
          ],
          [
            55.06,
            25.290000000000003
          ],
          [
            55.06,
            25.310000000000002
          ],
          [
            55.06,
            25.330000000000002
          ],
          [
            55.06,
            25.35
          ],
          [
            55.06,
            25.37
          ],
          [
            55.06,
            25.39
          ],
          [
            55.08000000000001,
            25.41
          ],
          [
            55.099999999999994,
            25.43
          ],
          [
            55.120000000000005,
            25.450000000000003
          ],
          [
            55.139999999999986,
            25.470000000000002
          ],
          [
            55.16,
            25.490000000000002
          ],
          [
            55.18000000000001,
            25.51
          ],
          [
            55.19999999999999,
            25.53
          ],
          [
            55.22,
            25.55
          ],
          [
            55.24000000000001,
            25.57
          ],
          [
            55.25999999999999,
            25.590000000000003
          ],
          [
            55.28,
            25.610000000000003
          ],
          [
            55.30000000000001,
            25.630000000000003
          ],
          [
            55.31999999999999,
            25.650000000000002
          ],
          [
            55.34,
            25.67
          ],
          [
            55.360000000000014,
            25.69
          ],
          [
            55.379999999999995,
            25.71
          ],
          [
            55.400000000000006,
            25.73
          ],
          [
            55.420000000000016,
            25.75
          ],
          [
            55.44,
            25.770000000000003
          ],
          [
            55.46000000000001,
            25.790000000000003
          ],
          [
            55.48000000000002,
            25.810000000000002
          ],
          [
            55.5,
            25.830000000000002
          ],
          [
            55.52000000000001,
            25.85
          ],
          [
            55.53999999999999,
            25.87
          ],
          [
            55.56,
            25.89
          ],
          [
            55.58000000000001,
            25.91
          ],
          [
            55.599999999999994,
            25.93
          ],
          [
            55.620000000000005,
            25.950000000000003
          ],
          [
            55.639999999999986,
            25.970000000000002
          ],
          [
            55.66,
            25.990000000000002
          ],
          [
            55.68000000000001,
            26.01
          ],
          [
            55.69999999999999,
            26.03
          ],
          [
            55.72,
            26.05
          ],
          [
            55.74000000000001,
            26.07
          ],
          [
            55.75999999999999,
            26.090000000000003
          ],
          [
            55.78,
            26.110000000000003
          ],
          [
            55.80000000000001,
            26.130000000000003
          ],
          [
            55.81999999999999,
            26.150000000000002
          ],
          [
            55.84,
            26.17
          ],
          [
            55.860000000000014,
            26.19
          ],
          [
            55.879999999999995,
            26.21
          ],
          [
            55.900000000000006,
            26.23
          ],
          [
            55.920000000000016,
            26.25
          ],
          [
            55.94,
            26.270000000000003
          ],
          [
            55.96000000000001,
            26.290000000000003
          ],
          [
            55.98000000000002,
            26.310000000000002
          ],
          [
            56.0,
            26.330000000000002
          ],
          [
            56.02000000000001,
            26.35
          ],
          [
            56.03999999999999,
            26.37
          ],
          [
            56.06,
            26.39
          ],
          [
            56.08000000000001,
            26.41
          ],
          [
            56.099999999999994,
            26.43
          ],
          [
            56.120000000000005,
            26.450000000000003
          ],
          [
            56.139999999999986,
            26.470000000000002
          ],
          [
            56.16,
            26.490000000000002
          ],
          [
            56.18000000000001,
            26.51
          ],
          [
            56.19999999999999,
            26.53
          ],
          [
            56.22,
            26.55
          ],
          [
            56.25,
            26.57
          ],
          [
            56.3803125,
            26.57
          ],
          [
            56.467749999999995,
            26.4825625
          ],
          [
            56.55518749999999,
            26.395125
          ],
          [
            56.64262500000001,
            26.3076875
          ],
          [
            56.7300625,
            26.22025
          ],
          [
            56.817499999999995,
            26.1328125
          ],
          [
            56.90493750000002,
            26.045375
          ],
          [
            56.99237499999998,
            25.9579375
          ],
          [
            57.0798125,
            25.8705
          ],
          [
            57.167249999999996,
            25.7830625
          ],
          [
            57.25468749999999,
            25.695625
          ],
          [
            57.34212500000001,
            25.6081875
          ],
          [
            57.4295625,
            25.52075
          ],
          [
            57.516999999999996,
            25.4333125
          ],
          [
            57.60443750000002,
            25.345875
          ],
          [
            57.69187499999998,
            25.2584375
          ],
          [
            57.7793125,
            25.171
          ],
          [
            57.866749999999996,
            25.0835625
          ],
          [
            57.95418749999999,
            24.996125
          ],
          [
            58.04162500000001,
            24.9086875
          ],
          [
            58.1290625,
            24.82125
          ],
          [
            58.216499999999996,
            24.7338125
          ],
          [
            58.30393750000002,
            24.646375
          ],
          [
            58.39137499999998,
            24.5589375
          ],
          [
            58.478812500000004,
            24.4715
          ],
          [
            58.56625,
            24.3840625
          ],
          [
            58.65368749999999,
            24.296625
          ],
          [
            58.74112500000001,
            24.2091875
          ],
          [
            58.828562500000004,
            24.12175
          ],
          [
            58.916,
            24.0343125
          ],
          [
            59.00343749999999,
            23.946875
          ],
          [
            59.09087499999998,
            23.8594375
          ],
          [
            59.178312500000004,
            23.772
          ],
          [
            59.26575,
            23.6845625
          ],
          [
            59.35318749999999,
            23.597125
          ],
          [
            59.44062500000001,
            23.5096875
          ],
          [
            59.528062500000004,
            23.42225
          ],
          [
            59.6155,
            23.334812499999998
          ],
          [
            59.70293749999999,
            23.247374999999998
          ],
          [
            59.79037499999998,
            23.159937499999998
          ],
          [
            59.877812500000005,
            23.072499999999998
          ],
          [
            59.96525,
            22.985062499999998
          ],
          [
            59.96525,
            22.897624999999998
          ],
          [
            59.96525,
            22.810187499999998
          ],
          [
            59.96525,
            22.722749999999998
          ],
          [
            59.96525,
            22.635312499999998
          ],
          [
            59.96525,
            22.547874999999998
          ],
          [
            59.96525,
            22.460437499999998
          ],
          [
            59.96525,
            22.372999999999998
          ],
          [
            59.96525,
            22.285562499999997
          ],
          [
            59.877812500000005,
            22.198124999999997
          ],
          [
            59.877812500000005,
            22.110687499999997
          ],
          [
            59.79037499999998,
            22.023249999999997
          ],
          [
            59.79037499999998,
            21.935812499999997
          ],
          [
            59.70293749999999,
            21.848374999999997
          ],
          [
            59.6155,
            21.760937499999997
          ],
          [
            59.6155,
            21.673499999999997
          ],
          [
            59.528062500000004,
            21.586062499999997
          ],
          [
            59.528062500000004,
            21.498624999999997
          ],
          [
            59.44062500000001,
            21.411187499999997
          ],
          [
            59.35318749999999,
            21.323749999999997
          ],
          [
            59.26575,
            21.236312499999997
          ],
          [
            59.178312500000004,
            21.148874999999997
          ],
          [
            59.09087499999998,
            21.061437499999997
          ],
          [
            59.09087499999998,
            20.974
          ],
          [
            59.09087499999998,
            20.8865625
          ],
          [
            59.09087499999998,
            20.799125
          ],
          [
            59.09087499999998,
            20.7116875
          ],
          [
            59.09087499999998,
            20.62425
          ],
          [
            59.09087499999998,
            20.5368125
          ],
          [
            59.00343749999999,
            20.449375
          ],
          [
            58.916,
            20.3619375
          ],
          [
            58.916,
            20.2745
          ],
          [
            58.828562500000004,
            20.1870625
          ],
          [
            58.74112500000001,
            20.099625
          ],
          [
            58.65368749999999,
            20.0121875
          ],
          [
            58.56625,
            19.92475
          ],
          [
            58.478812500000004,
            19.8373125
          ],
          [
            58.39137499999998,
            19.749875
          ],
          [
            58.30393750000002,
            19.6624375
          ],
          [
            58.216499999999996,
            19.575
          ],
          [
            58.1290625,
            19.4875625
          ],
          [
            58.04162500000001,
            19.400125
          ],
          [
            57.95418749999999,
            19.3126875
          ],
          [
            57.95418749999999,
            19.22525
          ],
          [
            57.95418749999999,
            19.1378125
          ],
          [
            57.95418749999999,
            19.050375
          ],
          [
            57.95418749999999,
            18.9629375
          ],
          [
            57.866749999999996,
            18.8755
          ],
          [
            57.7793125,
            18.8755
          ],
          [
            57.69187499999998,
            18.8755
          ],
          [
            57.60443750000002,
            18.7880625
          ],
          [
            57.516999999999996,
            18.7880625
          ],
          [
            57.4295625,
            18.7880625
          ],
          [
            57.34212500000001,
            18.7880625
          ],
          [
            57.25468749999999,
            18.700625
          ],
          [
            57.167249999999996,
            18.6131875
          ],
          [
            57.0798125,
            18.52575
          ],
          [
            56.99237499999998,
            18.4383125
          ],
          [
            56.90493750000002,
            18.350875
          ],
          [
            56.817499999999995,
            18.2634375
          ],
          [
            56.7300625,
            18.176
          ],
          [
            56.64262500000001,
            18.088562500000002
          ],
          [
            56.55518749999999,
            18.001125000000002
          ],
          [
            56.467749999999995,
            17.9136875
          ],
          [
            56.3803125,
            17.82625
          ],
          [
            56.29287499999998,
            17.82625
          ],
          [
            56.205437500000016,
            17.82625
          ],
          [
            56.117999999999995,
            17.82625
          ],
          [
            56.0305625,
            17.82625
          ],
          [
            55.94312500000001,
            17.7388125
          ],
          [
            55.85568749999999,
            17.651375
          ],
          [
            55.768249999999995,
            17.5639375
          ],
          [
            55.6808125,
            17.4765
          ],
          [
            55.59337499999998,
            17.3890625
          ],
          [
            55.505937500000016,
            17.301625
          ],
          [
            55.418499999999995,
            17.2141875
          ],
          [
            55.3310625,
            17.12675
          ],
          [
            55.24362500000001,
            17.0393125
          ],
          [
            55.15618749999999,
            16.951875
          ],
          [
            55.068749999999994,
            16.951875
          ],
          [
            54.9813125,
            16.8644375
          ],
          [
            54.89387499999998,
            16.8644375
          ],
          [
            54.806437500000015,
            16.8644375
          ],
          [
            54.718999999999994,
            16.8644375
          ],
          [
            54.6315625,
            16.8644375
          ],
          [
            54.54412500000001,
            16.8644375
          ],
          [
            54.45668749999999,
            16.8644375
          ],
          [
            54.369249999999994,
            16.8644375
          ],
          [
            54.2818125,
            16.8644375
          ],
          [
            54.19437500000001,
            16.8644375
          ],
          [
            54.106937500000015,
            16.8644375
          ],
          [
            54.019499999999994,
            16.8644375
          ],
          [
            53.9320625,
            16.777
          ],
          [
            53.84462500000001,
            16.777
          ],
          [
            53.757187499999986,
            16.6895625
          ],
          [
            53.66974999999999,
            16.6895625
          ],
          [
            53.5823125,
            16.602125
          ],
          [
            53.49487500000001,
            16.602125
          ],
          [
            53.407437500000015,
            16.602125
          ],
          [
            53.31999999999999,
            16.602125
          ],
          [
            53.2325625,
            16.5146875
          ],
          [
            53.14512500000001,
            16.42725
          ],
          [
            53.057687499999986,
            16.3398125
          ],
          [
            52.97024999999999,
            16.252375
          ],
          [
            52.8828125,
            16.1649375
          ],
          [
            52.79537500000001,
            16.0775
          ],
          [
            52.707937500000014,
            15.9900625
          ],
          [
            52.62049999999999,
            15.902625
          ],
          [
            52.5330625,
            15.8151875
          ],
          [
            52.44562500000001,
            15.72775
          ],
          [
            52.358187499999985,
            15.6403125
          ],
          [
            52.27074999999999,
            15.552875
          ],
          [
            52.1833125,
            15.4654375
          ],
          [
            52.09587500000001,
            15.4654375
          ],
          [
            52.008437500000014,
            15.4654375
          ],
          [
            51.92099999999999,
            15.378
          ],
          [
            51.8335625,
            15.2905625
          ],
          [
            51.746125000000006,
            15.2905625
          ],
          [
            51.658687499999985,
            15.203125
          ],
          [
            51.57124999999999,
            15.203125
          ],
          [
            51.4838125,
            15.203125
          ],
          [
            51.396375000000006,
            15.1156875
          ],
          [
            51.30893750000001,
            15.1156875
          ],
          [
            51.22149999999999,
            15.02825
          ],
          [
            51.1340625,
            15.02825
          ],
          [
            51.046625000000006,
            15.02825
          ],
          [
            50.959187499999985,
            15.02825
          ],
          [
            50.87174999999999,
            15.02825
          ],
          [
            50.7843125,
            14.9408125
          ],
          [
            50.696875000000006,
            14.9408125
          ],
          [
            50.60943750000001,
            14.9408125
          ],
          [
            50.52199999999999,
            14.9408125
          ],
          [
            50.4345625,
            14.853375
          ],
          [
            50.347125000000005,
            14.7659375
          ],
          [
            50.259687499999984,
            14.7659375
          ],
          [
            50.17224999999999,
            14.7659375
          ],
          [
            50.0848125,
            14.6785
          ],
          [
            49.997375000000005,
            14.6785
          ],
          [
            49.90993750000001,
            14.6785
          ],
          [
            49.82249999999999,
            14.6785
          ],
          [
            49.7350625,
            14.6785
          ],
          [
            49.647625000000005,
            14.5910625
          ],
          [
            49.560187499999984,
            14.5910625
          ],
          [
            49.47274999999999,
            14.5910625
          ],
          [
            49.3853125,
            14.503625
          ],
          [
            49.297875000000005,
            14.503625
          ],
          [
            49.21043750000001,
            14.4161875
          ],
          [
            49.12299999999999,
            14.32875
          ],
          [
            49.0355625,
            14.2413125
          ],
          [
            48.948125000000005,
            14.153875
          ],
          [
            48.86068749999998,
            14.0664375
          ],
          [
            48.77324999999999,
            13.979
          ],
          [
            48.6858125,
            13.8915625
          ],
          [
            48.598375000000004,
            13.8915625
          ],
          [
            48.51093750000001,
            13.8915625
          ],
          [
            48.42349999999999,
            13.8915625
          ],
          [
            48.3360625,
            13.8915625
          ],
          [
            48.248625000000004,
            13.8915625
          ],
          [
            48.16118749999998,
            13.8915625
          ],
          [
            48.07374999999999,
            13.8915625
          ],
          [
            47.9863125,
            13.8915625
          ],
          [
            47.898875000000004,
            13.804124999999999
          ],
          [
            47.81143750000001,
            13.804124999999999
          ],
          [
            47.72399999999999,
            13.804124999999999
          ],
          [
            47.6365625,
            13.716687499999999
          ],
          [
            47.549125000000004,
            13.629249999999999
          ],
          [
            47.46168749999998,
            13.541812499999999
          ],
          [
            47.37424999999999,
            13.541812499999999
          ],
          [
            47.286812499999996,
            13.454374999999999
          ],
          [
            47.199375,
            13.454374999999999
          ],
          [
            47.11193750000001,
            13.454374999999999
          ],
          [
            47.02449999999999,
            13.454374999999999
          ],
          [
            46.937062499999996,
            13.366937499999999
          ],
          [
            46.849625,
            13.366937499999999
          ],
          [
            46.76218749999998,
            13.366937499999999
          ],
          [
            46.67474999999999,
            13.279499999999999
          ],
          [
            46.587312499999996,
            13.279499999999999
          ],
          [
            46.499875,
            13.279499999999999
          ],
          [
            46.41243750000001,
            13.279499999999999
          ],
          [
            46.32499999999999,
            13.279499999999999
          ],
          [
            46.237562499999996,
            13.279499999999999
          ],
          [
            46.150125,
            13.279499999999999
          ],
          [
            46.06268749999998,
            13.279499999999999
          ],
          [
            45.97524999999999,
            13.279499999999999
          ],
          [
            45.887812499999995,
            13.279499999999999
          ],
          [
            45.800375,
            13.279499999999999
          ],
          [
            45.71293750000001,
            13.192062499999999
          ],
          [
            45.62549999999999,
            13.104624999999999
          ],
          [
            45.538062499999995,
            13.017187499999999
          ],
          [
            45.450625,
            12.929749999999999
          ],
          [
            45.36318749999998,
            12.929749999999999
          ],
          [
            45.275750000000016,
            12.929749999999999
          ],
          [
            45.188312499999995,
            12.842312499999998
          ],
          [
            45.100875,
            12.754874999999998
          ],
          [
            45.01343750000001,
            12.667437499999998
          ],
          [
            44.92599999999999,
            12.667437499999998
          ],
          [
            44.838562499999995,
            12.667437499999998
          ],
          [
            44.751125,
            12.667437499999998
          ],
          [
            44.66368749999998,
            12.667437499999998
          ],
          [
            44.576250000000016,
            12.667437499999998
          ],
          [
            44.488812499999995,
            12.579999999999998
          ],
          [
            44.401375,
            12.579999999999998
          ],
          [
            44.31393750000001,
            12.492562499999998
          ],
          [
            44.22649999999999,
            12.492562499999998
          ],
          [
            44.139062499999994,
            12.492562499999998
          ],
          [
            44.051625,
            12.492562499999998
          ],
          [
            43.96418750000001,
            12.492562499999998
          ],
          [
            43.876750000000015,
            12.492562499999998
          ],
          [
            43.789312499999994,
            12.579999999999998
          ],
          [
            43.701875,
            12.579999999999998
          ],
          [
            43.61443750000001,
            12.579999999999998
          ],
          [
            43.52699999999999,
            12.579999999999998
          ],
          [
            43.439562499999994,
            12.579999999999998
          ],
          [
            43.33,
            12.58
          ],
          [
            42.69999999999999,
            14.600000000000001
          ],
          [
            41.8,
            15.5
          ],
          [
            41.63024450089503,
            15.738211577015514
          ],
          [
            41.460093339183345,
            15.976285526866784
          ],
          [
            41.28953949515673,
            16.214219362974095
          ],
          [
            41.118575903763144,
            16.45201058025109
          ],
          [
            40.947195453811446,
            16.689656654729664
          ],
          [
            40.775390987171505,
            16.92715504318025
          ],
          [
            40.60315529797049,
            17.16450318272747
          ],
          [
            40.43048113178503,
            17.40169849046098
          ],
          [
            40.257361184828994,
            17.638738363041497
          ],
          [
            40.08378810313758,
            17.875620176301865
          ],
          [
            39.90975448174714,
            18.112341284843062
          ],
          [
            39.73525286387115,
            18.34889902162516
          ],
          [
            39.56027574007231,
            18.58529069755296
          ],
          [
            39.384815547430605,
            18.821513601056438
          ],
          [
            39.208864668707804,
            19.057564997665665
          ],
          [
            39.03241543150807,
            19.293442129580328
          ],
          [
            38.855460107435135,
            19.529142215233644
          ],
          [
            38.677990911245786,
            19.764662448850512
          ],
          [
            38.5,
            20.0
          ],
          [
            38.52600000000001,
            20.0563125
          ],
          [
            38.52600000000001,
            20.118625
          ],
          [
            38.52600000000001,
            20.1809375
          ],
          [
            38.52600000000001,
            20.24325
          ],
          [
            38.52600000000001,
            20.3055625
          ],
          [
            38.52600000000001,
            20.367874999999998
          ],
          [
            38.52600000000001,
            20.4301875
          ],
          [
            38.52600000000001,
            20.4925
          ],
          [
            38.52600000000001,
            20.5548125
          ],
          [
            38.52600000000001,
            20.617125
          ],
          [
            38.52600000000001,
            20.6794375
          ],
          [
            38.52600000000001,
            20.74175
          ],
          [
            38.52600000000001,
            20.8040625
          ],
          [
            38.52600000000001,
            20.866374999999998
          ],
          [
            38.52600000000001,
            20.9286875
          ],
          [
            38.52600000000001,
            20.991
          ],
          [
            38.52600000000001,
            21.0533125
          ],
          [
            38.52600000000001,
            21.115625
          ],
          [
            38.52600000000001,
            21.1779375
          ],
          [
            38.52600000000001,
            21.24025
          ],
          [
            38.52600000000001,
            21.3025625
          ],
          [
            38.52600000000001,
            21.364874999999998
          ],
          [
            38.52600000000001,
            21.4271875
          ],
          [
            38.52600000000001,
            21.4895
          ],
          [
            38.52600000000001,
            21.5518125
          ],
          [
            38.52600000000001,
            21.614125
          ],
          [
            38.52600000000001,
            21.6764375
          ],
          [
            38.52600000000001,
            21.73875
          ],
          [
            38.52600000000001,
            21.8010625
          ],
          [
            38.52600000000001,
            21.863374999999998
          ],
          [
            38.52600000000001,
            21.9256875
          ],
          [
            38.52600000000001,
            21.988
          ],
          [
            38.52600000000001,
            22.0503125
          ],
          [
            38.52600000000001,
            22.112625
          ],
          [
            38.52600000000001,
            22.1749375
          ],
          [
            38.52600000000001,
            22.23725
          ],
          [
            38.52600000000001,
            22.2995625
          ],
          [
            38.52600000000001,
            22.361874999999998
          ],
          [
            38.52600000000001,
            22.4241875
          ],
          [
            38.52600000000001,
            22.4865
          ],
          [
            38.52600000000001,
            22.5488125
          ],
          [
            38.52600000000001,
            22.611125
          ],
          [
            38.52600000000001,
            22.6734375
          ],
          [
            38.52600000000001,
            22.73575
          ],
          [
            38.52600000000001,
            22.7980625
          ],
          [
            38.52600000000001,
            22.860374999999998
          ],
          [
            38.52600000000001,
            22.9226875
          ],
          [
            38.52600000000001,
            22.985
          ],
          [
            38.52600000000001,
            23.0473125
          ],
          [
            38.52600000000001,
            23.109625
          ],
          [
            38.46368749999999,
            23.1719375
          ],
          [
            38.401375,
            23.23425
          ],
          [
            38.33906250000001,
            23.2965625
          ],
          [
            38.27674999999999,
            23.358874999999998
          ],
          [
            38.2144375,
            23.4211875
          ],
          [
            38.15212500000001,
            23.4835
          ],
          [
            38.089812499999994,
            23.5458125
          ],
          [
            38.0275,
            23.608125
          ],
          [
            37.96518750000001,
            23.6704375
          ],
          [
            37.902874999999995,
            23.73275
          ],
          [
            37.840562500000004,
            23.7950625
          ],
          [
            37.778250000000014,
            23.857374999999998
          ],
          [
            37.715937499999995,
            23.9196875
          ],
          [
            37.653625000000005,
            23.982
          ],
          [
            37.59131249999999,
            24.0443125
          ],
          [
            37.528999999999996,
            24.106625
          ],
          [
            37.466687500000006,
            24.1689375
          ],
          [
            37.40437499999999,
            24.23125
          ],
          [
            37.3420625,
            24.2935625
          ],
          [
            37.27974999999998,
            24.355874999999997
          ],
          [
            37.21743749999999,
            24.4181875
          ],
          [
            37.155125,
            24.4805
          ],
          [
            37.09281249999998,
            24.5428125
          ],
          [
            37.03049999999999,
            24.605125
          ],
          [
            36.9681875,
            24.6674375
          ],
          [
            36.90587499999998,
            24.72975
          ],
          [
            36.84356249999999,
            24.7920625
          ],
          [
            36.78125,
            24.854374999999997
          ],
          [
            36.71893749999998,
            24.9166875
          ],
          [
            36.65662499999999,
            24.979
          ],
          [
            36.5943125,
            25.0413125
          ],
          [
            36.53199999999998,
            25.103625
          ],
          [
            36.46968749999999,
            25.1659375
          ],
          [
            36.407375,
            25.22825
          ],
          [
            36.34506249999998,
            25.2905625
          ],
          [
            36.28274999999999,
            25.352874999999997
          ],
          [
            36.2204375,
            25.4151875
          ],
          [
            36.158124999999984,
            25.4775
          ],
          [
            36.095812499999994,
            25.5398125
          ],
          [
            36.033500000000004,
            25.602125
          ],
          [
            35.971187499999985,
            25.6644375
          ],
          [
            35.908874999999995,
            25.72675
          ],
          [
            35.846562500000005,
            25.7890625
          ],
          [
            35.784249999999986,
            25.851374999999997
          ],
          [
            35.721937499999996,
            25.913687499999998
          ],
          [
            35.659625000000005,
            25.976
          ],
          [
            35.59731249999999,
            26.0383125
          ],
          [
            35.535,
            26.100625
          ],
          [
            35.472687500000006,
            26.162937499999998
          ],
          [
            35.41037499999999,
            26.22525
          ],
          [
            35.3480625,
            26.2875625
          ],
          [
            35.28575000000001,
            26.349874999999997
          ],
          [
            35.22343749999999,
            26.412187499999998
          ],
          [
            35.161125,
            26.4745
          ],
          [
            35.09881250000001,
            26.5368125
          ],
          [
            35.03649999999999,
            26.599125
          ],
          [
            34.9741875,
            26.661437499999998
          ],
          [
            34.91187500000001,
            26.72375
          ],
          [
            34.84956249999999,
            26.7860625
          ],
          [
            34.78725,
            26.848374999999997
          ],
          [
            34.72493750000001,
            26.910687499999998
          ],
          [
            34.66262499999999,
            26.973
          ],
          [
            34.6003125,
            27.0353125
          ],
          [
            34.53800000000001,
            27.097625
          ],
          [
            34.47568749999999,
            27.159937499999998
          ],
          [
            34.413375,
            27.22225
          ],
          [
            34.35106250000001,
            27.2845625
          ],
          [
            34.28874999999999,
            27.346874999999997
          ],
          [
            34.2264375,
            27.409187499999998
          ],
          [
            34.16412500000001,
            27.4715
          ],
          [
            34.101812499999994,
            27.5338125
          ],
          [
            34.039500000000004,
            27.596125
          ],
          [
            33.977187500000014,
            27.658437499999998
          ],
          [
            33.914874999999995,
            27.72075
          ],
          [
            33.852562500000005,
            27.7830625
          ],
          [
            33.790250000000015,
            27.845374999999997
          ],
          [
            33.727937499999996,
            27.907687499999998
          ],
          [
            33.665625000000006,
            27.97
          ],
          [
            33.60331249999999,
            28.0323125
          ],
          [
            33.541,
            28.094625
          ],
          [
            33.47868750000001,
            28.156937499999998
          ],
          [
            33.41637499999999,
            28.21925
          ],
          [
            33.3540625,
            28.2815625
          ],
          [
            33.29174999999998,
            28.343874999999997
          ],
          [
            33.22943749999999,
            28.406187499999998
          ],
          [
            33.22943749999999,
            28.4685
          ],
          [
            33.167125,
            28.5308125
          ],
          [
            33.10481249999998,
            28.593125
          ],
          [
            33.10481249999998,
            28.655437499999998
          ],
          [
            33.10481249999998,
            28.71775
          ],
          [
            33.10481249999998,
            28.7800625
          ],
          [
            33.04249999999999,
            28.842374999999997
          ],
          [
            33.04249999999999,
            28.904687499999998
          ],
          [
            33.04249999999999,
            28.967
          ],
          [
            32.9801875,
            29.0293125
          ],
          [
            32.91787499999998,
            29.091625
          ],
          [
            32.85556249999999,
            29.153937499999998
          ],
          [
            32.79325,
            29.21625
          ],
          [
            32.73093749999998,
            29.2785625
          ],
          [
            32.73093749999998,
            29.340874999999997
          ],
          [
            32.66862499999999,
            29.403187499999998
          ],
          [
            32.6063125,
            29.4655
          ],
          [
            32.6063125,
            29.5278125
          ],
          [
            32.6063125,
            29.590125
          ],
          [
            32.54399999999998,
            29.652437499999998
          ],
          [
            32.54399999999998,
            29.71475
          ],
          [
            32.54399999999998,
            29.7770625
          ],
          [
            32.54399999999998,
            29.839374999999997
          ],
          [
            32.54399999999998,
            29.901687499999998
          ],
          [
            32.55,
            29.97
          ],
          [
            32.538714057449425,
            30.031444281241935
          ],
          [
            32.52741418362964,
            30.0928870188616
          ],
          [
            32.51610032704373,
            30.154328208587025
          ],
          [
            32.504772436006235,
            30.215767846135837
          ],
          [
            32.49343045864216,
            30.277205927215203
          ],
          [
            32.48207434288597,
            30.338642447521714
          ],
          [
            32.4707040364806,
            30.400077402741367
          ],
          [
            32.45931948697639,
            30.46151078854949
          ],
          [
            32.44792064173013,
            30.522942600610616
          ],
          [
            32.436507447904006,
            30.584372834578513
          ],
          [
            32.42507985246454,
            30.645801486096023
          ],
          [
            32.41363780218162,
            30.707228550795048
          ],
          [
            32.40218124362738,
            30.76865402429643
          ],
          [
            32.39071012317522,
            30.830077902209954
          ],
          [
            32.37922438699867,
            30.8915001801342
          ],
          [
            32.36772398107043,
            30.95292085365653
          ],
          [
            32.3562088511612,
            31.01433991835295
          ],
          [
            32.34467894283868,
            31.07575736978811
          ],
          [
            32.33313420146643,
            31.13717320351519
          ],
          [
            32.32157457220284,
            31.198587415075806
          ],
          [
            32.31,
            31.26
          ],
          [
            32.29539397109889,
            31.309544605020577
          ],
          [
            32.280772645543415,
            31.359087164348654
          ],
          [
            32.2661359780157,
            31.408627672701737
          ],
          [
            32.25148392306232,
            31.45816612478346
          ],
          [
            32.236816435093786,
            31.507702515283498
          ],
          [
            32.22213346838391,
            31.55723683887759
          ],
          [
            32.20743497706927,
            31.60676909022741
          ],
          [
            32.19272091514861,
            31.656299263980465
          ],
          [
            32.177991236482285,
            31.705827354770175
          ],
          [
            32.16324589479166,
            31.755353357215608
          ],
          [
            32.1484848436585,
            31.804877265921593
          ],
          [
            32.13370803652445,
            31.854399075478543
          ],
          [
            32.11891542669037,
            31.903918780462448
          ],
          [
            32.10410696731579,
            31.95343637543475
          ],
          [
            32.08928261141829,
            32.00295185494235
          ],
          [
            32.07444231187291,
            32.05246521351747
          ],
          [
            32.05958602141154,
            32.10197644567762
          ],
          [
            32.04471369262233,
            32.151485545925546
          ],
          [
            32.02982527794906,
            32.2009925087491
          ],
          [
            32.01492072969054,
            32.250497328621265
          ],
          [
            32.0,
            32.3
          ],
          [
            31.672907764172948,
            32.38975162096022
          ],
          [
            31.345171003594327,
            32.47865158446073
          ],
          [
            31.01679242360325,
            32.56669533281475
          ],
          [
            30.687774843000497,
            32.653878326640466
          ],
          [
            30.358121194626943,
            32.74019604563971
          ],
          [
            30.027834525910954,
            32.825643989383636
          ],
          [
            29.69691799938381,
            32.910217678105084
          ],
          [
            29.365374893162254,
            32.99391265349746
          ],
          [
            29.03320860139722,
            33.07672447951987
          ],
          [
            28.70042263468802,
            33.158648743208104
          ],
          [
            28.367020620460845,
            33.23968105549155
          ],
          [
            28.03300630331104,
            33.319817052015395
          ],
          [
            27.698383545307923,
            33.399052393967985
          ],
          [
            27.363156326261702,
            33.47738276891314
          ],
          [
            27.027328743951244,
            33.55480389162693
          ],
          [
            26.690905014312236,
            33.631311504938836
          ],
          [
            26.353889471584687,
            33.70690138057668
          ],
          [
            26.016286568419098,
            33.78156932001532
          ],
          [
            25.678100875940483,
            33.85531115532852
          ],
          [
            25.33933708376952,
            33.92812275004383
          ],
          [
            25.0,
            34.0
          ],
          [
            24.48598119890618,
            34.093687546817655
          ],
          [
            23.970841608593933,
            34.1852184657059
          ],
          [
            23.454601248895827,
            34.274580769284725
          ],
          [
            22.937280685767952,
            34.36176268327003
          ],
          [
            22.418901026144518,
            34.446752652580145
          ],
          [
            21.899483912249455,
            34.529539347401716
          ],
          [
            21.37905151536171,
            34.61011166920775
          ],
          [
            20.857626529031613,
            34.6884587567209
          ],
          [
            20.33523216174701,
            34.76456999181432
          ],
          [
            19.81189212904824,
            34.838435005343285
          ],
          [
            19.287630645092804,
            34.91004368289987
          ],
          [
            18.762472413670906,
            34.97938617048357
          ],
          [
            18.236442618674552,
            35.046452880080516
          ],
          [
            17.709566914023757,
            35.111234495143805
          ],
          [
            17.18187141305451,
            35.17372197596784
          ],
          [
            16.653382677374303,
            35.23390656494932
          ],
          [
            16.124127705192024,
            35.29177979172782
          ],
          [
            15.59413391913028,
            35.347333478198614
          ],
          [
            15.063429153529066,
            35.40055974339097
          ],
          [
            14.532041641251107,
            35.45145100820498
          ],
          [
            14.0,
            35.5
          ],
          [
            13.870051762267234,
            35.601478810479755
          ],
          [
            13.739775232456909,
            35.702815431872295
          ],
          [
            13.609168809789109,
            35.804008987878284
          ],
          [
            13.478230890482763,
            35.90505859729858
          ],
          [
            13.346959867816484,
            36.00596337400901
          ],
          [
            13.215354132191012,
            36.1067224269353
          ],
          [
            13.083412071193232,
            36.20733486002799
          ],
          [
            12.951132069661954,
            36.307799772237445
          ],
          [
            12.818512509755255,
            36.40811625748904
          ],
          [
            12.685551771019638,
            36.5082834046583
          ],
          [
            12.552248230460844,
            36.60830029754624
          ],
          [
            12.418600262616444,
            36.708166014854754
          ],
          [
            12.284606239630257,
            36.807879630162155
          ],
          [
            12.150264531328496,
            36.90744021189875
          ],
          [
            12.015573505297787,
            37.006846823322654
          ],
          [
            11.88053152696509,
            37.106098522495586
          ],
          [
            11.745136959679398,
            37.205194362258936
          ],
          [
            11.609388164795506,
            37.304133390209884
          ],
          [
            11.473283501759504,
            37.40291464867767
          ],
          [
            11.336821328196482,
            37.50153717470009
          ],
          [
            11.2,
            37.6
          ],
          [
            11.048033686433854,
            37.61148959757776
          ],
          [
            10.896021006198449,
            37.62278342353654
          ],
          [
            10.743962723972944,
            37.63388134005684
          ],
          [
            10.591859606655351,
            37.64478321159947
          ],
          [
            10.439712423327894,
            37.65548890491293
          ],
          [
            10.287521945222126,
            37.66599828904058
          ],
          [
            10.1352889456838,
            37.67631123532777
          ],
          [
            9.983014200137497,
            37.686427617428876
          ],
          [
            9.830698486051046,
            37.6963473113141
          ],
          [
            9.67834258289971,
            37.7060701952763
          ],
          [
            9.52594727213013,
            37.715596149937575
          ],
          [
            9.373513337124074,
            37.724925058255856
          ],
          [
            9.221041563161952,
            37.73405680553128
          ],
          [
            9.068532737386136,
            37.74299127941243
          ],
          [
            8.915987648764037,
            37.75172836990261
          ],
          [
            8.763407088051034,
            37.76026796936576
          ],
          [
            8.610791847753138,
            37.76860997253251
          ],
          [
            8.45814272208951,
            37.77675427650585
          ],
          [
            8.305460506954754,
            37.78470078076686
          ],
          [
            8.152745999881033,
            37.79244938718031
          ],
          [
            8.0,
            37.8
          ],
          [
            7.711538416244446,
            37.76886515160298
          ],
          [
            7.423321355620201,
            37.73702463494128
          ],
          [
            7.135353791036817,
            37.70447985045826
          ],
          [
            6.847640652392417,
            37.671232226214975
          ],
          [
            6.560186825882795,
            37.63728321761833
          ],
          [
            6.272997153327116,
            37.602634307145564
          ],
          [
            5.986076431510297,
            37.56728700406457
          ],
          [
            5.699429411542237,
            37.53124284415078
          ],
          [
            5.413060798234021,
            37.494503389400414
          ],
          [
            5.126975249491208,
            37.457070227740125
          ],
          [
            4.84117737572436,
            37.418944972733485
          ],
          [
            4.555671739276805,
            37.38012926328418
          ],
          [
            4.270462853869857,
            37.34062476333617
          ],
          [
            3.9855551840654133,
            37.300433161570815
          ],
          [
            3.70095314474617,
            37.25955617110126
          ],
          [
            3.416661100613312,
            37.217995529164014
          ],
          [
            3.132683365701908,
            37.17575299680809
          ],
          [
            2.8490242029138706,
            37.132830358581586
          ],
          [
            2.5656878235686635,
            37.08922942221591
          ],
          [
            2.282678386971626,
            37.044952018307946
          ],
          [
            2.0,
            37.0
          ],
          [
            1.6337260426942717,
            36.96109277772858
          ],
          [
            1.2678300122503885,
            36.92105666741651
          ],
          [
            0.9023217312630696,
            36.87989446296799
          ],
          [
            0.5372109162273255,
            36.837609028542936
          ],
          [
            0.17250717536827365,
            36.794203297700264
          ],
          [
            -0.19177999346442443,
            36.74968027252551
          ],
          [
            -0.5556412048367907,
            36.70404302274317
          ],
          [
            -0.9190671877047021,
            36.6572946848146
          ],
          [
            -1.2820487873214073,
            36.6094384610219
          ],
          [
            -1.6445769670778416,
            36.560477618538485
          ],
          [
            -2.006642810275274,
            36.510415488487034
          ],
          [
            -2.368237521829868,
            36.459255464985304
          ],
          [
            -2.7293524299088245,
            36.40700100418049
          ],
          [
            -3.089978987497825,
            36.35365562327291
          ],
          [
            -3.4501087738995775,
            36.29922289952929
          ],
          [
            -3.809733496163336,
            36.24370646928675
          ],
          [
            -4.16884499044529,
            36.18711002694764
          ],
          [
            -4.52743522329984,
            36.12943732396625
          ],
          [
            -4.885496292901805,
            36.07069216782779
          ],
          [
            -5.243020430199655,
            36.01087842102025
          ],
          [
            -5.6,
            35.95
          ],
          [
            -6.044687500000009,
            36.064687500000005
          ],
          [
            -9.141250000000014,
            36.9821875
          ],
          [
            -9.599999999999994,
            38.8171875
          ],
          [
            -9.255937499999987,
            44.207499999999996
          ],
          [
            -2.71875,
            50.400625
          ],
          [
            -1.1131249999999966,
            50.5153125
          ],
          [
            0.9512499999999875,
            50.7446875
          ],
          [
            6.456249999999983,
            54.3
          ],
          [
            7.0,
            54.3
          ],
          [
            7.144798238389131,
            54.265991673272836
          ],
          [
            7.28935769915977,
            54.231809560231376
          ],
          [
            7.433677865685309,
            54.197454162220346
          ],
          [
            7.5777582327836175,
            54.16292598120926
          ],
          [
            7.721598306665633,
            54.12822551976545
          ],
          [
            7.865197604883138,
            54.09335328102706
          ],
          [
            8.008555656275748,
            54.05830976867643
          ],
          [
            8.151672000917111,
            54.023095486913526
          ],
          [
            8.294546190060357,
            53.987710940429594
          ],
          [
            8.437177786082824,
            53.95215663438106
          ],
          [
            8.579566362430029,
            53.91643307436359
          ],
          [
            8.721711503558966,
            53.88054076638626
          ],
          [
            8.863612804880733,
            53.84448021684606
          ],
          [
            9.005269872702408,
            53.80825193250252
          ],
          [
            9.146682324168406,
            53.77185642045251
          ],
          [
            9.287849787201072,
            53.73529418810533
          ],
          [
            9.428771900440772,
            53.69856574315787
          ],
          [
            9.569448313185315,
            53.66167159357009
          ],
          [
            9.709878685328817,
            53.62461224754064
          ],
          [
            9.850062687300003,
            53.58738821348269
          ],
          [
            9.99,
            53.55
          ]
        ]
      }
    }
  ]
}
