{
  "type": "FeatureCollection",
  "bbox": [
    -17.758187499999963,
    -34.9649375,
    60.166,
    54.3
  ],
  "metadata": {
    "route_id": "MEA-CAPE",
    "lane": "AEJEA-DEHAM",
    "contracted": false,
    "total_distance_km": 21844.7,
    "total_duration_days": 32,
    "leg_count": 2
  },
  "features": [
    {
      "type": "Feature",
      "bbox": [
        31.02,
        -29.87,
        60.166,
        26.72500000000001
      ],
      "properties": {
        "route_id": "MEA-CAPE",
        "leg_index": 0,
        "from": "AEJEA",
        "to": "ZADUR",
        "mode": "ocean",
        "duration_days": 16,
        "distance_km": 7893.0,
        "waypoints": [
          {
            "id": "AEJEA",
            "name": "Jebel Ali",
            "lon": 55.06,
            "lat": 25.01,
            "source": "masterdata",
            "ref": "locations.jsonl:AEJEA"
          },
          {
            "id": "ZADUR",
            "name": "Durban",
            "lon": 31.02,
            "lat": -29.87,
            "source": "masterdata",
            "ref": "locations.jsonl:ZADUR"
          }
        ]
      },
      "geometry": {
        "type": "LineString",
        "coordinates": [
          [
            55.06,
            25.01
          ],
          [
            55.021000000000015,
            25.35300000000001
          ],
          [
            55.364000000000004,
            25.695999999999998
          ],
          [
            55.706999999999994,
            26.039
          ],
          [
            56.05000000000001,
            26.382000000000005
          ],
          [
            56.393,
            26.72500000000001
          ],
          [
            56.73599999999999,
            26.382000000000005
          ],
          [
            57.07900000000001,
            26.039
          ],
          [
            57.07900000000001,
            25.695999999999998
          ],
          [
            57.422,
            25.35300000000001
          ],
          [
            57.764999999999986,
            25.010000000000005
          ],
          [
            58.108000000000004,
            24.667
          ],
          [
            58.45099999999999,
            24.323999999999998
          ],
          [
            58.79400000000001,
            23.98100000000001
          ],
          [
            59.137,
            23.638000000000005
          ],
          [
            59.48000000000002,
            23.295
          ],
          [
            59.82300000000001,
            22.951999999999998
          ],
          [
            60.166,
            22.60900000000001
          ],
          [
            60.166,
            22.266000000000005
          ],
          [
            59.82300000000001,
            21.923000000000002
          ],
          [
            59.82300000000001,
            21.58
          ],
          [
            59.48000000000002,
            21.23700000000001
          ],
          [
            59.137,
            20.894000000000005
          ],
          [
            59.137,
            20.551000000000002
          ],
          [
            59.137,
            20.208
          ],
          [
            58.79400000000001,
            19.86500000000001
          ],
          [
            58.45099999999999,
            19.522000000000006
          ],
          [
            58.108000000000004,
            19.179000000000002
          ],
          [
            57.764999999999986,
            18.836
          ],
          [
            57.422,
            18.492999999999995
          ],
          [
            57.07900000000001,
            18.150000000000006
          ],
          [
            56.73599999999999,
            17.807000000000002
          ],
          [
            56.393,
            17.464
          ],
          [
            56.05000000000001,
            17.121000000000002
          ],
          [
            55.706999999999994,
            16.778
          ],
          [
            55.364000000000004,
            16.435000000000002
          ],
          [
            55.021000000000015,
            16.092
          ],
          [
            54.678,
            15.749000000000002
          ],
          [
            54.33500000000001,
            15.405999999999999
          ],
          [
            53.99200000000002,
            15.063000000000002
          ],
          [
            53.649,
            14.719999999999999
          ],
          [
            53.30599999999998,
            14.377000000000002
          ],
          [
            52.962999999999994,
            14.033999999999999
          ],
          [
            52.620000000000005,
            13.691000000000003
          ],
          [
            52.27699999999999,
            13.347999999999999
          ],
          [
            51.934,
            13.005000000000003
          ],
          [
            51.59100000000001,
            12.661999999999999
          ],
          [
            51.59100000000001,
            12.319000000000003
          ],
          [
            51.59100000000001,
            11.975999999999999
          ],
          [
            51.59100000000001,
            11.633000000000003
          ],
          [
            51.59100000000001,
            11.29
          ],
          [
            51.59100000000001,
            10.947000000000003
          ],
          [
            51.59100000000001,
            10.604
          ],
          [
            51.24799999999999,
            10.261000000000003
          ],
          [
            51.24799999999999,
            9.918
          ],
          [
            51.24799999999999,
            9.575000000000003
          ],
          [
            51.24799999999999,
            9.232
          ],
          [
            51.24799999999999,
            8.889000000000003
          ],
          [
            51.24799999999999,
            8.546
          ],
          [
            51.24799999999999,
            8.203000000000003
          ],
          [
            51.24799999999999,
            7.859999999999999
          ],
          [
            51.24799999999999,
            7.517000000000003
          ],
          [
            51.24799999999999,
            7.1739999999999995
          ],
          [
            51.24799999999999,
            6.831000000000003
          ],
          [
            51.24799999999999,
            6.4879999999999995
          ],
          [
            51.24799999999999,
            6.145000000000003
          ],
          [
            51.24799999999999,
            5.802
          ],
          [
            51.24799999999999,
            5.459000000000003
          ],
          [
            51.24799999999999,
            5.116
          ],
          [
            51.24799999999999,
            4.773000000000003
          ],
          [
            51.24799999999999,
            4.43
          ],
          [
            51.24799999999999,
            4.087000000000003
          ],
          [
            51.24799999999999,
            3.7439999999999998
          ],
          [
            51.24799999999999,
            3.4010000000000034
          ],
          [
            51.24799999999999,
            3.058
          ],
          [
            51.24799999999999,
            2.7150000000000034
          ],
          [
            51.24799999999999,
            2.372
          ],
          [
            51.24799999999999,
            2.0290000000000035
          ],
          [
            51.24799999999999,
            1.686
          ],
          [
            51.24799999999999,
            1.3430000000000035
          ],
          [
            51.24799999999999,
            1.0
          ],
          [
            51.24799999999999,
            0.6570000000000036
          ],
          [
            51.24799999999999,
            0.31400000000000006
          ],
          [
            51.24799999999999,
            -0.028999999999996362
          ],
          [
            51.24799999999999,
            -0.3719999999999999
          ],
          [
            51.24799999999999,
            -0.7149999999999963
          ],
          [
            51.24799999999999,
            -1.0579999999999998
          ],
          [
            51.24799999999999,
            -1.4009999999999962
          ],
          [
            51.24799999999999,
            -1.7439999999999998
          ],
          [
            51.24799999999999,
            -2.086999999999996
          ],
          [
            51.24799999999999,
            -2.4299999999999997
          ],
          [
            51.24799999999999,
            -2.7730000000000032
          ],
          [
            51.24799999999999,
            -3.1159999999999997
          ],
          [
            51.24799999999999,
            -3.459000000000003
          ],
          [
            51.24799999999999,
            -3.8019999999999996
          ],
          [
            51.24799999999999,
            -4.145000000000003
          ],
          [
            51.24799999999999,
            -4.4879999999999995
          ],
          [
            51.24799999999999,
            -4.831000000000003
          ],
          [
            51.24799999999999,
            -5.1739999999999995
          ],
          [
            51.24799999999999,
            -5.517000000000003
          ],
          [
            51.24799999999999,
            -5.859999999999999
          ],
          [
            51.24799999999999,
            -6.203000000000003
          ],
          [
            51.24799999999999,
            -6.545999999999999
          ],
          [
            51.24799999999999,
            -6.889000000000003
          ],
          [
            51.24799999999999,
            -7.231999999999999
          ],
          [
            51.24799999999999,
            -7.575000000000003
          ],
          [
            51.24799999999999,
            -7.917999999999999
          ],
          [
            51.24799999999999,
            -8.261000000000003
          ],
          [
            51.24799999999999,
            -8.604
          ],
          [
            51.24799999999999,
            -8.947000000000003
          ],
          [
            51.24799999999999,
            -9.29
          ],
          [
            50.905,
            -9.633000000000003
          ],
          [
            50.56200000000001,
            -9.975999999999999
          ],
          [
            50.218999999999994,
            -10.319000000000003
          ],
          [
            49.876000000000005,
            -10.661999999999999
          ],
          [
            49.533000000000015,
            -11.005000000000003
          ],
          [
            49.19,
            -11.347999999999999
          ],
          [
            48.84700000000001,
            -11.691000000000003
          ],
          [
            48.50400000000002,
            -12.033999999999999
          ],
          [
            48.161,
            -12.377000000000002
          ],
          [
            47.817999999999984,
            -12.719999999999999
          ],
          [
            47.474999999999994,
            -13.063000000000002
          ],
          [
            47.132000000000005,
            -13.405999999999999
          ],
          [
            46.78899999999999,
            -13.749000000000002
          ],
          [
            46.446,
            -14.091999999999999
          ],
          [
            46.10300000000001,
            -14.435000000000002
          ],
          [
            45.75999999999999,
            -14.778000000000002
          ],
          [
            45.417,
            -15.121000000000002
          ],
          [
            45.07400000000001,
            -15.464000000000002
          ],
          [
            44.730999999999995,
            -15.807000000000002
          ],
          [
            44.388000000000005,
            -16.150000000000002
          ],
          [
            44.045000000000016,
            -16.493000000000002
          ],
          [
            44.045000000000016,
            -16.836000000000002
          ],
          [
            43.702,
            -17.179000000000002
          ],
          [
            43.702,
            -17.522000000000002
          ],
          [
            43.35900000000001,
            -17.865000000000002
          ],
          [
            43.01600000000002,
            -18.208000000000002
          ],
          [
            42.673,
            -18.551000000000002
          ],
          [
            42.329999999999984,
            -18.894000000000002
          ],
          [
            41.986999999999995,
            -19.237000000000002
          ],
          [
            41.644000000000005,
            -19.580000000000002
          ],
          [
            41.30099999999999,
            -19.923000000000002
          ],
          [
            40.958,
            -20.266000000000002
          ],
          [
            40.61500000000001,
            -20.609
          ],
          [
            40.27199999999999,
            -20.952
          ],
          [
            39.929,
            -21.295
          ],
          [
            39.58600000000001,
            -21.638
          ],
          [
            39.242999999999995,
            -21.981
          ],
          [
            38.900000000000006,
            -22.324
          ],
          [
            38.557000000000016,
            -22.667
          ],
          [
            38.214,
            -23.01
          ],
          [
            37.87100000000001,
            -23.353
          ],
          [
            37.52799999999999,
            -23.696
          ],
          [
            37.185,
            -24.039
          ],
          [
            36.841999999999985,
            -24.382
          ],
          [
            36.498999999999995,
            -24.725
          ],
          [
            36.156000000000006,
            -25.068
          ],
          [
            35.81299999999999,
            -25.411
          ],
          [
            35.47,
            -25.754
          ],
          [
            35.12700000000001,
            -26.097
          ],
          [
            34.78399999999999,
            -26.44
          ],
          [
            34.441,
            -26.783
          ],
          [
            34.09800000000001,
            -27.126
          ],
          [
            33.754999999999995,
            -27.469
          ],
          [
            33.412000000000006,
            -27.812
          ],
          [
            33.06900000000002,
            -28.155
          ],
          [
            32.726,
            -28.498
          ],
          [
            32.38300000000001,
            -28.841
          ],
          [
            32.03999999999999,
            -29.184
          ],
          [
            31.697000000000003,
            -29.527
          ],
          [
            31.353999999999985,
            -29.87
          ],
          [
            31.02,
            -29.87
          ]
        ]
      }
    },
    {
      "type": "Feature",
      "bbox": [
        -17.75818749999999,
        -34.9649375,
        31.021000000000015,
        54.3
      ],
      "properties": {
        "route_id": "MEA-CAPE",
        "leg_index": 1,
        "from": "ZADUR",
        "to": "DEHAM",
        "mode": "ocean",
        "duration_days": 16,
        "distance_km": 13951.7,
        "waypoints": [
          {
            "id": "ZADUR",
            "name": "Durban",
            "lon": 31.02,
            "lat": -29.87,
            "source": "masterdata",
            "ref": "locations.jsonl:ZADUR"
          },
          {
            "id": "CAPE_OF_GOOD_HOPE",
            "name": "Cape of Good Hope",
            "lon": 19.98,
            "lat": -34.83,
            "source": "naturalearth",
            "ref": "data/vendor/naturalearth/10m-physical/ne_10m_land"
          },
          {
            "id": "DEHAM_MOUTH",
            "name": "Elbe mouth, German Bight",
            "lon": 7.0,
            "lat": 54.3,
            "source": "naturalearth",
            "ref": "data/vendor/naturalearth/10m-physical/ne_10m_land"
          },
          {
            "id": "DEHAM",
            "name": "Hamburg",
            "lon": 9.99,
            "lat": 53.55,
            "source": "masterdata",
            "ref": "locations.jsonl:DEHAM"
          }
        ]
      },
      "geometry": {
        "type": "LineString",
        "coordinates": [
          [
            31.02,
            -29.87
          ],
          [
            31.021000000000015,
            -29.93
          ],
          [
            31.021000000000015,
            -29.999
          ],
          [
            31.021000000000015,
            -30.067999999999998
          ],
          [
            31.021000000000015,
            -30.137
          ],
          [
            31.021000000000015,
            -30.206
          ],
          [
            31.021000000000015,
            -30.275
          ],
          [
            31.021000000000015,
            -30.344
          ],
          [
            31.021000000000015,
            -30.413
          ],
          [
            30.951999999999998,
            -30.482
          ],
          [
            30.88300000000001,
            -30.551
          ],
          [
            30.813999999999993,
            -30.619999999999997
          ],
          [
            30.745000000000005,
            -30.689
          ],
          [
            30.675999999999988,
            -30.758
          ],
          [
            30.607,
            -30.826999999999998
          ],
          [
            30.53800000000001,
            -30.896
          ],
          [
            30.468999999999994,
            -30.965
          ],
          [
            30.400000000000006,
            -31.034
          ],
          [
            30.33099999999999,
            -31.102999999999998
          ],
          [
            30.262,
            -31.171999999999997
          ],
          [
            30.192999999999984,
            -31.241
          ],
          [
            30.123999999999995,
            -31.31
          ],
          [
            30.055000000000007,
            -31.378999999999998
          ],
          [
            29.98599999999999,
            -31.448
          ],
          [
            29.917,
            -31.517
          ],
          [
            29.848000000000013,
            -31.586
          ],
          [
            29.778999999999996,
            -31.654999999999998
          ],
          [
            29.710000000000008,
            -31.724
          ],
          [
            29.64099999999999,
            -31.793
          ],
          [
            29.572000000000003,
            -31.862
          ],
          [
            29.502999999999986,
            -31.930999999999997
          ],
          [
            29.433999999999997,
            -32.0
          ],
          [
            29.36500000000001,
            -32.069
          ],
          [
            29.295999999999992,
            -32.138
          ],
          [
            29.227000000000004,
            -32.207
          ],
          [
            29.158000000000015,
            -32.275999999999996
          ],
          [
            29.089,
            -32.345
          ],
          [
            29.02000000000001,
            -32.414
          ],
          [
            28.950999999999993,
            -32.483
          ],
          [
            28.882000000000005,
            -32.552
          ],
          [
            28.812999999999988,
            -32.620999999999995
          ],
          [
            28.744,
            -32.69
          ],
          [
            28.67500000000001,
            -32.759
          ],
          [
            28.605999999999995,
            -32.827999999999996
          ],
          [
            28.537000000000006,
            -32.897
          ],
          [
            28.46799999999999,
            -32.966
          ],
          [
            28.399,
            -33.035
          ],
          [
            28.329999999999984,
            -33.104
          ],
          [
            28.260999999999996,
            -33.173
          ],
          [
            28.192000000000007,
            -33.242
          ],
          [
            28.12299999999999,
            -33.311
          ],
          [
            28.054000000000002,
            -33.379999999999995
          ],
          [
            27.985000000000014,
            -33.449
          ],
          [
            27.915999999999997,
            -33.518
          ],
          [
            27.84700000000001,
            -33.586999999999996
          ],
          [
            27.77799999999999,
            -33.656
          ],
          [
            27.709000000000003,
            -33.725
          ],
          [
            27.639999999999986,
            -33.794
          ],
          [
            27.570999999999998,
            -33.863
          ],
          [
            27.50200000000001,
            -33.932
          ],
          [
            27.432999999999993,
            -34.001
          ],
          [
            27.364000000000004,
            -34.07
          ],
          [
            27.295000000000016,
            -34.138999999999996
          ],
          [
            27.226,
            -34.208
          ],
          [
            27.15700000000001,
            -34.277
          ],
          [
            27.087999999999994,
            -34.346
          ],
          [
            27.019000000000005,
            -34.415
          ],
          [
            26.94999999999999,
            -34.484
          ],
          [
            26.881,
            -34.553
          ],
          [
            26.812000000000012,
            -34.622
          ],
          [
            26.742999999999995,
            -34.690999999999995
          ],
          [
            26.674000000000007,
            -34.76
          ],
          [
            26.60499999999999,
            -34.829
          ],
          [
            26.536,
            -34.829
          ],
          [
            26.466999999999985,
            -34.829
          ],
          [
            26.397999999999996,
            -34.829
          ],
          [
            26.329000000000008,
            -34.829
          ],
          [
            26.25999999999999,
            -34.829
          ],
          [
            26.191000000000003,
            -34.829
          ],
          [
            26.122000000000014,
            -34.829
          ],
          [
            26.052999999999997,
            -34.829
          ],
          [
            25.98400000000001,
            -34.829
          ],
          [
            25.914999999999992,
            -34.829
          ],
          [
            25.846000000000004,
            -34.829
          ],
          [
            25.776999999999987,
            -34.829
          ],
          [
            25.708,
            -34.829
          ],
          [
            25.63900000000001,
            -34.829
          ],
          [
            25.569999999999993,
            -34.829
          ],
          [
            25.501000000000005,
            -34.829
          ],
          [
            25.431999999999988,
            -34.829
          ],
          [
            25.363,
            -34.829
          ],
          [
            25.29400000000001,
            -34.829
          ],
          [
            25.224999999999994,
            -34.829
          ],
          [
            25.156000000000006,
            -34.829
          ],
          [
            25.08699999999999,
            -34.829
          ],
          [
            25.018,
            -34.829
          ],
          [
            24.949000000000012,
            -34.829
          ],
          [
            24.879999999999995,
            -34.829
          ],
          [
            24.811000000000007,
            -34.829
          ],
          [
            24.74199999999999,
            -34.829
          ],
          [
            24.673000000000002,
            -34.829
          ],
          [
            24.603999999999985,
            -34.829
          ],
          [
            24.534999999999997,
            -34.829
          ],
          [
            24.466000000000008,
            -34.829
          ],
          [
            24.39699999999999,
            -34.829
          ],
          [
            24.328000000000003,
            -34.829
          ],
          [
            24.259000000000015,
            -34.829
          ],
          [
            24.189999999999998,
            -34.829
          ],
          [
            24.12100000000001,
            -34.829
          ],
          [
            24.051999999999992,
            -34.829
          ],
          [
            23.983000000000004,
            -34.829
          ],
          [
            23.913999999999987,
            -34.829
          ],
          [
            23.845,
            -34.829
          ],
          [
            23.77600000000001,
            -34.829
          ],
          [
            23.706999999999994,
            -34.829
          ],
          [
            23.638000000000005,
            -34.829
          ],
          [
            23.56899999999999,
            -34.829
          ],
          [
            23.5,
            -34.829
          ],
          [
            23.43100000000001,
            -34.829
          ],
          [
            23.361999999999995,
            -34.829
          ],
          [
            23.293000000000006,
            -34.829
          ],
          [
            23.22399999999999,
            -34.829
          ],
          [
            23.155,
            -34.829
          ],
          [
            23.086000000000013,
            -34.829
          ],
          [
            23.016999999999996,
            -34.829
          ],
          [
            22.948000000000008,
            -34.829
          ],
          [
            22.87899999999999,
            -34.829
          ],
          [
            22.810000000000002,
            -34.829
          ],
          [
            22.740999999999985,
            -34.829
          ],
          [
            22.671999999999997,
            -34.829
          ],
          [
            22.60300000000001,
            -34.829
          ],
          [
            22.533999999999992,
            -34.829
          ],
          [
            22.465000000000003,
            -34.829
          ],
          [
            22.396000000000015,
            -34.829
          ],
          [
            22.326999999999998,
            -34.829
          ],
          [
            22.25800000000001,
            -34.829
          ],
          [
            22.188999999999993,
            -34.829
          ],
          [
            22.120000000000005,
            -34.829
          ],
          [
            22.050999999999988,
            -34.829
          ],
          [
            21.982,
            -34.829
          ],
          [
            21.91300000000001,
            -34.829
          ],
          [
            21.843999999999994,
            -34.829
          ],
          [
            21.775000000000006,
            -34.829
          ],
          [
            21.70599999999999,
            -34.829
          ],
          [
            21.637,
            -34.829
          ],
          [
            21.568000000000012,
            -34.829
          ],
          [
            21.498999999999995,
            -34.829
          ],
          [
            21.430000000000007,
            -34.829
          ],
          [
            21.36099999999999,
            -34.829
          ],
          [
            21.292,
            -34.829
          ],
          [
            21.223000000000013,
            -34.829
          ],
          [
            21.153999999999996,
            -34.829
          ],
          [
            21.085000000000008,
            -34.829
          ],
          [
            21.01599999999999,
            -34.829
          ],
          [
            20.947000000000003,
            -34.829
          ],
          [
            20.877999999999986,
            -34.829
          ],
          [
            20.808999999999997,
            -34.829
          ],
          [
            20.74000000000001,
            -34.829
          ],
          [
            20.670999999999992,
            -34.829
          ],
          [
            20.602000000000004,
            -34.829
          ],
          [
            20.533000000000015,
            -34.829
          ],
          [
            20.464,
            -34.829
          ],
          [
            20.39500000000001,
            -34.829
          ],
          [
            20.325999999999993,
            -34.829
          ],
          [
            20.257000000000005,
            -34.829
          ],
          [
            20.187999999999988,
            -34.829
          ],
          [
            20.119,
            -34.829
          ],
          [
            20.05000000000001,
            -34.829
          ],
          [
            19.98,
            -34.83
          ],
          [
            19.564999999999998,
            -34.9649375
          ],
          [
            19.007937499999997,
            -34.9649375
          ],
          [
            18.450874999999996,
            -34.9649375
          ],
          [
            17.893812499999996,
            -34.407875
          ],
          [
            17.336749999999995,
            -33.850812499999996
          ],
          [
            16.779687499999994,
            -33.293749999999996
          ],
          [
            16.222624999999994,
            -32.736687499999995
          ],
          [
            15.665562499999993,
            -32.179625
          ],
          [
            15.108499999999992,
            -31.6225625
          ],
          [
            14.551437499999992,
            -31.0655
          ],
          [
            13.994374999999991,
            -30.5084375
          ],
          [
            13.437312500000019,
            -29.951375
          ],
          [
            12.88024999999999,
            -29.394312499999998
          ],
          [
            12.323187500000017,
            -28.837249999999997
          ],
          [
            11.766124999999988,
            -28.280187499999997
          ],
          [
            11.209062500000016,
            -27.723124999999996
          ],
          [
            10.651999999999987,
            -27.166062499999995
          ],
          [
            10.094937500000015,
            -26.608999999999995
          ],
          [
            9.537874999999985,
            -26.0519375
          ],
          [
            8.980812500000013,
            -25.494875
          ],
          [
            8.423749999999984,
            -24.937812499999993
          ],
          [
            7.866687500000012,
            -24.380749999999992
          ],
          [
            7.309625000000011,
            -23.82368749999999
          ],
          [
            6.7525625000000105,
            -23.266625000000005
          ],
          [
            6.19550000000001,
            -22.709562500000004
          ],
          [
            5.638437500000009,
            -22.152500000000003
          ],
          [
            5.081375000000008,
            -21.595437500000003
          ],
          [
            4.524312500000008,
            -21.038375000000002
          ],
          [
            3.967250000000007,
            -20.4813125
          ],
          [
            3.4101875000000064,
            -19.92425
          ],
          [
            2.8531250000000057,
            -19.3671875
          ],
          [
            2.296062500000005,
            -18.810125
          ],
          [
            1.7390000000000043,
            -18.2530625
          ],
          [
            1.1819375000000036,
            -17.695999999999998
          ],
          [
            0.624875000000003,
            -17.138937499999997
          ],
          [
            0.06781250000000227,
            -16.581874999999997
          ],
          [
            -0.4892499999999984,
            -16.024812499999996
          ],
          [
            -1.046312499999999,
            -15.467749999999995
          ],
          [
            -1.6033749999999998,
            -14.910687499999995
          ],
          [
            -2.1604375000000005,
            -14.353624999999994
          ],
          [
            -2.717500000000001,
            -13.796562499999993
          ],
          [
            -3.274562500000002,
            -13.239499999999992
          ],
          [
            -3.8316250000000025,
            -12.682437499999992
          ],
          [
            -4.388687500000003,
            -12.125374999999991
          ],
          [
            -4.945750000000004,
            -11.568312500000005
          ],
          [
            -5.5028125000000045,
            -11.011250000000004
          ],
          [
            -6.059875000000005,
            -10.454187500000003
          ],
          [
            -6.616937500000006,
            -9.897125000000003
          ],
          [
            -7.174000000000007,
            -9.340062500000002
          ],
          [
            -7.731062500000007,
            -8.783000000000001
          ],
          [
            -8.288125000000008,
            -8.2259375
          ],
          [
            -8.845187500000009,
            -7.668875
          ],
          [
            -9.40225000000001,
            -7.111812499999999
          ],
          [
            -9.95931250000001,
            -6.5547499999999985
          ],
          [
            -10.51637500000001,
            -5.997687499999998
          ],
          [
            -11.073437500000011,
            -5.440624999999997
          ],
          [
            -11.073437500000011,
            -4.8835624999999965
          ],
          [
            -11.073437500000011,
            -4.326499999999996
          ],
          [
            -11.073437500000011,
            -3.769437499999995
          ],
          [
            -11.073437500000011,
            -3.2123749999999944
          ],
          [
            -11.073437500000011,
            -2.6553124999999937
          ],
          [
            -11.073437500000011,
            -2.098249999999993
          ],
          [
            -11.073437500000011,
            -1.5411874999999924
          ],
          [
            -11.073437500000011,
            -0.9841249999999917
          ],
          [
            -11.073437500000011,
            -0.427062499999991
          ],
          [
            -11.073437500000011,
            0.12999999999999545
          ],
          [
            -11.073437500000011,
            0.6870624999999961
          ],
          [
            -11.073437500000011,
            1.2441249999999968
          ],
          [
            -11.073437500000011,
            1.8011874999999975
          ],
          [
            -11.073437500000011,
            2.358249999999998
          ],
          [
            -11.073437500000011,
            2.915312499999999
          ],
          [
            -11.073437500000011,
            3.4723749999999995
          ],
          [
            -11.073437500000011,
            4.0294375
          ],
          [
            -11.073437500000011,
            4.586500000000001
          ],
          [
            -11.073437500000011,
            5.143562500000002
          ],
          [
            -11.073437500000011,
            5.700625000000002
          ],
          [
            -11.630500000000012,
            6.257687500000003
          ],
          [
            -12.187562500000013,
            6.814750000000004
          ],
          [
            -12.744624999999985,
            7.371812500000004
          ],
          [
            -13.301687500000014,
            7.928875000000005
          ],
          [
            -13.858749999999986,
            8.485937500000006
          ],
          [
            -14.415812499999987,
            9.043000000000006
          ],
          [
            -14.972874999999988,
            9.600062500000007
          ],
          [
            -15.529937499999988,
            10.157125000000008
          ],
          [
            -16.08699999999999,
            10.714187500000008
          ],
          [
            -16.64406249999999,
            11.271250000000009
          ],
          [
            -16.64406249999999,
            11.82831250000001
          ],
          [
            -17.20112499999999,
            12.385374999999996
          ],
          [
            -17.20112499999999,
            12.942437499999997
          ],
          [
            -17.20112499999999,
            13.499499999999998
          ],
          [
            -17.20112499999999,
            14.056562499999998
          ],
          [
            -17.75818749999999,
            14.613624999999999
          ],
          [
            -17.75818749999999,
            15.1706875
          ],
          [
            -17.75818749999999,
            15.72775
          ],
          [
            -17.75818749999999,
            16.2848125
          ],
          [
            -17.75818749999999,
            16.841875
          ],
          [
            -17.75818749999999,
            17.398937500000002
          ],
          [
            -17.75818749999999,
            17.956000000000003
          ],
          [
            -17.75818749999999,
            18.513062500000004
          ],
          [
            -17.75818749999999,
            19.070125000000004
          ],
          [
            -17.75818749999999,
            19.627187500000005
          ],
          [
            -17.75818749999999,
            20.184250000000006
          ],
          [
            -17.75818749999999,
            20.741312500000006
          ],
          [
            -17.75818749999999,
            21.298375000000007
          ],
          [
            -17.75818749999999,
            21.855437500000008
          ],
          [
            -17.75818749999999,
            22.41250000000001
          ],
          [
            -17.75818749999999,
            22.96956250000001
          ],
          [
            -17.75818749999999,
            23.52662500000001
          ],
          [
            -17.75818749999999,
            24.083687499999996
          ],
          [
            -17.75818749999999,
            24.640749999999997
          ],
          [
            -17.75818749999999,
            25.197812499999998
          ],
          [
            -17.75818749999999,
            25.754875
          ],
          [
            -17.75818749999999,
            26.3119375
          ],
          [
            -17.75818749999999,
            26.869
          ],
          [
            -17.75818749999999,
            27.4260625
          ],
          [
            -17.75818749999999,
            27.983125
          ],
          [
            -17.20112499999999,
            28.540187500000002
          ],
          [
            -17.20112499999999,
            29.097250000000003
          ],
          [
            -17.20112499999999,
            29.654312500000003
          ],
          [
            -17.20112499999999,
            30.211375000000004
          ],
          [
            -17.20112499999999,
            30.768437500000005
          ],
          [
            -17.20112499999999,
            31.325500000000005
          ],
          [
            -17.20112499999999,
            31.882562500000006
          ],
          [
            -17.20112499999999,
            32.43962500000001
          ],
          [
            -17.20112499999999,
            32.99668750000001
          ],
          [
            -17.20112499999999,
            33.55375000000001
          ],
          [
            -17.20112499999999,
            34.11081250000001
          ],
          [
            -17.20112499999999,
            34.66787500000001
          ],
          [
            -17.20112499999999,
            35.22493750000001
          ],
          [
            -17.20112499999999,
            35.78200000000001
          ],
          [
            -17.20112499999999,
            36.3390625
          ],
          [
            -16.64406249999999,
            36.896125
          ],
          [
            -16.08699999999999,
            37.4531875
          ],
          [
            -15.529937499999988,
            38.01025
          ],
          [
            -14.972874999999988,
            38.5673125
          ],
          [
            -14.415812499999987,
            39.124375000000015
          ],
          [
            -13.858749999999986,
            39.681437500000015
          ],
          [
            -13.301687500000014,
            40.238500000000016
          ],
          [
            -12.744624999999985,
            40.79556250000002
          ],
          [
            -12.187562500000013,
            41.35262500000002
          ],
          [
            -11.630500000000012,
            41.90968749999999
          ],
          [
            -11.073437500000011,
            42.46674999999999
          ],
          [
            -10.51637500000001,
            43.02381249999999
          ],
          [
            -9.95931250000001,
            43.58087499999999
          ],
          [
            -9.40225000000001,
            44.13793749999999
          ],
          [
            -8.845187500000009,
            44.69499999999999
          ],
          [
            -8.288125000000008,
            45.252062499999994
          ],
          [
            -7.731062500000007,
            45.809124999999995
          ],
          [
            -7.174000000000007,
            46.366187499999995
          ],
          [
            -6.616937500000006,
            46.923249999999996
          ],
          [
            -6.059875000000005,
            47.4803125
          ],
          [
            -5.5028125000000045,
            48.037375
          ],
          [
            -4.945750000000004,
            48.5944375
          ],
          [
            -4.388687500000003,
            49.1515
          ],
          [
            -3.8316250000000025,
            49.7085625
          ],
          [
            -3.274562500000002,
            50.265625
          ],
          [
            -2.717500000000001,
            50.265625
          ],
          [
            -2.1604375000000005,
            50.265625
          ],
          [
            -1.6033749999999998,
            50.265625
          ],
          [
            -1.046312499999999,
            50.265625
          ],
          [
            -0.4892499999999984,
            50.265625
          ],
          [
            0.06781250000000227,
            50.265625
          ],
          [
            0.624875000000003,
            50.265625
          ],
          [
            1.1819375000000036,
            50.8226875
          ],
          [
            1.7390000000000043,
            51.37975
          ],
          [
            2.296062500000005,
            51.9368125
          ],
          [
            2.8531250000000057,
            52.493875
          ],
          [
            3.4101875000000064,
            53.0509375
          ],
          [
            3.967250000000007,
            53.608000000000004
          ],
          [
            4.524312500000008,
            54.165062500000005
          ],
          [
            5.081375000000008,
            54.165062500000005
          ],
          [
            5.638437500000009,
            54.165062500000005
          ],
          [
            6.19550000000001,
            54.165062500000005
          ],
          [
            7.0,
            54.3
          ],
          [
            7.144798238389131,
            54.265991673272836
          ],
          [
            7.28935769915977,
            54.231809560231376
          ],
          [
            7.433677865685309,
            54.197454162220346
          ],
          [
            7.5777582327836175,
            54.16292598120926
          ],
          [
            7.721598306665633,
            54.12822551976545
          ],
          [
            7.865197604883138,
            54.09335328102706
          ],
          [
            8.008555656275748,
            54.05830976867643
          ],
          [
            8.151672000917111,
            54.023095486913526
          ],
          [
            8.294546190060357,
            53.987710940429594
          ],
          [
            8.437177786082824,
            53.95215663438106
          ],
          [
            8.579566362430029,
            53.91643307436359
          ],
          [
            8.721711503558966,
            53.88054076638626
          ],
          [
            8.863612804880733,
            53.84448021684606
          ],
          [
            9.005269872702408,
            53.80825193250252
          ],
          [
            9.146682324168406,
            53.77185642045251
          ],
          [
            9.287849787201072,
            53.73529418810533
          ],
          [
            9.428771900440772,
            53.69856574315787
          ],
          [
            9.569448313185315,
            53.66167159357009
          ],
          [
            9.709878685328817,
            53.62461224754064
          ],
          [
            9.850062687300003,
            53.58738821348269
          ],
          [
            9.99,
            53.55
          ]
        ]
      }
    }
  ]
}
