{
  "type": "FeatureCollection",
  "bbox": [
    -9.600000000000023,
    1.2467499999999996,
    122.69999999999999,
    54.3
  ],
  "metadata": {
    "route_id": "NGB-HAM-MUC",
    "lane": "CNNGB-DEMUC",
    "contracted": false,
    "total_distance_km": 20907.6,
    "total_duration_days": 29,
    "leg_count": 2
  },
  "features": [
    {
      "type": "Feature",
      "bbox": [
        -9.599999999999994,
        1.2467499999999996,
        122.7,
        54.3
      ],
      "properties": {
        "route_id": "NGB-HAM-MUC",
        "leg_index": 0,
        "from": "CNNGB",
        "to": "DEHAM",
        "mode": "ocean",
        "duration_days": 27,
        "distance_km": 20295.5,
        "waypoints": [
          {
            "id": "CNNGB",
            "name": "Ningbo",
            "lon": 121.55,
            "lat": 29.87,
            "source": "masterdata",
            "ref": "locations.jsonl:CNNGB"
          },
          {
            "id": "CNNGB_MOUTH",
            "name": "East China Sea, off Ningbo/Zhoushan",
            "lon": 122.7,
            "lat": 29.85,
            "source": "naturalearth",
            "ref": "data/vendor/naturalearth/10m-physical/ne_10m_land"
          },
          {
            "id": "SOUTH_CHINA_SEA_MID",
            "name": "South China Sea, mid-crossing",
            "lon": 113.0,
            "lat": 12.0,
            "source": "naturalearth",
            "ref": "data/vendor/naturalearth/10m-physical/ne_10m_land"
          },
          {
            "id": "MALACCA_W",
            "name": "Strait of Malacca (west, off Singapore)",
            "lon": 103.83,
            "lat": 1.26,
            "source": "naturalearth",
            "ref": "data/vendor/naturalearth/10m-physical/ne_10m_land"
          },
          {
            "id": "ANDAMAN_SEA",
            "name": "Andaman Sea, west of Sumatra",
            "lon": 95.0,
            "lat": 5.0,
            "source": "naturalearth",
            "ref": "data/vendor/naturalearth/10m-physical/ne_10m_land"
          },
          {
            "id": "SOUTH_OF_SRI_LANKA",
            "name": "Indian Ocean, south of Sri Lanka",
            "lon": 78.0,
            "lat": 2.0,
            "source": "naturalearth",
            "ref": "data/vendor/naturalearth/10m-physical/ne_10m_land"
          },
          {
            "id": "ARABIAN_SEA_MID",
            "name": "Arabian Sea, mid-crossing",
            "lon": 65.0,
            "lat": 6.0,
            "source": "naturalearth",
            "ref": "data/vendor/naturalearth/10m-physical/ne_10m_land"
          },
          {
            "id": "SOUTH_OF_SOCOTRA",
            "name": "South of Socotra",
            "lon": 54.0,
            "lat": 11.5,
            "source": "naturalearth",
            "ref": "data/vendor/naturalearth/10m-physical/ne_10m_land"
          },
          {
            "id": "GUARDAFUI_CHANNEL",
            "name": "Guardafui Channel, north of the Horn of Africa",
            "lon": 50.5,
            "lat": 12.5,
            "source": "naturalearth",
            "ref": "data/vendor/naturalearth/10m-physical/ne_10m_land"
          },
          {
            "id": "GULF_OF_ADEN_MID",
            "name": "Gulf of Aden, mid-crossing",
            "lon": 48.0,
            "lat": 12.2,
            "source": "naturalearth",
            "ref": "data/vendor/naturalearth/10m-physical/ne_10m_land"
          },
          {
            "id": "BAB_EL_MANDEB",
            "name": "Bab-el-Mandeb (Gulf of Aden entrance)",
            "lon": 43.33,
            "lat": 12.58,
            "source": "naturalearth",
            "ref": "data/vendor/naturalearth/10m-physical/ne_10m_land"
          },
          {
            "id": "BAB_EL_MANDEB_N",
            "name": "Red Sea proper, past the strait",
            "lon": 41.8,
            "lat": 15.5,
            "source": "naturalearth",
            "ref": "data/vendor/naturalearth/10m-physical/ne_10m_land"
          },
          {
            "id": "RED_SEA_MID",
            "name": "Central Red Sea, off Port Sudan",
            "lon": 38.5,
            "lat": 20.0,
            "source": "naturalearth",
            "ref": "data/vendor/naturalearth/10m-physical/ne_10m_land"
          },
          {
            "id": "SUEZ_SOUTH",
            "name": "Suez, Gulf of Suez",
            "lon": 32.55,
            "lat": 29.97,
            "source": "naturalearth",
            "ref": "data/vendor/naturalearth/10m-physical/ne_10m_land"
          },
          {
            "id": "SUEZ_NORTH",
            "name": "Port Said, Mediterranean entrance",
            "lon": 32.31,
            "lat": 31.26,
            "source": "naturalearth",
            "ref": "data/vendor/naturalearth/10m-physical/ne_10m_land"
          },
          {
            "id": "NORTH_OF_PORT_SAID",
            "name": "Mediterranean, just off Port Said",
            "lon": 32.0,
            "lat": 32.3,
            "source": "naturalearth",
            "ref": "data/vendor/naturalearth/10m-physical/ne_10m_land"
          },
          {
            "id": "SOUTH_OF_CRETE",
            "name": "Mediterranean, south of Crete",
            "lon": 25.0,
            "lat": 34.0,
            "source": "naturalearth",
            "ref": "data/vendor/naturalearth/10m-physical/ne_10m_land"
          },
          {
            "id": "SOUTH_OF_SICILY",
            "name": "Mediterranean, south of Sicily",
            "lon": 14.0,
            "lat": 35.5,
            "source": "naturalearth",
            "ref": "data/vendor/naturalearth/10m-physical/ne_10m_land"
          },
          {
            "id": "NORTH_OF_CAPE_BON",
            "name": "Sicilian Channel, north of Cape Bon",
            "lon": 11.2,
            "lat": 37.6,
            "source": "naturalearth",
            "ref": "data/vendor/naturalearth/10m-physical/ne_10m_land"
          },
          {
            "id": "SOUTH_OF_SARDINIA",
            "name": "Mediterranean, south of Sardinia",
            "lon": 8.0,
            "lat": 37.8,
            "source": "naturalearth",
            "ref": "data/vendor/naturalearth/10m-physical/ne_10m_land"
          },
          {
            "id": "OFFSHORE_ALGERIA",
            "name": "Mediterranean, offshore Algeria",
            "lon": 2.0,
            "lat": 37.0,
            "source": "naturalearth",
            "ref": "data/vendor/naturalearth/10m-physical/ne_10m_land"
          },
          {
            "id": "GIBRALTAR",
            "name": "Strait of Gibraltar",
            "lon": -5.6,
            "lat": 35.95,
            "source": "naturalearth",
            "ref": "data/vendor/naturalearth/10m-physical/ne_10m_land"
          },
          {
            "id": "DEHAM_MOUTH",
            "name": "Elbe mouth, German Bight",
            "lon": 7.0,
            "lat": 54.3,
            "source": "naturalearth",
            "ref": "data/vendor/naturalearth/10m-physical/ne_10m_land"
          },
          {
            "id": "DEHAM",
            "name": "Hamburg",
            "lon": 9.99,
            "lat": 53.55,
            "source": "masterdata",
            "ref": "locations.jsonl:DEHAM"
          }
        ]
      },
      "geometry": {
        "type": "LineString",
        "coordinates": [
          [
            121.55,
            29.87
          ],
          [
            121.60477152003202,
            29.869274808442107
          ],
          [
            121.65954223539649,
            29.868526890622576
          ],
          [
            121.71431212130358,
            29.867756247558752
          ],
          [
            121.76908115296806,
            29.866962880298825
          ],
          [
            121.82384930560931,
            29.866146789921867
          ],
          [
            121.8786165544516,
            29.8653079775378
          ],
          [
            121.9333828747241,
            29.86444644428738
          ],
          [
            121.9881482416611,
            29.8635621913422
          ],
          [
            122.04291263050206,
            29.86265521990471
          ],
          [
            122.09767601649187,
            29.86172553120818
          ],
          [
            122.15243837488087,
            29.860773126516666
          ],
          [
            122.20719968092503,
            29.859798007125107
          ],
          [
            122.26195990988609,
            29.858800174359178
          ],
          [
            122.31671903703167,
            29.857779629575393
          ],
          [
            122.37147703763547,
            29.85673637416106
          ],
          [
            122.4262338869773,
            29.855670409534248
          ],
          [
            122.4809895603433,
            29.85458173714383
          ],
          [
            122.53574403302608,
            29.853470358469423
          ],
          [
            122.59049728032473,
            29.852336275021432
          ],
          [
            122.64524927754515,
            29.851179488340993
          ],
          [
            122.7,
            29.85
          ],
          [
            122.19927454520825,
            29.05376427398854
          ],
          [
            121.70619189032027,
            28.255595068317866
          ],
          [
            121.2204086705355,
            27.455579977530473
          ],
          [
            120.7415945721242,
            26.653803039535685
          ],
          [
            120.26943163504643,
            25.850344955995126
          ],
          [
            119.8036135874085,
            25.04528329927847
          ],
          [
            119.34384521046093,
            24.238692706907074
          ],
          [
            118.88984173281222,
            23.430645064344947
          ],
          [
            118.44132825251756,
            22.621209676940182
          ],
          [
            117.99803918570149,
            21.81045343176856
          ],
          [
            117.55971774038414,
            20.998440950081708
          ],
          [
            117.12611541419949,
            20.185234731016713
          ],
          [
            116.69699151472156,
            19.370895287181582
          ],
          [
            116.2721127011431,
            18.55548127269085
          ],
          [
            115.85125254608744,
            17.73904960418914
          ],
          [
            115.43419111637041,
            16.921655575365975
          ],
          [
            115.0207145715683,
            16.10335296543333
          ],
          [
            114.61061477928524,
            15.284194142008118
          ],
          [
            114.20368894605485,
            14.46423015881444
          ],
          [
            113.79973926284868,
            13.643510848595453
          ],
          [
            113.39857256420129,
            12.82208491160154
          ],
          [
            113.0,
            12.0
          ],
          [
            104.38074999999998,
            1.6093750000000002
          ],
          [
            104.38074999999998,
            1.3408750000000003
          ],
          [
            104.179375,
            1.27375
          ],
          [
            103.83,
            1.26
          ],
          [
            103.43043749999998,
            1.2467499999999996
          ],
          [
            96.58718750000003,
            5.992874999999998
          ],
          [
            95.20749999999998,
            5.992874999999998
          ],
          [
            94.98675000000003,
            5.772124999999998
          ],
          [
            95.0,
            5.0
          ],
          [
            94.18773765266324,
            4.865138178678013
          ],
          [
            93.3757997111808,
            4.729296620848645
          ],
          [
            92.56417919939737,
            4.592503171857536
          ],
          [
            91.75286889550429,
            4.4547858298207075
          ],
          [
            90.9418613382014,
            4.316172740308187
          ],
          [
            90.13114883300327,
            4.176692191073579
          ],
          [
            89.32072345868404,
            4.0363726068294765
          ],
          [
            88.51057707385573,
            3.895242544068488
          ],
          [
            87.70070132367422,
            3.7533306859295497
          ],
          [
            86.89108764666783,
            3.610665837109038
          ],
          [
            86.08172728168309,
            3.467276918816096
          ],
          [
            85.27261127494253,
            3.3231929637714894
          ],
          [
            84.46373048720926,
            3.1784431112491474
          ],
          [
            83.65507560105328,
            3.033056602159494
          ],
          [
            82.84663712821461,
            2.88706277417352
          ],
          [
            82.03840541705809,
            2.7404910568865013
          ],
          [
            81.23037066011511,
            2.5933709670200966
          ],
          [
            80.4225229017075,
            2.445732103661553
          ],
          [
            79.61485204564865,
            2.2976041435386003
          ],
          [
            78.8073478630174,
            2.149016836328544
          ],
          [
            78.0,
            2.0
          ],
          [
            77.38340235973021,
            2.194477073392025
          ],
          [
            76.76664548069726,
            2.3886979668572232
          ],
          [
            76.14971544557801,
            2.582639909786444
          ],
          [
            75.53259840237217,
            2.7762801394687457
          ],
          [
            74.91528056977299,
            2.9695959018438596
          ],
          [
            74.29774824254483,
            3.1625644522797196
          ],
          [
            73.67998779690768,
            3.3551630563768735
          ],
          [
            73.06198569592878,
            3.547368990801641
          ],
          [
            72.44372849492161,
            3.739159544149794
          ],
          [
            71.82520284685202,
            3.9305120178425836
          ],
          [
            71.20639550775161,
            4.121403727056897
          ],
          [
            70.58729334213821,
            4.3118120016912895
          ],
          [
            69.9678833284432,
            4.501714187369675
          ],
          [
            69.34815256444531,
            4.691087646484381
          ],
          [
            68.72808827271064,
            4.879909759280276
          ],
          [
            68.10767780603823,
            5.068157924981679
          ],
          [
            67.48690865291073,
            5.255809562963701
          ],
          [
            66.8657684429494,
            5.4428421139696335
          ],
          [
            66.24424495237263,
            5.62923304137605
          ],
          [
            65.62232610945699,
            5.8149598325071645
          ],
          [
            65.0,
            6.0
          ],
          [
            64.48285823335397,
            6.268486897766669
          ],
          [
            63.965187852063615,
            6.536460566315318
          ],
          [
            63.446966565442025,
            6.803898343872576
          ],
          [
            62.928172171614015,
            7.070777522208447
          ],
          [
            62.408782562165214,
            7.337075345089379
          ],
          [
            61.88877572690538,
            7.6027690067806555
          ],
          [
            61.36812975874995,
            7.867835650600526
          ],
          [
            60.846822858723726,
            8.132252367528432
          ],
          [
            60.32483334109055,
            8.395996194869873
          ],
          [
            59.802139638612765,
            8.659044114980368
          ],
          [
            59.278720307944056,
            8.92137305405108
          ],
          [
            58.75455403515925,
            9.18295988095872
          ],
          [
            58.229619641424506,
            9.443781406182401
          ],
          [
            57.70389608881117,
            9.703814380790055
          ],
          [
            57.177362486256435,
            9.9630354954973
          ],
          [
            56.64999809567397,
            10.221421379801365
          ],
          [
            56.1217823382172,
            10.47894860119311
          ],
          [
            55.592694800698055,
            10.735593664449834
          ],
          [
            55.06271524216376,
            10.991333011011951
          ],
          [
            54.5318236006339,
            11.246143018446427
          ],
          [
            54.0,
            11.5
          ],
          [
            53.83391412412748,
            11.548599388553543
          ],
          [
            53.667771092075085,
            11.597103538722125
          ],
          [
            53.501570750112904,
            11.645512007612439
          ],
          [
            53.33531294626182,
            11.693824352641244
          ],
          [
            53.168997530302136,
            11.742040131539882
          ],
          [
            53.002624353782096,
            11.790158902358787
          ],
          [
            52.8361932700264,
            11.83818022347208
          ],
          [
            52.66970413414475,
            11.88610365358215
          ],
          [
            52.5031568030403,
            11.93392875172431
          ],
          [
            52.336551135418105,
            11.9816550772715
          ],
          [
            52.16988699179365,
            12.029282189938975
          ],
          [
            52.003164234501114,
            12.076809649789084
          ],
          [
            51.83638272770191,
            12.124237017236075
          ],
          [
            51.66954233739294,
            12.17156385305092
          ],
          [
            51.50264293141501,
            12.218789718366196
          ],
          [
            51.33568437946108,
            12.265914174681003
          ],
          [
            51.168666553084606,
            12.312936783865906
          ],
          [
            51.00158932570773,
            12.359857108167942
          ],
          [
            50.834452572629615,
            12.406674710215635
          ],
          [
            50.66725617103451,
            12.453389153024068
          ],
          [
            50.5,
            12.5
          ],
          [
            50.38082418641535,
            12.486236784750364
          ],
          [
            50.26166099408181,
            12.472420898048657
          ],
          [
            50.14251045535598,
            12.458552405456038
          ],
          [
            50.023372602360084,
            12.444631372757613
          ],
          [
            49.90424746698151,
            12.430657865961905
          ],
          [
            49.78513508087234,
            12.416631951300255
          ],
          [
            49.666035475448915,
            12.402553695226283
          ],
          [
            49.54694868189143,
            12.388423164415288
          ],
          [
            49.427874731143454,
            12.374240425763693
          ],
          [
            49.30881365391156,
            12.360005546388471
          ],
          [
            49.18976548066484,
            12.345718593626563
          ],
          [
            49.07073024163456,
            12.331379635034326
          ],
          [
            48.951707966813686,
            12.316988738386932
          ],
          [
            48.832698685956544,
            12.302545971677809
          ],
          [
            48.71370242857837,
            12.288051403118065
          ],
          [
            48.59471922395493,
            12.273505101135896
          ],
          [
            48.47574910112215,
            12.258907134376033
          ],
          [
            48.35679208887572,
            12.244257571699142
          ],
          [
            48.237848215770704,
            12.22955648218126
          ],
          [
            48.118917510121214,
            12.214803935113208
          ],
          [
            48.0,
            12.2
          ],
          [
            47.77793385502153,
            12.219907456401838
          ],
          [
            47.55583465092082,
            12.23963566381199
          ],
          [
            47.33370262755305,
            12.259184298092663
          ],
          [
            47.111538026903034,
            12.278553037881734
          ],
          [
            46.88934109307129,
            12.297741564602466
          ],
          [
            46.667112072259904,
            12.316749562473204
          ],
          [
            46.444851212758316,
            12.335576718516975
          ],
          [
            46.22255876492875,
            12.354222722571038
          ],
          [
            46.000234981191674,
            12.372687267296389
          ],
          [
            45.77788011601094,
            12.390970048187171
          ],
          [
            45.55549442587881,
            12.40907076358005
          ],
          [
            45.33307816930082,
            12.4269891146635
          ],
          [
            45.11063160678042,
            12.444724805487041
          ],
          [
            44.888155000803536,
            12.462277542970403
          ],
          [
            44.665648615822846,
            12.479647036912619
          ],
          [
            44.443112718242,
            12.496833000001047
          ],
          [
            44.220547576399596,
            12.513835147820343
          ],
          [
            43.99795346055301,
            12.530653198861332
          ],
          [
            43.77533064286212,
            12.547286874529833
          ],
          [
            43.552679397372735,
            12.563735899155402
          ],
          [
            43.33,
            12.58
          ],
          [
            42.69999999999999,
            14.600000000000001
          ],
          [
            41.8,
            15.5
          ],
          [
            41.63024450089503,
            15.738211577015514
          ],
          [
            41.460093339183345,
            15.976285526866784
          ],
          [
            41.28953949515673,
            16.214219362974095
          ],
          [
            41.118575903763144,
            16.45201058025109
          ],
          [
            40.947195453811446,
            16.689656654729664
          ],
          [
            40.775390987171505,
            16.92715504318025
          ],
          [
            40.60315529797049,
            17.16450318272747
          ],
          [
            40.43048113178503,
            17.40169849046098
          ],
          [
            40.257361184828994,
            17.638738363041497
          ],
          [
            40.08378810313758,
            17.875620176301865
          ],
          [
            39.90975448174714,
            18.112341284843062
          ],
          [
            39.73525286387115,
            18.34889902162516
          ],
          [
            39.56027574007231,
            18.58529069755296
          ],
          [
            39.384815547430605,
            18.821513601056438
          ],
          [
            39.208864668707804,
            19.057564997665665
          ],
          [
            39.03241543150807,
            19.293442129580328
          ],
          [
            38.855460107435135,
            19.529142215233644
          ],
          [
            38.677990911245786,
            19.764662448850512
          ],
          [
            38.5,
            20.0
          ],
          [
            38.52600000000001,
            20.0563125
          ],
          [
            38.52600000000001,
            20.118625
          ],
          [
            38.52600000000001,
            20.1809375
          ],
          [
            38.52600000000001,
            20.24325
          ],
          [
            38.52600000000001,
            20.3055625
          ],
          [
            38.52600000000001,
            20.367874999999998
          ],
          [
            38.52600000000001,
            20.4301875
          ],
          [
            38.52600000000001,
            20.4925
          ],
          [
            38.52600000000001,
            20.5548125
          ],
          [
            38.52600000000001,
            20.617125
          ],
          [
            38.52600000000001,
            20.6794375
          ],
          [
            38.52600000000001,
            20.74175
          ],
          [
            38.52600000000001,
            20.8040625
          ],
          [
            38.52600000000001,
            20.866374999999998
          ],
          [
            38.52600000000001,
            20.9286875
          ],
          [
            38.52600000000001,
            20.991
          ],
          [
            38.52600000000001,
            21.0533125
          ],
          [
            38.52600000000001,
            21.115625
          ],
          [
            38.52600000000001,
            21.1779375
          ],
          [
            38.52600000000001,
            21.24025
          ],
          [
            38.52600000000001,
            21.3025625
          ],
          [
            38.52600000000001,
            21.364874999999998
          ],
          [
            38.52600000000001,
            21.4271875
          ],
          [
            38.52600000000001,
            21.4895
          ],
          [
            38.52600000000001,
            21.5518125
          ],
          [
            38.52600000000001,
            21.614125
          ],
          [
            38.52600000000001,
            21.6764375
          ],
          [
            38.52600000000001,
            21.73875
          ],
          [
            38.52600000000001,
            21.8010625
          ],
          [
            38.52600000000001,
            21.863374999999998
          ],
          [
            38.52600000000001,
            21.9256875
          ],
          [
            38.52600000000001,
            21.988
          ],
          [
            38.52600000000001,
            22.0503125
          ],
          [
            38.52600000000001,
            22.112625
          ],
          [
            38.52600000000001,
            22.1749375
          ],
          [
            38.52600000000001,
            22.23725
          ],
          [
            38.52600000000001,
            22.2995625
          ],
          [
            38.52600000000001,
            22.361874999999998
          ],
          [
            38.52600000000001,
            22.4241875
          ],
          [
            38.52600000000001,
            22.4865
          ],
          [
            38.52600000000001,
            22.5488125
          ],
          [
            38.52600000000001,
            22.611125
          ],
          [
            38.52600000000001,
            22.6734375
          ],
          [
            38.52600000000001,
            22.73575
          ],
          [
            38.52600000000001,
            22.7980625
          ],
          [
            38.52600000000001,
            22.860374999999998
          ],
          [
            38.52600000000001,
            22.9226875
          ],
          [
            38.52600000000001,
            22.985
          ],
          [
            38.52600000000001,
            23.0473125
          ],
          [
            38.52600000000001,
            23.109625
          ],
          [
            38.46368749999999,
            23.1719375
          ],
          [
            38.401375,
            23.23425
          ],
          [
            38.33906250000001,
            23.2965625
          ],
          [
            38.27674999999999,
            23.358874999999998
          ],
          [
            38.2144375,
            23.4211875
          ],
          [
            38.15212500000001,
            23.4835
          ],
          [
            38.089812499999994,
            23.5458125
          ],
          [
            38.0275,
            23.608125
          ],
          [
            37.96518750000001,
            23.6704375
          ],
          [
            37.902874999999995,
            23.73275
          ],
          [
            37.840562500000004,
            23.7950625
          ],
          [
            37.778250000000014,
            23.857374999999998
          ],
          [
            37.715937499999995,
            23.9196875
          ],
          [
            37.653625000000005,
            23.982
          ],
          [
            37.59131249999999,
            24.0443125
          ],
          [
            37.528999999999996,
            24.106625
          ],
          [
            37.466687500000006,
            24.1689375
          ],
          [
            37.40437499999999,
            24.23125
          ],
          [
            37.3420625,
            24.2935625
          ],
          [
            37.27974999999998,
            24.355874999999997
          ],
          [
            37.21743749999999,
            24.4181875
          ],
          [
            37.155125,
            24.4805
          ],
          [
            37.09281249999998,
            24.5428125
          ],
          [
            37.03049999999999,
            24.605125
          ],
          [
            36.9681875,
            24.6674375
          ],
          [
            36.90587499999998,
            24.72975
          ],
          [
            36.84356249999999,
            24.7920625
          ],
          [
            36.78125,
            24.854374999999997
          ],
          [
            36.71893749999998,
            24.9166875
          ],
          [
            36.65662499999999,
            24.979
          ],
          [
            36.5943125,
            25.0413125
          ],
          [
            36.53199999999998,
            25.103625
          ],
          [
            36.46968749999999,
            25.1659375
          ],
          [
            36.407375,
            25.22825
          ],
          [
            36.34506249999998,
            25.2905625
          ],
          [
            36.28274999999999,
            25.352874999999997
          ],
          [
            36.2204375,
            25.4151875
          ],
          [
            36.158124999999984,
            25.4775
          ],
          [
            36.095812499999994,
            25.5398125
          ],
          [
            36.033500000000004,
            25.602125
          ],
          [
            35.971187499999985,
            25.6644375
          ],
          [
            35.908874999999995,
            25.72675
          ],
          [
            35.846562500000005,
            25.7890625
          ],
          [
            35.784249999999986,
            25.851374999999997
          ],
          [
            35.721937499999996,
            25.913687499999998
          ],
          [
            35.659625000000005,
            25.976
          ],
          [
            35.59731249999999,
            26.0383125
          ],
          [
            35.535,
            26.100625
          ],
          [
            35.472687500000006,
            26.162937499999998
          ],
          [
            35.41037499999999,
            26.22525
          ],
          [
            35.3480625,
            26.2875625
          ],
          [
            35.28575000000001,
            26.349874999999997
          ],
          [
            35.22343749999999,
            26.412187499999998
          ],
          [
            35.161125,
            26.4745
          ],
          [
            35.09881250000001,
            26.5368125
          ],
          [
            35.03649999999999,
            26.599125
          ],
          [
            34.9741875,
            26.661437499999998
          ],
          [
            34.91187500000001,
            26.72375
          ],
          [
            34.84956249999999,
            26.7860625
          ],
          [
            34.78725,
            26.848374999999997
          ],
          [
            34.72493750000001,
            26.910687499999998
          ],
          [
            34.66262499999999,
            26.973
          ],
          [
            34.6003125,
            27.0353125
          ],
          [
            34.53800000000001,
            27.097625
          ],
          [
            34.47568749999999,
            27.159937499999998
          ],
          [
            34.413375,
            27.22225
          ],
          [
            34.35106250000001,
            27.2845625
          ],
          [
            34.28874999999999,
            27.346874999999997
          ],
          [
            34.2264375,
            27.409187499999998
          ],
          [
            34.16412500000001,
            27.4715
          ],
          [
            34.101812499999994,
            27.5338125
          ],
          [
            34.039500000000004,
            27.596125
          ],
          [
            33.977187500000014,
            27.658437499999998
          ],
          [
            33.914874999999995,
            27.72075
          ],
          [
            33.852562500000005,
            27.7830625
          ],
          [
            33.790250000000015,
            27.845374999999997
          ],
          [
            33.727937499999996,
            27.907687499999998
          ],
          [
            33.665625000000006,
            27.97
          ],
          [
            33.60331249999999,
            28.0323125
          ],
          [
            33.541,
            28.094625
          ],
          [
            33.47868750000001,
            28.156937499999998
          ],
          [
            33.41637499999999,
            28.21925
          ],
          [
            33.3540625,
            28.2815625
          ],
          [
            33.29174999999998,
            28.343874999999997
          ],
          [
            33.22943749999999,
            28.406187499999998
          ],
          [
            33.22943749999999,
            28.4685
          ],
          [
            33.167125,
            28.5308125
          ],
          [
            33.10481249999998,
            28.593125
          ],
          [
            33.10481249999998,
            28.655437499999998
          ],
          [
            33.10481249999998,
            28.71775
          ],
          [
            33.10481249999998,
            28.7800625
          ],
          [
            33.04249999999999,
            28.842374999999997
          ],
          [
            33.04249999999999,
            28.904687499999998
          ],
          [
            33.04249999999999,
            28.967
          ],
          [
            32.9801875,
            29.0293125
          ],
          [
            32.91787499999998,
            29.091625
          ],
          [
            32.85556249999999,
            29.153937499999998
          ],
          [
            32.79325,
            29.21625
          ],
          [
            32.73093749999998,
            29.2785625
          ],
          [
            32.73093749999998,
            29.340874999999997
          ],
          [
            32.66862499999999,
            29.403187499999998
          ],
          [
            32.6063125,
            29.4655
          ],
          [
            32.6063125,
            29.5278125
          ],
          [
            32.6063125,
            29.590125
          ],
          [
            32.54399999999998,
            29.652437499999998
          ],
          [
            32.54399999999998,
            29.71475
          ],
          [
            32.54399999999998,
            29.7770625
          ],
          [
            32.54399999999998,
            29.839374999999997
          ],
          [
            32.54399999999998,
            29.901687499999998
          ],
          [
            32.55,
            29.97
          ],
          [
            32.538714057449425,
            30.031444281241935
          ],
          [
            32.52741418362964,
            30.0928870188616
          ],
          [
            32.51610032704373,
            30.154328208587025
          ],
          [
            32.504772436006235,
            30.215767846135837
          ],
          [
            32.49343045864216,
            30.277205927215203
          ],
          [
            32.48207434288597,
            30.338642447521714
          ],
          [
            32.4707040364806,
            30.400077402741367
          ],
          [
            32.45931948697639,
            30.46151078854949
          ],
          [
            32.44792064173013,
            30.522942600610616
          ],
          [
            32.436507447904006,
            30.584372834578513
          ],
          [
            32.42507985246454,
            30.645801486096023
          ],
          [
            32.41363780218162,
            30.707228550795048
          ],
          [
            32.40218124362738,
            30.76865402429643
          ],
          [
            32.39071012317522,
            30.830077902209954
          ],
          [
            32.37922438699867,
            30.8915001801342
          ],
          [
            32.36772398107043,
            30.95292085365653
          ],
          [
            32.3562088511612,
            31.01433991835295
          ],
          [
            32.34467894283868,
            31.07575736978811
          ],
          [
            32.33313420146643,
            31.13717320351519
          ],
          [
            32.32157457220284,
            31.198587415075806
          ],
          [
            32.31,
            31.26
          ],
          [
            32.29539397109889,
            31.309544605020577
          ],
          [
            32.280772645543415,
            31.359087164348654
          ],
          [
            32.2661359780157,
            31.408627672701737
          ],
          [
            32.25148392306232,
            31.45816612478346
          ],
          [
            32.236816435093786,
            31.507702515283498
          ],
          [
            32.22213346838391,
            31.55723683887759
          ],
          [
            32.20743497706927,
            31.60676909022741
          ],
          [
            32.19272091514861,
            31.656299263980465
          ],
          [
            32.177991236482285,
            31.705827354770175
          ],
          [
            32.16324589479166,
            31.755353357215608
          ],
          [
            32.1484848436585,
            31.804877265921593
          ],
          [
            32.13370803652445,
            31.854399075478543
          ],
          [
            32.11891542669037,
            31.903918780462448
          ],
          [
            32.10410696731579,
            31.95343637543475
          ],
          [
            32.08928261141829,
            32.00295185494235
          ],
          [
            32.07444231187291,
            32.05246521351747
          ],
          [
            32.05958602141154,
            32.10197644567762
          ],
          [
            32.04471369262233,
            32.151485545925546
          ],
          [
            32.02982527794906,
            32.2009925087491
          ],
          [
            32.01492072969054,
            32.250497328621265
          ],
          [
            32.0,
            32.3
          ],
          [
            31.672907764172948,
            32.38975162096022
          ],
          [
            31.345171003594327,
            32.47865158446073
          ],
          [
            31.01679242360325,
            32.56669533281475
          ],
          [
            30.687774843000497,
            32.653878326640466
          ],
          [
            30.358121194626943,
            32.74019604563971
          ],
          [
            30.027834525910954,
            32.825643989383636
          ],
          [
            29.69691799938381,
            32.910217678105084
          ],
          [
            29.365374893162254,
            32.99391265349746
          ],
          [
            29.03320860139722,
            33.07672447951987
          ],
          [
            28.70042263468802,
            33.158648743208104
          ],
          [
            28.367020620460845,
            33.23968105549155
          ],
          [
            28.03300630331104,
            33.319817052015395
          ],
          [
            27.698383545307923,
            33.399052393967985
          ],
          [
            27.363156326261702,
            33.47738276891314
          ],
          [
            27.027328743951244,
            33.55480389162693
          ],
          [
            26.690905014312236,
            33.631311504938836
          ],
          [
            26.353889471584687,
            33.70690138057668
          ],
          [
            26.016286568419098,
            33.78156932001532
          ],
          [
            25.678100875940483,
            33.85531115532852
          ],
          [
            25.33933708376952,
            33.92812275004383
          ],
          [
            25.0,
            34.0
          ],
          [
            24.48598119890618,
            34.093687546817655
          ],
          [
            23.970841608593933,
            34.1852184657059
          ],
          [
            23.454601248895827,
            34.274580769284725
          ],
          [
            22.937280685767952,
            34.36176268327003
          ],
          [
            22.418901026144518,
            34.446752652580145
          ],
          [
            21.899483912249455,
            34.529539347401716
          ],
          [
            21.37905151536171,
            34.61011166920775
          ],
          [
            20.857626529031613,
            34.6884587567209
          ],
          [
            20.33523216174701,
            34.76456999181432
          ],
          [
            19.81189212904824,
            34.838435005343285
          ],
          [
            19.287630645092804,
            34.91004368289987
          ],
          [
            18.762472413670906,
            34.97938617048357
          ],
          [
            18.236442618674552,
            35.046452880080516
          ],
          [
            17.709566914023757,
            35.111234495143805
          ],
          [
            17.18187141305451,
            35.17372197596784
          ],
          [
            16.653382677374303,
            35.23390656494932
          ],
          [
            16.124127705192024,
            35.29177979172782
          ],
          [
            15.59413391913028,
            35.347333478198614
          ],
          [
            15.063429153529066,
            35.40055974339097
          ],
          [
            14.532041641251107,
            35.45145100820498
          ],
          [
            14.0,
            35.5
          ],
          [
            13.870051762267234,
            35.601478810479755
          ],
          [
            13.739775232456909,
            35.702815431872295
          ],
          [
            13.609168809789109,
            35.804008987878284
          ],
          [
            13.478230890482763,
            35.90505859729858
          ],
          [
            13.346959867816484,
            36.00596337400901
          ],
          [
            13.215354132191012,
            36.1067224269353
          ],
          [
            13.083412071193232,
            36.20733486002799
          ],
          [
            12.951132069661954,
            36.307799772237445
          ],
          [
            12.818512509755255,
            36.40811625748904
          ],
          [
            12.685551771019638,
            36.5082834046583
          ],
          [
            12.552248230460844,
            36.60830029754624
          ],
          [
            12.418600262616444,
            36.708166014854754
          ],
          [
            12.284606239630257,
            36.807879630162155
          ],
          [
            12.150264531328496,
            36.90744021189875
          ],
          [
            12.015573505297787,
            37.006846823322654
          ],
          [
            11.88053152696509,
            37.106098522495586
          ],
          [
            11.745136959679398,
            37.205194362258936
          ],
          [
            11.609388164795506,
            37.304133390209884
          ],
          [
            11.473283501759504,
            37.40291464867767
          ],
          [
            11.336821328196482,
            37.50153717470009
          ],
          [
            11.2,
            37.6
          ],
          [
            11.048033686433854,
            37.61148959757776
          ],
          [
            10.896021006198449,
            37.62278342353654
          ],
          [
            10.743962723972944,
            37.63388134005684
          ],
          [
            10.591859606655351,
            37.64478321159947
          ],
          [
            10.439712423327894,
            37.65548890491293
          ],
          [
            10.287521945222126,
            37.66599828904058
          ],
          [
            10.1352889456838,
            37.67631123532777
          ],
          [
            9.983014200137497,
            37.686427617428876
          ],
          [
            9.830698486051046,
            37.6963473113141
          ],
          [
            9.67834258289971,
            37.7060701952763
          ],
          [
            9.52594727213013,
            37.715596149937575
          ],
          [
            9.373513337124074,
            37.724925058255856
          ],
          [
            9.221041563161952,
            37.73405680553128
          ],
          [
            9.068532737386136,
            37.74299127941243
          ],
          [
            8.915987648764037,
            37.75172836990261
          ],
          [
            8.763407088051034,
            37.76026796936576
          ],
          [
            8.610791847753138,
            37.76860997253251
          ],
          [
            8.45814272208951,
            37.77675427650585
          ],
          [
            8.305460506954754,
            37.78470078076686
          ],
          [
            8.152745999881033,
            37.79244938718031
          ],
          [
            8.0,
            37.8
          ],
          [
            7.711538416244446,
            37.76886515160298
          ],
          [
            7.423321355620201,
            37.73702463494128
          ],
          [
            7.135353791036817,
            37.70447985045826
          ],
          [
            6.847640652392417,
            37.671232226214975
          ],
          [
            6.560186825882795,
            37.63728321761833
          ],
          [
            6.272997153327116,
            37.602634307145564
          ],
          [
            5.986076431510297,
            37.56728700406457
          ],
          [
            5.699429411542237,
            37.53124284415078
          ],
          [
            5.413060798234021,
            37.494503389400414
          ],
          [
            5.126975249491208,
            37.457070227740125
          ],
          [
            4.84117737572436,
            37.418944972733485
          ],
          [
            4.555671739276805,
            37.38012926328418
          ],
          [
            4.270462853869857,
            37.34062476333617
          ],
          [
            3.9855551840654133,
            37.300433161570815
          ],
          [
            3.70095314474617,
            37.25955617110126
          ],
          [
            3.416661100613312,
            37.217995529164014
          ],
          [
            3.132683365701908,
            37.17575299680809
          ],
          [
            2.8490242029138706,
            37.132830358581586
          ],
          [
            2.5656878235686635,
            37.08922942221591
          ],
          [
            2.282678386971626,
            37.044952018307946
          ],
          [
            2.0,
            37.0
          ],
          [
            1.6337260426942717,
            36.96109277772858
          ],
          [
            1.2678300122503885,
            36.92105666741651
          ],
          [
            0.9023217312630696,
            36.87989446296799
          ],
          [
            0.5372109162273255,
            36.837609028542936
          ],
          [
            0.17250717536827365,
            36.794203297700264
          ],
          [
            -0.19177999346442443,
            36.74968027252551
          ],
          [
            -0.5556412048367907,
            36.70404302274317
          ],
          [
            -0.9190671877047021,
            36.6572946848146
          ],
          [
            -1.2820487873214073,
            36.6094384610219
          ],
          [
            -1.6445769670778416,
            36.560477618538485
          ],
          [
            -2.006642810275274,
            36.510415488487034
          ],
          [
            -2.368237521829868,
            36.459255464985304
          ],
          [
            -2.7293524299088245,
            36.40700100418049
          ],
          [
            -3.089978987497825,
            36.35365562327291
          ],
          [
            -3.4501087738995775,
            36.29922289952929
          ],
          [
            -3.809733496163336,
            36.24370646928675
          ],
          [
            -4.16884499044529,
            36.18711002694764
          ],
          [
            -4.52743522329984,
            36.12943732396625
          ],
          [
            -4.885496292901805,
            36.07069216782779
          ],
          [
            -5.243020430199655,
            36.01087842102025
          ],
          [
            -5.6,
            35.95
          ],
          [
            -6.044687500000009,
            36.064687500000005
          ],
          [
            -9.141250000000014,
            36.9821875
          ],
          [
            -9.599999999999994,
            38.8171875
          ],
          [
            -9.255937499999987,
            44.207499999999996
          ],
          [
            -2.71875,
            50.400625
          ],
          [
            -1.1131249999999966,
            50.5153125
          ],
          [
            0.9512499999999875,
            50.7446875
          ],
          [
            6.456249999999983,
            54.3
          ],
          [
            7.0,
            54.3
          ],
          [
            7.144798238389131,
            54.265991673272836
          ],
          [
            7.28935769915977,
            54.231809560231376
          ],
          [
            7.433677865685309,
            54.197454162220346
          ],
          [
            7.5777582327836175,
            54.16292598120926
          ],
          [
            7.721598306665633,
            54.12822551976545
          ],
          [
            7.865197604883138,
            54.09335328102706
          ],
          [
            8.008555656275748,
            54.05830976867643
          ],
          [
            8.151672000917111,
            54.023095486913526
          ],
          [
            8.294546190060357,
            53.987710940429594
          ],
          [
            8.437177786082824,
            53.95215663438106
          ],
          [
            8.579566362430029,
            53.91643307436359
          ],
          [
            8.721711503558966,
            53.88054076638626
          ],
          [
            8.863612804880733,
            53.84448021684606
          ],
          [
            9.005269872702408,
            53.80825193250252
          ],
          [
            9.146682324168406,
            53.77185642045251
          ],
          [
            9.287849787201072,
            53.73529418810533
          ],
          [
            9.428771900440772,
            53.69856574315787
          ],
          [
            9.569448313185315,
            53.66167159357009
          ],
          [
            9.709878685328817,
            53.62461224754064
          ],
          [
            9.850062687300003,
            53.58738821348269
          ],
          [
            9.99,
            53.55
          ]
        ]
      }
    },
    {
      "type": "Feature",
      "bbox": [
        9.99,
        48.14,
        11.58,
        53.55
      ],
      "properties": {
        "route_id": "NGB-HAM-MUC",
        "leg_index": 1,
        "from": "DEHAM",
        "to": "DEMUC",
        "mode": "rail",
        "duration_days": 2,
        "distance_km": 612.1,
        "waypoints": [
          {
            "id": "DEHAM",
            "name": "Hamburg",
            "lon": 9.99,
            "lat": 53.55,
            "source": "masterdata",
            "ref": "locations.jsonl:DEHAM"
          },
          {
            "id": "DEMUC",
            "name": "Munich",
            "lon": 11.58,
            "lat": 48.14,
            "source": "masterdata",
            "ref": "locations.jsonl:DEMUC"
          }
        ]
      },
      "geometry": {
        "type": "LineString",
        "coordinates": [
          [
            9.99,
            53.55
          ],
          [
            11.58,
            48.14
          ]
        ]
      }
    }
  ]
}
