{
  "type": "FeatureCollection",
  "bbox": [
    8.56,
    31.14,
    121.81,
    59.129358578681995
  ],
  "metadata": {
    "route_id": "PVG-FRA-MUC",
    "lane": "CNSHA-DEMUC",
    "contracted": false,
    "total_distance_km": 9183.7,
    "total_duration_days": 3,
    "leg_count": 2
  },
  "features": [
    {
      "type": "Feature",
      "bbox": [
        8.56,
        31.14,
        121.81,
        59.129358578681995
      ],
      "properties": {
        "route_id": "PVG-FRA-MUC",
        "leg_index": 0,
        "from": "CNPVG",
        "to": "DEFRA",
        "mode": "air",
        "duration_days": 2,
        "distance_km": 8879.0,
        "waypoints": [
          {
            "id": "CNPVG",
            "name": "Shanghai Pudong",
            "lon": 121.81,
            "lat": 31.14,
            "source": "masterdata",
            "ref": "locations.jsonl:CNPVG"
          },
          {
            "id": "DEFRA",
            "name": "Frankfurt",
            "lon": 8.56,
            "lat": 50.03,
            "source": "masterdata",
            "ref": "locations.jsonl:DEFRA"
          }
        ]
      },
      "geometry": {
        "type": "LineString",
        "coordinates": [
          [
            121.81,
            31.14
          ],
          [
            119.9669819675432,
            33.19292695229081
          ],
          [
            118.03653447533691,
            35.216601279464655
          ],
          [
            116.00862549803186,
            37.207271271498385
          ],
          [
            113.87234195932623,
            39.16070763755493
          ],
          [
            111.61586614429383,
            41.072132015985694
          ],
          [
            109.22649147907354,
            42.936138745918534
          ],
          [
            106.69069843723571,
            44.74661149873113
          ],
          [
            103.99431829803417,
            46.49663793046599
          ],
          [
            101.12282021235744,
            48.17842779607873
          ],
          [
            98.06176431648777,
            49.783243122642396
          ],
          [
            94.79746802095612,
            51.30135313816227
          ],
          [
            91.31792987754396,
            52.72203152909163
          ],
          [
            87.6140393400937,
            54.03361863647414
          ],
          [
            83.68106359157659,
            55.22367506349749
          ],
          [
            79.5203377092094,
            56.27925359645184
          ],
          [
            75.14099125558857,
            57.18731025288362
          ],
          [
            70.56143619702338,
            57.93525953754188
          ],
          [
            65.8102515999073,
            58.51165218630533
          ],
          [
            60.92608214276968,
            58.90691855084227
          ],
          [
            55.956272029439006,
            59.11408605877011
          ],
          [
            50.954199299746335,
            59.129358578681995
          ],
          [
            45.97560469808249,
            58.952452274948506
          ],
          [
            41.07450468317896,
            58.586621303468405
          ],
          [
            36.29940913699957,
            58.03836808932809
          ],
          [
            31.690467891448435,
            57.31689617100712
          ],
          [
            27.277892967216857,
            56.43340694939801
          ],
          [
            23.081670442030344,
            55.400353529909644
          ],
          [
            19.112313305290016,
            54.23074781758704
          ],
          [
            15.372279665341125,
            52.93758355542172
          ],
          [
            11.85768260813056,
            51.53340218954474
          ],
          [
            8.56,
            50.03
          ]
        ]
      }
    },
    {
      "type": "Feature",
      "bbox": [
        8.56,
        48.14,
        11.58,
        50.03
      ],
      "properties": {
        "route_id": "PVG-FRA-MUC",
        "leg_index": 1,
        "from": "DEFRA",
        "to": "DEMUC",
        "mode": "road",
        "duration_days": 1,
        "distance_km": 304.7,
        "waypoints": [
          {
            "id": "DEFRA",
            "name": "Frankfurt",
            "lon": 8.56,
            "lat": 50.03,
            "source": "masterdata",
            "ref": "locations.jsonl:DEFRA"
          },
          {
            "id": "DEMUC",
            "name": "Munich",
            "lon": 11.58,
            "lat": 48.14,
            "source": "masterdata",
            "ref": "locations.jsonl:DEMUC"
          }
        ]
      },
      "geometry": {
        "type": "LineString",
        "coordinates": [
          [
            8.56,
            50.03
          ],
          [
            11.58,
            48.14
          ]
        ]
      }
    }
  ]
}
