{
  "type": "FeatureCollection",
  "bbox": [
    -17.758187499999963,
    -34.9649375,
    122.7,
    54.3
  ],
  "metadata": {
    "route_id": "SHA-CPE-MUC",
    "lane": "CNSHA-DEMUC",
    "contracted": false,
    "total_distance_km": 28112.2,
    "total_duration_days": 42,
    "leg_count": 3
  },
  "features": [
    {
      "type": "Feature",
      "bbox": [
        31.02,
        -29.87,
        122.7,
        31.23
      ],
      "properties": {
        "route_id": "SHA-CPE-MUC",
        "leg_index": 0,
        "from": "CNSHA",
        "to": "ZADUR",
        "mode": "ocean",
        "duration_days": 24,
        "distance_km": 13548.4,
        "waypoints": [
          {
            "id": "CNSHA",
            "name": "Shanghai",
            "lon": 121.47,
            "lat": 31.23,
            "source": "masterdata",
            "ref": "locations.jsonl:CNSHA"
          },
          {
            "id": "CNSHA_MOUTH",
            "name": "East China Sea, off the Yangtze mouth",
            "lon": 122.7,
            "lat": 30.9,
            "source": "naturalearth",
            "ref": "data/vendor/naturalearth/10m-physical/ne_10m_land"
          },
          {
            "id": "SOUTH_CHINA_SEA_MID",
            "name": "South China Sea, mid-crossing",
            "lon": 113.0,
            "lat": 12.0,
            "source": "naturalearth",
            "ref": "data/vendor/naturalearth/10m-physical/ne_10m_land"
          },
          {
            "id": "MALACCA_W",
            "name": "Strait of Malacca (west, off Singapore)",
            "lon": 103.83,
            "lat": 1.26,
            "source": "naturalearth",
            "ref": "data/vendor/naturalearth/10m-physical/ne_10m_land"
          },
          {
            "id": "ANDAMAN_SEA",
            "name": "Andaman Sea, west of Sumatra",
            "lon": 95.0,
            "lat": 5.0,
            "source": "naturalearth",
            "ref": "data/vendor/naturalearth/10m-physical/ne_10m_land"
          },
          {
            "id": "SOUTH_OF_SRI_LANKA",
            "name": "Indian Ocean, south of Sri Lanka",
            "lon": 78.0,
            "lat": 2.0,
            "source": "naturalearth",
            "ref": "data/vendor/naturalearth/10m-physical/ne_10m_land"
          },
          {
            "id": "EAST_OF_MADAGASCAR",
            "name": "Indian Ocean, east of Madagascar",
            "lon": 52.0,
            "lat": -22.0,
            "source": "naturalearth",
            "ref": "data/vendor/naturalearth/10m-physical/ne_10m_land"
          },
          {
            "id": "SOUTH_OF_MADAGASCAR",
            "name": "Indian Ocean, south of Madagascar",
            "lon": 44.0,
            "lat": -28.0,
            "source": "naturalearth",
            "ref": "data/vendor/naturalearth/10m-physical/ne_10m_land"
          },
          {
            "id": "ZADUR",
            "name": "Durban",
            "lon": 31.02,
            "lat": -29.87,
            "source": "masterdata",
            "ref": "locations.jsonl:ZADUR"
          }
        ]
      },
      "geometry": {
        "type": "LineString",
        "coordinates": [
          [
            121.47,
            31.23
          ],
          [
            121.52876356517704,
            31.214552858609807
          ],
          [
            121.5875080104748,
            31.199078844705088
          ],
          [
            121.64623332060692,
            31.18357798316119
          ],
          [
            121.70493948039378,
            31.168050298872807
          ],
          [
            121.76362647476232,
            31.1524958167538
          ],
          [
            121.82229428874606,
            31.136914561737107
          ],
          [
            121.88094290748491,
            31.121306558774627
          ],
          [
            121.93957231622514,
            31.105671832837032
          ],
          [
            121.99818250031927,
            31.090010408913695
          ],
          [
            122.05677344522599,
            31.074322312012526
          ],
          [
            122.11534513651003,
            31.058607567159832
          ],
          [
            122.17389755984213,
            31.04286619940023
          ],
          [
            122.23243070099892,
            31.027098233796504
          ],
          [
            122.29094454586276,
            31.011303695429444
          ],
          [
            122.34943908042175,
            30.99548260939774
          ],
          [
            122.40791429076958,
            30.979635000817854
          ],
          [
            122.46637016310547,
            30.963760894823917
          ],
          [
            122.52480668373397,
            30.947860316567528
          ],
          [
            122.58322383906498,
            30.931933291217714
          ],
          [
            122.64162161561359,
            30.915979843960738
          ],
          [
            122.7,
            30.9
          ],
          [
            122.57625000000002,
            30.781875
          ],
          [
            122.57625000000002,
            30.66375
          ],
          [
            122.57625000000002,
            30.545625
          ],
          [
            122.57625000000002,
            30.427500000000002
          ],
          [
            122.57625000000002,
            30.309375000000003
          ],
          [
            122.57625000000002,
            30.191249999999997
          ],
          [
            122.57625000000002,
            30.073124999999997
          ],
          [
            122.57625000000002,
            29.955
          ],
          [
            122.57625000000002,
            29.836875
          ],
          [
            122.458125,
            29.71875
          ],
          [
            122.34000000000003,
            29.600625
          ],
          [
            122.22187500000001,
            29.4825
          ],
          [
            122.10374999999999,
            29.364375000000003
          ],
          [
            122.10374999999999,
            29.246250000000003
          ],
          [
            122.10374999999999,
            29.128124999999997
          ],
          [
            121.98562500000003,
            29.009999999999998
          ],
          [
            121.8675,
            28.891875
          ],
          [
            121.74937499999999,
            28.77375
          ],
          [
            121.74937499999999,
            28.655625
          ],
          [
            121.74937499999999,
            28.5375
          ],
          [
            121.74937499999999,
            28.419375000000002
          ],
          [
            121.74937499999999,
            28.301250000000003
          ],
          [
            121.63125000000002,
            28.183124999999997
          ],
          [
            121.513125,
            28.064999999999998
          ],
          [
            121.39499999999998,
            27.946875
          ],
          [
            121.27687500000002,
            27.82875
          ],
          [
            121.15875,
            27.710625
          ],
          [
            121.04062499999998,
            27.5925
          ],
          [
            120.92250000000001,
            27.474375000000002
          ],
          [
            120.804375,
            27.356250000000003
          ],
          [
            120.68624999999997,
            27.238124999999997
          ],
          [
            120.56812500000001,
            27.119999999999997
          ],
          [
            120.44999999999999,
            27.001875
          ],
          [
            120.33187499999997,
            26.88375
          ],
          [
            120.21375,
            26.765625
          ],
          [
            120.21375,
            26.6475
          ],
          [
            120.09562499999998,
            26.529375
          ],
          [
            119.97749999999996,
            26.411250000000003
          ],
          [
            119.97749999999996,
            26.293125000000003
          ],
          [
            119.97749999999996,
            26.174999999999997
          ],
          [
            119.97749999999996,
            26.056874999999998
          ],
          [
            119.97749999999996,
            25.93875
          ],
          [
            119.97749999999996,
            25.820625
          ],
          [
            119.97749999999996,
            25.7025
          ],
          [
            119.97749999999996,
            25.584375
          ],
          [
            119.97749999999996,
            25.466250000000002
          ],
          [
            119.859375,
            25.348125000000003
          ],
          [
            119.74124999999998,
            25.229999999999997
          ],
          [
            119.62312500000002,
            25.111874999999998
          ],
          [
            119.505,
            24.99375
          ],
          [
            119.38687500000003,
            24.875625
          ],
          [
            119.26875000000001,
            24.7575
          ],
          [
            119.15062499999999,
            24.639375
          ],
          [
            119.03250000000003,
            24.521250000000002
          ],
          [
            118.914375,
            24.403125
          ],
          [
            118.79624999999999,
            24.285
          ],
          [
            118.67812500000002,
            24.166875
          ],
          [
            118.56,
            24.04875
          ],
          [
            118.44187499999998,
            23.930625
          ],
          [
            118.32375000000002,
            23.8125
          ],
          [
            118.205625,
            23.694375
          ],
          [
            118.08749999999998,
            23.57625
          ],
          [
            117.96937500000001,
            23.458125000000003
          ],
          [
            117.85125,
            23.34
          ],
          [
            117.73312499999997,
            23.221875
          ],
          [
            117.61500000000001,
            23.103749999999998
          ],
          [
            117.49687499999999,
            22.985625
          ],
          [
            117.37874999999997,
            22.8675
          ],
          [
            117.260625,
            22.749375
          ],
          [
            117.14249999999998,
            22.63125
          ],
          [
            117.02437500000002,
            22.513125000000002
          ],
          [
            116.90625,
            22.395
          ],
          [
            116.78812499999998,
            22.276875
          ],
          [
            116.67000000000002,
            22.158749999999998
          ],
          [
            116.551875,
            22.040625
          ],
          [
            116.43375000000003,
            21.9225
          ],
          [
            116.31562500000001,
            21.804375
          ],
          [
            116.19749999999999,
            21.68625
          ],
          [
            116.07937500000003,
            21.568125000000002
          ],
          [
            115.96125,
            21.450000000000003
          ],
          [
            115.84312499999999,
            21.331875
          ],
          [
            115.72500000000002,
            21.21375
          ],
          [
            115.606875,
            21.095625
          ],
          [
            115.48874999999998,
            20.9775
          ],
          [
            115.37062500000002,
            20.859375
          ],
          [
            115.2525,
            20.74125
          ],
          [
            115.13437499999998,
            20.623125
          ],
          [
            115.01625000000001,
            20.505000000000003
          ],
          [
            114.898125,
            20.386875
          ],
          [
            114.77999999999997,
            20.26875
          ],
          [
            114.66187500000001,
            20.150624999999998
          ],
          [
            114.54374999999999,
            20.0325
          ],
          [
            114.42562499999997,
            19.914375
          ],
          [
            114.3075,
            19.79625
          ],
          [
            114.18937499999998,
            19.678125
          ],
          [
            114.07125000000002,
            19.560000000000002
          ],
          [
            113.953125,
            19.441875
          ],
          [
            113.83499999999998,
            19.32375
          ],
          [
            113.71687500000002,
            19.205625
          ],
          [
            113.59875,
            19.0875
          ],
          [
            113.48062500000003,
            18.969375
          ],
          [
            113.36250000000001,
            18.85125
          ],
          [
            113.24437499999999,
            18.733125
          ],
          [
            113.12625000000003,
            18.615000000000002
          ],
          [
            113.008125,
            18.496875000000003
          ],
          [
            113.008125,
            18.37875
          ],
          [
            113.008125,
            18.260625
          ],
          [
            113.008125,
            18.1425
          ],
          [
            113.008125,
            18.024375
          ],
          [
            113.008125,
            17.90625
          ],
          [
            113.008125,
            17.788125
          ],
          [
            113.008125,
            17.67
          ],
          [
            113.008125,
            17.551875000000003
          ],
          [
            113.008125,
            17.43375
          ],
          [
            113.008125,
            17.315625
          ],
          [
            113.008125,
            17.197499999999998
          ],
          [
            113.008125,
            17.079375
          ],
          [
            113.008125,
            16.96125
          ],
          [
            113.008125,
            16.843125
          ],
          [
            113.008125,
            16.725
          ],
          [
            113.008125,
            16.606875000000002
          ],
          [
            113.008125,
            16.48875
          ],
          [
            113.008125,
            16.370625
          ],
          [
            113.008125,
            16.2525
          ],
          [
            113.008125,
            16.134375
          ],
          [
            113.008125,
            16.01625
          ],
          [
            113.008125,
            15.898125
          ],
          [
            113.008125,
            15.780000000000001
          ],
          [
            113.008125,
            15.661875
          ],
          [
            113.008125,
            15.54375
          ],
          [
            113.008125,
            15.425625
          ],
          [
            113.008125,
            15.307500000000001
          ],
          [
            113.008125,
            15.189375000000002
          ],
          [
            113.008125,
            15.071250000000001
          ],
          [
            113.008125,
            14.953125
          ],
          [
            113.008125,
            14.835
          ],
          [
            113.008125,
            14.716875000000002
          ],
          [
            113.008125,
            14.59875
          ],
          [
            113.008125,
            14.480625
          ],
          [
            113.008125,
            14.3625
          ],
          [
            113.008125,
            14.244375000000002
          ],
          [
            113.008125,
            14.12625
          ],
          [
            113.008125,
            14.008125
          ],
          [
            113.008125,
            13.89
          ],
          [
            113.008125,
            13.771875000000001
          ],
          [
            113.008125,
            13.65375
          ],
          [
            113.008125,
            13.535625
          ],
          [
            113.008125,
            13.4175
          ],
          [
            113.008125,
            13.299375000000001
          ],
          [
            113.008125,
            13.18125
          ],
          [
            113.008125,
            13.063125000000001
          ],
          [
            113.008125,
            12.945
          ],
          [
            113.008125,
            12.826875000000001
          ],
          [
            113.008125,
            12.70875
          ],
          [
            113.008125,
            12.590625000000001
          ],
          [
            113.008125,
            12.4725
          ],
          [
            113.008125,
            12.354375000000001
          ],
          [
            113.008125,
            12.236250000000002
          ],
          [
            113.008125,
            12.118125000000001
          ],
          [
            113.0,
            12.0
          ],
          [
            104.38074999999998,
            1.6093750000000002
          ],
          [
            104.38074999999998,
            1.3408750000000003
          ],
          [
            104.179375,
            1.27375
          ],
          [
            103.83,
            1.26
          ],
          [
            103.43043749999998,
            1.2467499999999996
          ],
          [
            96.58718750000003,
            5.992874999999998
          ],
          [
            95.20749999999998,
            5.992874999999998
          ],
          [
            94.98675000000003,
            5.772124999999998
          ],
          [
            95.0,
            5.0
          ],
          [
            94.18773765266324,
            4.865138178678013
          ],
          [
            93.3757997111808,
            4.729296620848645
          ],
          [
            92.56417919939737,
            4.592503171857536
          ],
          [
            91.75286889550429,
            4.4547858298207075
          ],
          [
            90.9418613382014,
            4.316172740308187
          ],
          [
            90.13114883300327,
            4.176692191073579
          ],
          [
            89.32072345868404,
            4.0363726068294765
          ],
          [
            88.51057707385573,
            3.895242544068488
          ],
          [
            87.70070132367422,
            3.7533306859295497
          ],
          [
            86.89108764666783,
            3.610665837109038
          ],
          [
            86.08172728168309,
            3.467276918816096
          ],
          [
            85.27261127494253,
            3.3231929637714894
          ],
          [
            84.46373048720926,
            3.1784431112491474
          ],
          [
            83.65507560105328,
            3.033056602159494
          ],
          [
            82.84663712821461,
            2.88706277417352
          ],
          [
            82.03840541705809,
            2.7404910568865013
          ],
          [
            81.23037066011511,
            2.5933709670200966
          ],
          [
            80.4225229017075,
            2.445732103661553
          ],
          [
            79.61485204564865,
            2.2976041435386003
          ],
          [
            78.8073478630174,
            2.149016836328544
          ],
          [
            78.0,
            2.0
          ],
          [
            76.8188489349975,
            0.8268470392098742
          ],
          [
            75.63839121985127,
            -0.3466663712707348
          ],
          [
            74.45764284935318,
            -1.5200286910870413
          ],
          [
            73.27561935001243,
            -2.6927279683038803
          ],
          [
            72.09133419840873,
            -3.8642504446897186
          ],
          [
            70.90379725319455,
            -5.0340791556257125
          ],
          [
            69.71201321173984,
            -6.2016925205708455
          ],
          [
            68.51498010318123,
            -7.366562920151529
          ],
          [
            67.3116878307549,
            -8.528155256148255
          ],
          [
            66.10111677777091,
            -9.685925490930767
          ],
          [
            64.88223649344343,
            -10.839319163256743
          ],
          [
            63.65400447704692,
            -11.987769877810194
          ],
          [
            62.41536508154256,
            -13.13069776643042
          ],
          [
            61.16524856093565,
            -14.267507919688786
          ],
          [
            59.90257028920303,
            -15.397588788330763
          ],
          [
            58.626230182687294,
            -16.52031055513967
          ],
          [
            57.335112362403734,
            -17.635023479023864
          ],
          [
            56.02808509774408,
            -18.74105621461352
          ],
          [
            54.70400107857846,
            -19.83771411240905
          ],
          [
            53.36169806871359,
            -20.924277506589164
          ],
          [
            52.0,
            -22.0
          ],
          [
            51.63592069970266,
            -22.29505895854039
          ],
          [
            51.270311620040324,
            -22.589287035761256
          ],
          [
            50.90314817192316,
            -22.88266868055427
          ],
          [
            50.53440568870324,
            -23.17518817185582
          ],
          [
            50.1640594296334,
            -23.46682961599674
          ],
          [
            49.79208458360349,
            -23.757576944065452
          ],
          [
            49.41845627316386,
            -24.047413909286817
          ],
          [
            49.043149558846544,
            -24.336324084419342
          ],
          [
            48.66613944379467,
            -24.62429085917327
          ],
          [
            48.28740087871069,
            -24.911297437652664
          ],
          [
            47.90690876713467,
            -25.19732683582415
          ],
          [
            47.52463797106342,
            -25.48236187901575
          ],
          [
            47.14056331692215,
            -25.766385199448965
          ],
          [
            46.75465960190005,
            -26.049379233807574
          ],
          [
            46.36690160066143,
            -26.331326220846915
          ],
          [
            45.9772640724445,
            -26.612208199047302
          ],
          [
            45.58572176855958,
            -26.892007004315747
          ],
          [
            45.19224944029915,
            -27.170704267740017
          ],
          [
            44.79682184727168,
            -27.448281413399556
          ],
          [
            44.399413766171946,
            -27.724719656237696
          ],
          [
            44.0,
            -28.0
          ],
          [
            43.39335871163,
            -28.117034839936732
          ],
          [
            42.785413863301535,
            -28.231378165551057
          ],
          [
            42.17618703044635,
            -28.34301144253146
          ],
          [
            41.56570057157478,
            -28.451916459170313
          ],
          [
            40.95397762240733,
            -28.55807533668302
          ],
          [
            40.341042089136906,
            -28.661470539487603
          ],
          [
            39.72691864081173,
            -28.76208488543122
          ],
          [
            39.11163270083053,
            -28.85990155594968
          ],
          [
            38.495210437543285,
            -28.9549041061459
          ],
          [
            37.87767875395271,
            -29.047076474773192
          ],
          [
            37.25906527651338,
            -29.136402994108906
          ],
          [
            36.63939834302733,
            -29.222868399704073
          ],
          [
            36.018706989636755,
            -29.306457839994522
          ],
          [
            35.39702093691684,
            -29.387156885758873
          ],
          [
            34.774370575073206,
            -29.464951539408833
          ],
          [
            34.15078694825107,
            -29.539828244097457
          ],
          [
            33.52630173796483,
            -29.611773892630676
          ],
          [
            32.90094724565941,
            -29.680775836167932
          ],
          [
            32.27475637441627,
            -29.74682189269773
          ],
          [
            31.647762609819587,
            -29.809900355274085
          ],
          [
            31.02,
            -29.87
          ]
        ]
      }
    },
    {
      "type": "Feature",
      "bbox": [
        -17.75818749999999,
        -34.9649375,
        31.021000000000015,
        54.3
      ],
      "properties": {
        "route_id": "SHA-CPE-MUC",
        "leg_index": 1,
        "from": "ZADUR",
        "to": "DEHAM",
        "mode": "ocean",
        "duration_days": 16,
        "distance_km": 13951.7,
        "waypoints": [
          {
            "id": "ZADUR",
            "name": "Durban",
            "lon": 31.02,
            "lat": -29.87,
            "source": "masterdata",
            "ref": "locations.jsonl:ZADUR"
          },
          {
            "id": "CAPE_OF_GOOD_HOPE",
            "name": "Cape of Good Hope",
            "lon": 19.98,
            "lat": -34.83,
            "source": "naturalearth",
            "ref": "data/vendor/naturalearth/10m-physical/ne_10m_land"
          },
          {
            "id": "DEHAM_MOUTH",
            "name": "Elbe mouth, German Bight",
            "lon": 7.0,
            "lat": 54.3,
            "source": "naturalearth",
            "ref": "data/vendor/naturalearth/10m-physical/ne_10m_land"
          },
          {
            "id": "DEHAM",
            "name": "Hamburg",
            "lon": 9.99,
            "lat": 53.55,
            "source": "masterdata",
            "ref": "locations.jsonl:DEHAM"
          }
        ]
      },
      "geometry": {
        "type": "LineString",
        "coordinates": [
          [
            31.02,
            -29.87
          ],
          [
            31.021000000000015,
            -29.93
          ],
          [
            31.021000000000015,
            -29.999
          ],
          [
            31.021000000000015,
            -30.067999999999998
          ],
          [
            31.021000000000015,
            -30.137
          ],
          [
            31.021000000000015,
            -30.206
          ],
          [
            31.021000000000015,
            -30.275
          ],
          [
            31.021000000000015,
            -30.344
          ],
          [
            31.021000000000015,
            -30.413
          ],
          [
            30.951999999999998,
            -30.482
          ],
          [
            30.88300000000001,
            -30.551
          ],
          [
            30.813999999999993,
            -30.619999999999997
          ],
          [
            30.745000000000005,
            -30.689
          ],
          [
            30.675999999999988,
            -30.758
          ],
          [
            30.607,
            -30.826999999999998
          ],
          [
            30.53800000000001,
            -30.896
          ],
          [
            30.468999999999994,
            -30.965
          ],
          [
            30.400000000000006,
            -31.034
          ],
          [
            30.33099999999999,
            -31.102999999999998
          ],
          [
            30.262,
            -31.171999999999997
          ],
          [
            30.192999999999984,
            -31.241
          ],
          [
            30.123999999999995,
            -31.31
          ],
          [
            30.055000000000007,
            -31.378999999999998
          ],
          [
            29.98599999999999,
            -31.448
          ],
          [
            29.917,
            -31.517
          ],
          [
            29.848000000000013,
            -31.586
          ],
          [
            29.778999999999996,
            -31.654999999999998
          ],
          [
            29.710000000000008,
            -31.724
          ],
          [
            29.64099999999999,
            -31.793
          ],
          [
            29.572000000000003,
            -31.862
          ],
          [
            29.502999999999986,
            -31.930999999999997
          ],
          [
            29.433999999999997,
            -32.0
          ],
          [
            29.36500000000001,
            -32.069
          ],
          [
            29.295999999999992,
            -32.138
          ],
          [
            29.227000000000004,
            -32.207
          ],
          [
            29.158000000000015,
            -32.275999999999996
          ],
          [
            29.089,
            -32.345
          ],
          [
            29.02000000000001,
            -32.414
          ],
          [
            28.950999999999993,
            -32.483
          ],
          [
            28.882000000000005,
            -32.552
          ],
          [
            28.812999999999988,
            -32.620999999999995
          ],
          [
            28.744,
            -32.69
          ],
          [
            28.67500000000001,
            -32.759
          ],
          [
            28.605999999999995,
            -32.827999999999996
          ],
          [
            28.537000000000006,
            -32.897
          ],
          [
            28.46799999999999,
            -32.966
          ],
          [
            28.399,
            -33.035
          ],
          [
            28.329999999999984,
            -33.104
          ],
          [
            28.260999999999996,
            -33.173
          ],
          [
            28.192000000000007,
            -33.242
          ],
          [
            28.12299999999999,
            -33.311
          ],
          [
            28.054000000000002,
            -33.379999999999995
          ],
          [
            27.985000000000014,
            -33.449
          ],
          [
            27.915999999999997,
            -33.518
          ],
          [
            27.84700000000001,
            -33.586999999999996
          ],
          [
            27.77799999999999,
            -33.656
          ],
          [
            27.709000000000003,
            -33.725
          ],
          [
            27.639999999999986,
            -33.794
          ],
          [
            27.570999999999998,
            -33.863
          ],
          [
            27.50200000000001,
            -33.932
          ],
          [
            27.432999999999993,
            -34.001
          ],
          [
            27.364000000000004,
            -34.07
          ],
          [
            27.295000000000016,
            -34.138999999999996
          ],
          [
            27.226,
            -34.208
          ],
          [
            27.15700000000001,
            -34.277
          ],
          [
            27.087999999999994,
            -34.346
          ],
          [
            27.019000000000005,
            -34.415
          ],
          [
            26.94999999999999,
            -34.484
          ],
          [
            26.881,
            -34.553
          ],
          [
            26.812000000000012,
            -34.622
          ],
          [
            26.742999999999995,
            -34.690999999999995
          ],
          [
            26.674000000000007,
            -34.76
          ],
          [
            26.60499999999999,
            -34.829
          ],
          [
            26.536,
            -34.829
          ],
          [
            26.466999999999985,
            -34.829
          ],
          [
            26.397999999999996,
            -34.829
          ],
          [
            26.329000000000008,
            -34.829
          ],
          [
            26.25999999999999,
            -34.829
          ],
          [
            26.191000000000003,
            -34.829
          ],
          [
            26.122000000000014,
            -34.829
          ],
          [
            26.052999999999997,
            -34.829
          ],
          [
            25.98400000000001,
            -34.829
          ],
          [
            25.914999999999992,
            -34.829
          ],
          [
            25.846000000000004,
            -34.829
          ],
          [
            25.776999999999987,
            -34.829
          ],
          [
            25.708,
            -34.829
          ],
          [
            25.63900000000001,
            -34.829
          ],
          [
            25.569999999999993,
            -34.829
          ],
          [
            25.501000000000005,
            -34.829
          ],
          [
            25.431999999999988,
            -34.829
          ],
          [
            25.363,
            -34.829
          ],
          [
            25.29400000000001,
            -34.829
          ],
          [
            25.224999999999994,
            -34.829
          ],
          [
            25.156000000000006,
            -34.829
          ],
          [
            25.08699999999999,
            -34.829
          ],
          [
            25.018,
            -34.829
          ],
          [
            24.949000000000012,
            -34.829
          ],
          [
            24.879999999999995,
            -34.829
          ],
          [
            24.811000000000007,
            -34.829
          ],
          [
            24.74199999999999,
            -34.829
          ],
          [
            24.673000000000002,
            -34.829
          ],
          [
            24.603999999999985,
            -34.829
          ],
          [
            24.534999999999997,
            -34.829
          ],
          [
            24.466000000000008,
            -34.829
          ],
          [
            24.39699999999999,
            -34.829
          ],
          [
            24.328000000000003,
            -34.829
          ],
          [
            24.259000000000015,
            -34.829
          ],
          [
            24.189999999999998,
            -34.829
          ],
          [
            24.12100000000001,
            -34.829
          ],
          [
            24.051999999999992,
            -34.829
          ],
          [
            23.983000000000004,
            -34.829
          ],
          [
            23.913999999999987,
            -34.829
          ],
          [
            23.845,
            -34.829
          ],
          [
            23.77600000000001,
            -34.829
          ],
          [
            23.706999999999994,
            -34.829
          ],
          [
            23.638000000000005,
            -34.829
          ],
          [
            23.56899999999999,
            -34.829
          ],
          [
            23.5,
            -34.829
          ],
          [
            23.43100000000001,
            -34.829
          ],
          [
            23.361999999999995,
            -34.829
          ],
          [
            23.293000000000006,
            -34.829
          ],
          [
            23.22399999999999,
            -34.829
          ],
          [
            23.155,
            -34.829
          ],
          [
            23.086000000000013,
            -34.829
          ],
          [
            23.016999999999996,
            -34.829
          ],
          [
            22.948000000000008,
            -34.829
          ],
          [
            22.87899999999999,
            -34.829
          ],
          [
            22.810000000000002,
            -34.829
          ],
          [
            22.740999999999985,
            -34.829
          ],
          [
            22.671999999999997,
            -34.829
          ],
          [
            22.60300000000001,
            -34.829
          ],
          [
            22.533999999999992,
            -34.829
          ],
          [
            22.465000000000003,
            -34.829
          ],
          [
            22.396000000000015,
            -34.829
          ],
          [
            22.326999999999998,
            -34.829
          ],
          [
            22.25800000000001,
            -34.829
          ],
          [
            22.188999999999993,
            -34.829
          ],
          [
            22.120000000000005,
            -34.829
          ],
          [
            22.050999999999988,
            -34.829
          ],
          [
            21.982,
            -34.829
          ],
          [
            21.91300000000001,
            -34.829
          ],
          [
            21.843999999999994,
            -34.829
          ],
          [
            21.775000000000006,
            -34.829
          ],
          [
            21.70599999999999,
            -34.829
          ],
          [
            21.637,
            -34.829
          ],
          [
            21.568000000000012,
            -34.829
          ],
          [
            21.498999999999995,
            -34.829
          ],
          [
            21.430000000000007,
            -34.829
          ],
          [
            21.36099999999999,
            -34.829
          ],
          [
            21.292,
            -34.829
          ],
          [
            21.223000000000013,
            -34.829
          ],
          [
            21.153999999999996,
            -34.829
          ],
          [
            21.085000000000008,
            -34.829
          ],
          [
            21.01599999999999,
            -34.829
          ],
          [
            20.947000000000003,
            -34.829
          ],
          [
            20.877999999999986,
            -34.829
          ],
          [
            20.808999999999997,
            -34.829
          ],
          [
            20.74000000000001,
            -34.829
          ],
          [
            20.670999999999992,
            -34.829
          ],
          [
            20.602000000000004,
            -34.829
          ],
          [
            20.533000000000015,
            -34.829
          ],
          [
            20.464,
            -34.829
          ],
          [
            20.39500000000001,
            -34.829
          ],
          [
            20.325999999999993,
            -34.829
          ],
          [
            20.257000000000005,
            -34.829
          ],
          [
            20.187999999999988,
            -34.829
          ],
          [
            20.119,
            -34.829
          ],
          [
            20.05000000000001,
            -34.829
          ],
          [
            19.98,
            -34.83
          ],
          [
            19.564999999999998,
            -34.9649375
          ],
          [
            19.007937499999997,
            -34.9649375
          ],
          [
            18.450874999999996,
            -34.9649375
          ],
          [
            17.893812499999996,
            -34.407875
          ],
          [
            17.336749999999995,
            -33.850812499999996
          ],
          [
            16.779687499999994,
            -33.293749999999996
          ],
          [
            16.222624999999994,
            -32.736687499999995
          ],
          [
            15.665562499999993,
            -32.179625
          ],
          [
            15.108499999999992,
            -31.6225625
          ],
          [
            14.551437499999992,
            -31.0655
          ],
          [
            13.994374999999991,
            -30.5084375
          ],
          [
            13.437312500000019,
            -29.951375
          ],
          [
            12.88024999999999,
            -29.394312499999998
          ],
          [
            12.323187500000017,
            -28.837249999999997
          ],
          [
            11.766124999999988,
            -28.280187499999997
          ],
          [
            11.209062500000016,
            -27.723124999999996
          ],
          [
            10.651999999999987,
            -27.166062499999995
          ],
          [
            10.094937500000015,
            -26.608999999999995
          ],
          [
            9.537874999999985,
            -26.0519375
          ],
          [
            8.980812500000013,
            -25.494875
          ],
          [
            8.423749999999984,
            -24.937812499999993
          ],
          [
            7.866687500000012,
            -24.380749999999992
          ],
          [
            7.309625000000011,
            -23.82368749999999
          ],
          [
            6.7525625000000105,
            -23.266625000000005
          ],
          [
            6.19550000000001,
            -22.709562500000004
          ],
          [
            5.638437500000009,
            -22.152500000000003
          ],
          [
            5.081375000000008,
            -21.595437500000003
          ],
          [
            4.524312500000008,
            -21.038375000000002
          ],
          [
            3.967250000000007,
            -20.4813125
          ],
          [
            3.4101875000000064,
            -19.92425
          ],
          [
            2.8531250000000057,
            -19.3671875
          ],
          [
            2.296062500000005,
            -18.810125
          ],
          [
            1.7390000000000043,
            -18.2530625
          ],
          [
            1.1819375000000036,
            -17.695999999999998
          ],
          [
            0.624875000000003,
            -17.138937499999997
          ],
          [
            0.06781250000000227,
            -16.581874999999997
          ],
          [
            -0.4892499999999984,
            -16.024812499999996
          ],
          [
            -1.046312499999999,
            -15.467749999999995
          ],
          [
            -1.6033749999999998,
            -14.910687499999995
          ],
          [
            -2.1604375000000005,
            -14.353624999999994
          ],
          [
            -2.717500000000001,
            -13.796562499999993
          ],
          [
            -3.274562500000002,
            -13.239499999999992
          ],
          [
            -3.8316250000000025,
            -12.682437499999992
          ],
          [
            -4.388687500000003,
            -12.125374999999991
          ],
          [
            -4.945750000000004,
            -11.568312500000005
          ],
          [
            -5.5028125000000045,
            -11.011250000000004
          ],
          [
            -6.059875000000005,
            -10.454187500000003
          ],
          [
            -6.616937500000006,
            -9.897125000000003
          ],
          [
            -7.174000000000007,
            -9.340062500000002
          ],
          [
            -7.731062500000007,
            -8.783000000000001
          ],
          [
            -8.288125000000008,
            -8.2259375
          ],
          [
            -8.845187500000009,
            -7.668875
          ],
          [
            -9.40225000000001,
            -7.111812499999999
          ],
          [
            -9.95931250000001,
            -6.5547499999999985
          ],
          [
            -10.51637500000001,
            -5.997687499999998
          ],
          [
            -11.073437500000011,
            -5.440624999999997
          ],
          [
            -11.073437500000011,
            -4.8835624999999965
          ],
          [
            -11.073437500000011,
            -4.326499999999996
          ],
          [
            -11.073437500000011,
            -3.769437499999995
          ],
          [
            -11.073437500000011,
            -3.2123749999999944
          ],
          [
            -11.073437500000011,
            -2.6553124999999937
          ],
          [
            -11.073437500000011,
            -2.098249999999993
          ],
          [
            -11.073437500000011,
            -1.5411874999999924
          ],
          [
            -11.073437500000011,
            -0.9841249999999917
          ],
          [
            -11.073437500000011,
            -0.427062499999991
          ],
          [
            -11.073437500000011,
            0.12999999999999545
          ],
          [
            -11.073437500000011,
            0.6870624999999961
          ],
          [
            -11.073437500000011,
            1.2441249999999968
          ],
          [
            -11.073437500000011,
            1.8011874999999975
          ],
          [
            -11.073437500000011,
            2.358249999999998
          ],
          [
            -11.073437500000011,
            2.915312499999999
          ],
          [
            -11.073437500000011,
            3.4723749999999995
          ],
          [
            -11.073437500000011,
            4.0294375
          ],
          [
            -11.073437500000011,
            4.586500000000001
          ],
          [
            -11.073437500000011,
            5.143562500000002
          ],
          [
            -11.073437500000011,
            5.700625000000002
          ],
          [
            -11.630500000000012,
            6.257687500000003
          ],
          [
            -12.187562500000013,
            6.814750000000004
          ],
          [
            -12.744624999999985,
            7.371812500000004
          ],
          [
            -13.301687500000014,
            7.928875000000005
          ],
          [
            -13.858749999999986,
            8.485937500000006
          ],
          [
            -14.415812499999987,
            9.043000000000006
          ],
          [
            -14.972874999999988,
            9.600062500000007
          ],
          [
            -15.529937499999988,
            10.157125000000008
          ],
          [
            -16.08699999999999,
            10.714187500000008
          ],
          [
            -16.64406249999999,
            11.271250000000009
          ],
          [
            -16.64406249999999,
            11.82831250000001
          ],
          [
            -17.20112499999999,
            12.385374999999996
          ],
          [
            -17.20112499999999,
            12.942437499999997
          ],
          [
            -17.20112499999999,
            13.499499999999998
          ],
          [
            -17.20112499999999,
            14.056562499999998
          ],
          [
            -17.75818749999999,
            14.613624999999999
          ],
          [
            -17.75818749999999,
            15.1706875
          ],
          [
            -17.75818749999999,
            15.72775
          ],
          [
            -17.75818749999999,
            16.2848125
          ],
          [
            -17.75818749999999,
            16.841875
          ],
          [
            -17.75818749999999,
            17.398937500000002
          ],
          [
            -17.75818749999999,
            17.956000000000003
          ],
          [
            -17.75818749999999,
            18.513062500000004
          ],
          [
            -17.75818749999999,
            19.070125000000004
          ],
          [
            -17.75818749999999,
            19.627187500000005
          ],
          [
            -17.75818749999999,
            20.184250000000006
          ],
          [
            -17.75818749999999,
            20.741312500000006
          ],
          [
            -17.75818749999999,
            21.298375000000007
          ],
          [
            -17.75818749999999,
            21.855437500000008
          ],
          [
            -17.75818749999999,
            22.41250000000001
          ],
          [
            -17.75818749999999,
            22.96956250000001
          ],
          [
            -17.75818749999999,
            23.52662500000001
          ],
          [
            -17.75818749999999,
            24.083687499999996
          ],
          [
            -17.75818749999999,
            24.640749999999997
          ],
          [
            -17.75818749999999,
            25.197812499999998
          ],
          [
            -17.75818749999999,
            25.754875
          ],
          [
            -17.75818749999999,
            26.3119375
          ],
          [
            -17.75818749999999,
            26.869
          ],
          [
            -17.75818749999999,
            27.4260625
          ],
          [
            -17.75818749999999,
            27.983125
          ],
          [
            -17.20112499999999,
            28.540187500000002
          ],
          [
            -17.20112499999999,
            29.097250000000003
          ],
          [
            -17.20112499999999,
            29.654312500000003
          ],
          [
            -17.20112499999999,
            30.211375000000004
          ],
          [
            -17.20112499999999,
            30.768437500000005
          ],
          [
            -17.20112499999999,
            31.325500000000005
          ],
          [
            -17.20112499999999,
            31.882562500000006
          ],
          [
            -17.20112499999999,
            32.43962500000001
          ],
          [
            -17.20112499999999,
            32.99668750000001
          ],
          [
            -17.20112499999999,
            33.55375000000001
          ],
          [
            -17.20112499999999,
            34.11081250000001
          ],
          [
            -17.20112499999999,
            34.66787500000001
          ],
          [
            -17.20112499999999,
            35.22493750000001
          ],
          [
            -17.20112499999999,
            35.78200000000001
          ],
          [
            -17.20112499999999,
            36.3390625
          ],
          [
            -16.64406249999999,
            36.896125
          ],
          [
            -16.08699999999999,
            37.4531875
          ],
          [
            -15.529937499999988,
            38.01025
          ],
          [
            -14.972874999999988,
            38.5673125
          ],
          [
            -14.415812499999987,
            39.124375000000015
          ],
          [
            -13.858749999999986,
            39.681437500000015
          ],
          [
            -13.301687500000014,
            40.238500000000016
          ],
          [
            -12.744624999999985,
            40.79556250000002
          ],
          [
            -12.187562500000013,
            41.35262500000002
          ],
          [
            -11.630500000000012,
            41.90968749999999
          ],
          [
            -11.073437500000011,
            42.46674999999999
          ],
          [
            -10.51637500000001,
            43.02381249999999
          ],
          [
            -9.95931250000001,
            43.58087499999999
          ],
          [
            -9.40225000000001,
            44.13793749999999
          ],
          [
            -8.845187500000009,
            44.69499999999999
          ],
          [
            -8.288125000000008,
            45.252062499999994
          ],
          [
            -7.731062500000007,
            45.809124999999995
          ],
          [
            -7.174000000000007,
            46.366187499999995
          ],
          [
            -6.616937500000006,
            46.923249999999996
          ],
          [
            -6.059875000000005,
            47.4803125
          ],
          [
            -5.5028125000000045,
            48.037375
          ],
          [
            -4.945750000000004,
            48.5944375
          ],
          [
            -4.388687500000003,
            49.1515
          ],
          [
            -3.8316250000000025,
            49.7085625
          ],
          [
            -3.274562500000002,
            50.265625
          ],
          [
            -2.717500000000001,
            50.265625
          ],
          [
            -2.1604375000000005,
            50.265625
          ],
          [
            -1.6033749999999998,
            50.265625
          ],
          [
            -1.046312499999999,
            50.265625
          ],
          [
            -0.4892499999999984,
            50.265625
          ],
          [
            0.06781250000000227,
            50.265625
          ],
          [
            0.624875000000003,
            50.265625
          ],
          [
            1.1819375000000036,
            50.8226875
          ],
          [
            1.7390000000000043,
            51.37975
          ],
          [
            2.296062500000005,
            51.9368125
          ],
          [
            2.8531250000000057,
            52.493875
          ],
          [
            3.4101875000000064,
            53.0509375
          ],
          [
            3.967250000000007,
            53.608000000000004
          ],
          [
            4.524312500000008,
            54.165062500000005
          ],
          [
            5.081375000000008,
            54.165062500000005
          ],
          [
            5.638437500000009,
            54.165062500000005
          ],
          [
            6.19550000000001,
            54.165062500000005
          ],
          [
            7.0,
            54.3
          ],
          [
            7.144798238389131,
            54.265991673272836
          ],
          [
            7.28935769915977,
            54.231809560231376
          ],
          [
            7.433677865685309,
            54.197454162220346
          ],
          [
            7.5777582327836175,
            54.16292598120926
          ],
          [
            7.721598306665633,
            54.12822551976545
          ],
          [
            7.865197604883138,
            54.09335328102706
          ],
          [
            8.008555656275748,
            54.05830976867643
          ],
          [
            8.151672000917111,
            54.023095486913526
          ],
          [
            8.294546190060357,
            53.987710940429594
          ],
          [
            8.437177786082824,
            53.95215663438106
          ],
          [
            8.579566362430029,
            53.91643307436359
          ],
          [
            8.721711503558966,
            53.88054076638626
          ],
          [
            8.863612804880733,
            53.84448021684606
          ],
          [
            9.005269872702408,
            53.80825193250252
          ],
          [
            9.146682324168406,
            53.77185642045251
          ],
          [
            9.287849787201072,
            53.73529418810533
          ],
          [
            9.428771900440772,
            53.69856574315787
          ],
          [
            9.569448313185315,
            53.66167159357009
          ],
          [
            9.709878685328817,
            53.62461224754064
          ],
          [
            9.850062687300003,
            53.58738821348269
          ],
          [
            9.99,
            53.55
          ]
        ]
      }
    },
    {
      "type": "Feature",
      "bbox": [
        9.99,
        48.14,
        11.58,
        53.55
      ],
      "properties": {
        "route_id": "SHA-CPE-MUC",
        "leg_index": 2,
        "from": "DEHAM",
        "to": "DEMUC",
        "mode": "rail",
        "duration_days": 2,
        "distance_km": 612.1,
        "waypoints": [
          {
            "id": "DEHAM",
            "name": "Hamburg",
            "lon": 9.99,
            "lat": 53.55,
            "source": "masterdata",
            "ref": "locations.jsonl:DEHAM"
          },
          {
            "id": "DEMUC",
            "name": "Munich",
            "lon": 11.58,
            "lat": 48.14,
            "source": "masterdata",
            "ref": "locations.jsonl:DEMUC"
          }
        ]
      },
      "geometry": {
        "type": "LineString",
        "coordinates": [
          [
            9.99,
            53.55
          ],
          [
            11.58,
            48.14
          ]
        ]
      }
    }
  ]
}
