{
  "type": "FeatureCollection",
  "bbox": [
    8.93,
    1.2467499999999996,
    122.70000000000002,
    48.14
  ],
  "metadata": {
    "route_id": "SHA-GOA-MUC",
    "lane": "CNSHA-DEMUC",
    "contracted": false,
    "total_distance_km": 17235.2,
    "total_duration_days": 27,
    "leg_count": 2
  },
  "features": [
    {
      "type": "Feature",
      "bbox": [
        8.93,
        1.2467499999999996,
        122.7,
        44.41
      ],
      "properties": {
        "route_id": "SHA-GOA-MUC",
        "leg_index": 0,
        "from": "CNSHA",
        "to": "ITGOA",
        "mode": "ocean",
        "duration_days": 24,
        "distance_km": 16773.1,
        "waypoints": [
          {
            "id": "CNSHA",
            "name": "Shanghai",
            "lon": 121.47,
            "lat": 31.23,
            "source": "masterdata",
            "ref": "locations.jsonl:CNSHA"
          },
          {
            "id": "CNSHA_MOUTH",
            "name": "East China Sea, off the Yangtze mouth",
            "lon": 122.7,
            "lat": 30.9,
            "source": "naturalearth",
            "ref": "data/vendor/naturalearth/10m-physical/ne_10m_land"
          },
          {
            "id": "SOUTH_CHINA_SEA_MID",
            "name": "South China Sea, mid-crossing",
            "lon": 113.0,
            "lat": 12.0,
            "source": "naturalearth",
            "ref": "data/vendor/naturalearth/10m-physical/ne_10m_land"
          },
          {
            "id": "MALACCA_W",
            "name": "Strait of Malacca (west, off Singapore)",
            "lon": 103.83,
            "lat": 1.26,
            "source": "naturalearth",
            "ref": "data/vendor/naturalearth/10m-physical/ne_10m_land"
          },
          {
            "id": "ANDAMAN_SEA",
            "name": "Andaman Sea, west of Sumatra",
            "lon": 95.0,
            "lat": 5.0,
            "source": "naturalearth",
            "ref": "data/vendor/naturalearth/10m-physical/ne_10m_land"
          },
          {
            "id": "SOUTH_OF_SRI_LANKA",
            "name": "Indian Ocean, south of Sri Lanka",
            "lon": 78.0,
            "lat": 2.0,
            "source": "naturalearth",
            "ref": "data/vendor/naturalearth/10m-physical/ne_10m_land"
          },
          {
            "id": "ARABIAN_SEA_MID",
            "name": "Arabian Sea, mid-crossing",
            "lon": 65.0,
            "lat": 6.0,
            "source": "naturalearth",
            "ref": "data/vendor/naturalearth/10m-physical/ne_10m_land"
          },
          {
            "id": "SOUTH_OF_SOCOTRA",
            "name": "South of Socotra",
            "lon": 54.0,
            "lat": 11.5,
            "source": "naturalearth",
            "ref": "data/vendor/naturalearth/10m-physical/ne_10m_land"
          },
          {
            "id": "GUARDAFUI_CHANNEL",
            "name": "Guardafui Channel, north of the Horn of Africa",
            "lon": 50.5,
            "lat": 12.5,
            "source": "naturalearth",
            "ref": "data/vendor/naturalearth/10m-physical/ne_10m_land"
          },
          {
            "id": "GULF_OF_ADEN_MID",
            "name": "Gulf of Aden, mid-crossing",
            "lon": 48.0,
            "lat": 12.2,
            "source": "naturalearth",
            "ref": "data/vendor/naturalearth/10m-physical/ne_10m_land"
          },
          {
            "id": "BAB_EL_MANDEB",
            "name": "Bab-el-Mandeb (Gulf of Aden entrance)",
            "lon": 43.33,
            "lat": 12.58,
            "source": "naturalearth",
            "ref": "data/vendor/naturalearth/10m-physical/ne_10m_land"
          },
          {
            "id": "BAB_EL_MANDEB_N",
            "name": "Red Sea proper, past the strait",
            "lon": 41.8,
            "lat": 15.5,
            "source": "naturalearth",
            "ref": "data/vendor/naturalearth/10m-physical/ne_10m_land"
          },
          {
            "id": "RED_SEA_MID",
            "name": "Central Red Sea, off Port Sudan",
            "lon": 38.5,
            "lat": 20.0,
            "source": "naturalearth",
            "ref": "data/vendor/naturalearth/10m-physical/ne_10m_land"
          },
          {
            "id": "SUEZ_SOUTH",
            "name": "Suez, Gulf of Suez",
            "lon": 32.55,
            "lat": 29.97,
            "source": "naturalearth",
            "ref": "data/vendor/naturalearth/10m-physical/ne_10m_land"
          },
          {
            "id": "SUEZ_NORTH",
            "name": "Port Said, Mediterranean entrance",
            "lon": 32.31,
            "lat": 31.26,
            "source": "naturalearth",
            "ref": "data/vendor/naturalearth/10m-physical/ne_10m_land"
          },
          {
            "id": "NORTH_OF_PORT_SAID",
            "name": "Mediterranean, just off Port Said",
            "lon": 32.0,
            "lat": 32.3,
            "source": "naturalearth",
            "ref": "data/vendor/naturalearth/10m-physical/ne_10m_land"
          },
          {
            "id": "SOUTH_OF_CRETE",
            "name": "Mediterranean, south of Crete",
            "lon": 25.0,
            "lat": 34.0,
            "source": "naturalearth",
            "ref": "data/vendor/naturalearth/10m-physical/ne_10m_land"
          },
          {
            "id": "SOUTH_OF_SICILY",
            "name": "Mediterranean, south of Sicily",
            "lon": 14.0,
            "lat": 35.5,
            "source": "naturalearth",
            "ref": "data/vendor/naturalearth/10m-physical/ne_10m_land"
          },
          {
            "id": "TYRRHENIAN_MID",
            "name": "Tyrrhenian Sea, mid-crossing",
            "lon": 11.0,
            "lat": 38.5,
            "source": "naturalearth",
            "ref": "data/vendor/naturalearth/10m-physical/ne_10m_land"
          },
          {
            "id": "NORTH_OF_CORSICA",
            "name": "Ligurian Sea, north of Corsica",
            "lon": 9.5,
            "lat": 43.3,
            "source": "naturalearth",
            "ref": "data/vendor/naturalearth/10m-physical/ne_10m_land"
          },
          {
            "id": "ITGOA",
            "name": "Genoa",
            "lon": 8.93,
            "lat": 44.41,
            "source": "masterdata",
            "ref": "locations.jsonl:ITGOA"
          }
        ]
      },
      "geometry": {
        "type": "LineString",
        "coordinates": [
          [
            121.47,
            31.23
          ],
          [
            121.52876356517704,
            31.214552858609807
          ],
          [
            121.5875080104748,
            31.199078844705088
          ],
          [
            121.64623332060692,
            31.18357798316119
          ],
          [
            121.70493948039378,
            31.168050298872807
          ],
          [
            121.76362647476232,
            31.1524958167538
          ],
          [
            121.82229428874606,
            31.136914561737107
          ],
          [
            121.88094290748491,
            31.121306558774627
          ],
          [
            121.93957231622514,
            31.105671832837032
          ],
          [
            121.99818250031927,
            31.090010408913695
          ],
          [
            122.05677344522599,
            31.074322312012526
          ],
          [
            122.11534513651003,
            31.058607567159832
          ],
          [
            122.17389755984213,
            31.04286619940023
          ],
          [
            122.23243070099892,
            31.027098233796504
          ],
          [
            122.29094454586276,
            31.011303695429444
          ],
          [
            122.34943908042175,
            30.99548260939774
          ],
          [
            122.40791429076958,
            30.979635000817854
          ],
          [
            122.46637016310547,
            30.963760894823917
          ],
          [
            122.52480668373397,
            30.947860316567528
          ],
          [
            122.58322383906498,
            30.931933291217714
          ],
          [
            122.64162161561359,
            30.915979843960738
          ],
          [
            122.7,
            30.9
          ],
          [
            122.57625000000002,
            30.781875
          ],
          [
            122.57625000000002,
            30.66375
          ],
          [
            122.57625000000002,
            30.545625
          ],
          [
            122.57625000000002,
            30.427500000000002
          ],
          [
            122.57625000000002,
            30.309375000000003
          ],
          [
            122.57625000000002,
            30.191249999999997
          ],
          [
            122.57625000000002,
            30.073124999999997
          ],
          [
            122.57625000000002,
            29.955
          ],
          [
            122.57625000000002,
            29.836875
          ],
          [
            122.458125,
            29.71875
          ],
          [
            122.34000000000003,
            29.600625
          ],
          [
            122.22187500000001,
            29.4825
          ],
          [
            122.10374999999999,
            29.364375000000003
          ],
          [
            122.10374999999999,
            29.246250000000003
          ],
          [
            122.10374999999999,
            29.128124999999997
          ],
          [
            121.98562500000003,
            29.009999999999998
          ],
          [
            121.8675,
            28.891875
          ],
          [
            121.74937499999999,
            28.77375
          ],
          [
            121.74937499999999,
            28.655625
          ],
          [
            121.74937499999999,
            28.5375
          ],
          [
            121.74937499999999,
            28.419375000000002
          ],
          [
            121.74937499999999,
            28.301250000000003
          ],
          [
            121.63125000000002,
            28.183124999999997
          ],
          [
            121.513125,
            28.064999999999998
          ],
          [
            121.39499999999998,
            27.946875
          ],
          [
            121.27687500000002,
            27.82875
          ],
          [
            121.15875,
            27.710625
          ],
          [
            121.04062499999998,
            27.5925
          ],
          [
            120.92250000000001,
            27.474375000000002
          ],
          [
            120.804375,
            27.356250000000003
          ],
          [
            120.68624999999997,
            27.238124999999997
          ],
          [
            120.56812500000001,
            27.119999999999997
          ],
          [
            120.44999999999999,
            27.001875
          ],
          [
            120.33187499999997,
            26.88375
          ],
          [
            120.21375,
            26.765625
          ],
          [
            120.21375,
            26.6475
          ],
          [
            120.09562499999998,
            26.529375
          ],
          [
            119.97749999999996,
            26.411250000000003
          ],
          [
            119.97749999999996,
            26.293125000000003
          ],
          [
            119.97749999999996,
            26.174999999999997
          ],
          [
            119.97749999999996,
            26.056874999999998
          ],
          [
            119.97749999999996,
            25.93875
          ],
          [
            119.97749999999996,
            25.820625
          ],
          [
            119.97749999999996,
            25.7025
          ],
          [
            119.97749999999996,
            25.584375
          ],
          [
            119.97749999999996,
            25.466250000000002
          ],
          [
            119.859375,
            25.348125000000003
          ],
          [
            119.74124999999998,
            25.229999999999997
          ],
          [
            119.62312500000002,
            25.111874999999998
          ],
          [
            119.505,
            24.99375
          ],
          [
            119.38687500000003,
            24.875625
          ],
          [
            119.26875000000001,
            24.7575
          ],
          [
            119.15062499999999,
            24.639375
          ],
          [
            119.03250000000003,
            24.521250000000002
          ],
          [
            118.914375,
            24.403125
          ],
          [
            118.79624999999999,
            24.285
          ],
          [
            118.67812500000002,
            24.166875
          ],
          [
            118.56,
            24.04875
          ],
          [
            118.44187499999998,
            23.930625
          ],
          [
            118.32375000000002,
            23.8125
          ],
          [
            118.205625,
            23.694375
          ],
          [
            118.08749999999998,
            23.57625
          ],
          [
            117.96937500000001,
            23.458125000000003
          ],
          [
            117.85125,
            23.34
          ],
          [
            117.73312499999997,
            23.221875
          ],
          [
            117.61500000000001,
            23.103749999999998
          ],
          [
            117.49687499999999,
            22.985625
          ],
          [
            117.37874999999997,
            22.8675
          ],
          [
            117.260625,
            22.749375
          ],
          [
            117.14249999999998,
            22.63125
          ],
          [
            117.02437500000002,
            22.513125000000002
          ],
          [
            116.90625,
            22.395
          ],
          [
            116.78812499999998,
            22.276875
          ],
          [
            116.67000000000002,
            22.158749999999998
          ],
          [
            116.551875,
            22.040625
          ],
          [
            116.43375000000003,
            21.9225
          ],
          [
            116.31562500000001,
            21.804375
          ],
          [
            116.19749999999999,
            21.68625
          ],
          [
            116.07937500000003,
            21.568125000000002
          ],
          [
            115.96125,
            21.450000000000003
          ],
          [
            115.84312499999999,
            21.331875
          ],
          [
            115.72500000000002,
            21.21375
          ],
          [
            115.606875,
            21.095625
          ],
          [
            115.48874999999998,
            20.9775
          ],
          [
            115.37062500000002,
            20.859375
          ],
          [
            115.2525,
            20.74125
          ],
          [
            115.13437499999998,
            20.623125
          ],
          [
            115.01625000000001,
            20.505000000000003
          ],
          [
            114.898125,
            20.386875
          ],
          [
            114.77999999999997,
            20.26875
          ],
          [
            114.66187500000001,
            20.150624999999998
          ],
          [
            114.54374999999999,
            20.0325
          ],
          [
            114.42562499999997,
            19.914375
          ],
          [
            114.3075,
            19.79625
          ],
          [
            114.18937499999998,
            19.678125
          ],
          [
            114.07125000000002,
            19.560000000000002
          ],
          [
            113.953125,
            19.441875
          ],
          [
            113.83499999999998,
            19.32375
          ],
          [
            113.71687500000002,
            19.205625
          ],
          [
            113.59875,
            19.0875
          ],
          [
            113.48062500000003,
            18.969375
          ],
          [
            113.36250000000001,
            18.85125
          ],
          [
            113.24437499999999,
            18.733125
          ],
          [
            113.12625000000003,
            18.615000000000002
          ],
          [
            113.008125,
            18.496875000000003
          ],
          [
            113.008125,
            18.37875
          ],
          [
            113.008125,
            18.260625
          ],
          [
            113.008125,
            18.1425
          ],
          [
            113.008125,
            18.024375
          ],
          [
            113.008125,
            17.90625
          ],
          [
            113.008125,
            17.788125
          ],
          [
            113.008125,
            17.67
          ],
          [
            113.008125,
            17.551875000000003
          ],
          [
            113.008125,
            17.43375
          ],
          [
            113.008125,
            17.315625
          ],
          [
            113.008125,
            17.197499999999998
          ],
          [
            113.008125,
            17.079375
          ],
          [
            113.008125,
            16.96125
          ],
          [
            113.008125,
            16.843125
          ],
          [
            113.008125,
            16.725
          ],
          [
            113.008125,
            16.606875000000002
          ],
          [
            113.008125,
            16.48875
          ],
          [
            113.008125,
            16.370625
          ],
          [
            113.008125,
            16.2525
          ],
          [
            113.008125,
            16.134375
          ],
          [
            113.008125,
            16.01625
          ],
          [
            113.008125,
            15.898125
          ],
          [
            113.008125,
            15.780000000000001
          ],
          [
            113.008125,
            15.661875
          ],
          [
            113.008125,
            15.54375
          ],
          [
            113.008125,
            15.425625
          ],
          [
            113.008125,
            15.307500000000001
          ],
          [
            113.008125,
            15.189375000000002
          ],
          [
            113.008125,
            15.071250000000001
          ],
          [
            113.008125,
            14.953125
          ],
          [
            113.008125,
            14.835
          ],
          [
            113.008125,
            14.716875000000002
          ],
          [
            113.008125,
            14.59875
          ],
          [
            113.008125,
            14.480625
          ],
          [
            113.008125,
            14.3625
          ],
          [
            113.008125,
            14.244375000000002
          ],
          [
            113.008125,
            14.12625
          ],
          [
            113.008125,
            14.008125
          ],
          [
            113.008125,
            13.89
          ],
          [
            113.008125,
            13.771875000000001
          ],
          [
            113.008125,
            13.65375
          ],
          [
            113.008125,
            13.535625
          ],
          [
            113.008125,
            13.4175
          ],
          [
            113.008125,
            13.299375000000001
          ],
          [
            113.008125,
            13.18125
          ],
          [
            113.008125,
            13.063125000000001
          ],
          [
            113.008125,
            12.945
          ],
          [
            113.008125,
            12.826875000000001
          ],
          [
            113.008125,
            12.70875
          ],
          [
            113.008125,
            12.590625000000001
          ],
          [
            113.008125,
            12.4725
          ],
          [
            113.008125,
            12.354375000000001
          ],
          [
            113.008125,
            12.236250000000002
          ],
          [
            113.008125,
            12.118125000000001
          ],
          [
            113.0,
            12.0
          ],
          [
            104.38074999999998,
            1.6093750000000002
          ],
          [
            104.38074999999998,
            1.3408750000000003
          ],
          [
            104.179375,
            1.27375
          ],
          [
            103.83,
            1.26
          ],
          [
            103.43043749999998,
            1.2467499999999996
          ],
          [
            96.58718750000003,
            5.992874999999998
          ],
          [
            95.20749999999998,
            5.992874999999998
          ],
          [
            94.98675000000003,
            5.772124999999998
          ],
          [
            95.0,
            5.0
          ],
          [
            94.18773765266324,
            4.865138178678013
          ],
          [
            93.3757997111808,
            4.729296620848645
          ],
          [
            92.56417919939737,
            4.592503171857536
          ],
          [
            91.75286889550429,
            4.4547858298207075
          ],
          [
            90.9418613382014,
            4.316172740308187
          ],
          [
            90.13114883300327,
            4.176692191073579
          ],
          [
            89.32072345868404,
            4.0363726068294765
          ],
          [
            88.51057707385573,
            3.895242544068488
          ],
          [
            87.70070132367422,
            3.7533306859295497
          ],
          [
            86.89108764666783,
            3.610665837109038
          ],
          [
            86.08172728168309,
            3.467276918816096
          ],
          [
            85.27261127494253,
            3.3231929637714894
          ],
          [
            84.46373048720926,
            3.1784431112491474
          ],
          [
            83.65507560105328,
            3.033056602159494
          ],
          [
            82.84663712821461,
            2.88706277417352
          ],
          [
            82.03840541705809,
            2.7404910568865013
          ],
          [
            81.23037066011511,
            2.5933709670200966
          ],
          [
            80.4225229017075,
            2.445732103661553
          ],
          [
            79.61485204564865,
            2.2976041435386003
          ],
          [
            78.8073478630174,
            2.149016836328544
          ],
          [
            78.0,
            2.0
          ],
          [
            77.38340235973021,
            2.194477073392025
          ],
          [
            76.76664548069726,
            2.3886979668572232
          ],
          [
            76.14971544557801,
            2.582639909786444
          ],
          [
            75.53259840237217,
            2.7762801394687457
          ],
          [
            74.91528056977299,
            2.9695959018438596
          ],
          [
            74.29774824254483,
            3.1625644522797196
          ],
          [
            73.67998779690768,
            3.3551630563768735
          ],
          [
            73.06198569592878,
            3.547368990801641
          ],
          [
            72.44372849492161,
            3.739159544149794
          ],
          [
            71.82520284685202,
            3.9305120178425836
          ],
          [
            71.20639550775161,
            4.121403727056897
          ],
          [
            70.58729334213821,
            4.3118120016912895
          ],
          [
            69.9678833284432,
            4.501714187369675
          ],
          [
            69.34815256444531,
            4.691087646484381
          ],
          [
            68.72808827271064,
            4.879909759280276
          ],
          [
            68.10767780603823,
            5.068157924981679
          ],
          [
            67.48690865291073,
            5.255809562963701
          ],
          [
            66.8657684429494,
            5.4428421139696335
          ],
          [
            66.24424495237263,
            5.62923304137605
          ],
          [
            65.62232610945699,
            5.8149598325071645
          ],
          [
            65.0,
            6.0
          ],
          [
            64.48285823335397,
            6.268486897766669
          ],
          [
            63.965187852063615,
            6.536460566315318
          ],
          [
            63.446966565442025,
            6.803898343872576
          ],
          [
            62.928172171614015,
            7.070777522208447
          ],
          [
            62.408782562165214,
            7.337075345089379
          ],
          [
            61.88877572690538,
            7.6027690067806555
          ],
          [
            61.36812975874995,
            7.867835650600526
          ],
          [
            60.846822858723726,
            8.132252367528432
          ],
          [
            60.32483334109055,
            8.395996194869873
          ],
          [
            59.802139638612765,
            8.659044114980368
          ],
          [
            59.278720307944056,
            8.92137305405108
          ],
          [
            58.75455403515925,
            9.18295988095872
          ],
          [
            58.229619641424506,
            9.443781406182401
          ],
          [
            57.70389608881117,
            9.703814380790055
          ],
          [
            57.177362486256435,
            9.9630354954973
          ],
          [
            56.64999809567397,
            10.221421379801365
          ],
          [
            56.1217823382172,
            10.47894860119311
          ],
          [
            55.592694800698055,
            10.735593664449834
          ],
          [
            55.06271524216376,
            10.991333011011951
          ],
          [
            54.5318236006339,
            11.246143018446427
          ],
          [
            54.0,
            11.5
          ],
          [
            53.83391412412748,
            11.548599388553543
          ],
          [
            53.667771092075085,
            11.597103538722125
          ],
          [
            53.501570750112904,
            11.645512007612439
          ],
          [
            53.33531294626182,
            11.693824352641244
          ],
          [
            53.168997530302136,
            11.742040131539882
          ],
          [
            53.002624353782096,
            11.790158902358787
          ],
          [
            52.8361932700264,
            11.83818022347208
          ],
          [
            52.66970413414475,
            11.88610365358215
          ],
          [
            52.5031568030403,
            11.93392875172431
          ],
          [
            52.336551135418105,
            11.9816550772715
          ],
          [
            52.16988699179365,
            12.029282189938975
          ],
          [
            52.003164234501114,
            12.076809649789084
          ],
          [
            51.83638272770191,
            12.124237017236075
          ],
          [
            51.66954233739294,
            12.17156385305092
          ],
          [
            51.50264293141501,
            12.218789718366196
          ],
          [
            51.33568437946108,
            12.265914174681003
          ],
          [
            51.168666553084606,
            12.312936783865906
          ],
          [
            51.00158932570773,
            12.359857108167942
          ],
          [
            50.834452572629615,
            12.406674710215635
          ],
          [
            50.66725617103451,
            12.453389153024068
          ],
          [
            50.5,
            12.5
          ],
          [
            50.38082418641535,
            12.486236784750364
          ],
          [
            50.26166099408181,
            12.472420898048657
          ],
          [
            50.14251045535598,
            12.458552405456038
          ],
          [
            50.023372602360084,
            12.444631372757613
          ],
          [
            49.90424746698151,
            12.430657865961905
          ],
          [
            49.78513508087234,
            12.416631951300255
          ],
          [
            49.666035475448915,
            12.402553695226283
          ],
          [
            49.54694868189143,
            12.388423164415288
          ],
          [
            49.427874731143454,
            12.374240425763693
          ],
          [
            49.30881365391156,
            12.360005546388471
          ],
          [
            49.18976548066484,
            12.345718593626563
          ],
          [
            49.07073024163456,
            12.331379635034326
          ],
          [
            48.951707966813686,
            12.316988738386932
          ],
          [
            48.832698685956544,
            12.302545971677809
          ],
          [
            48.71370242857837,
            12.288051403118065
          ],
          [
            48.59471922395493,
            12.273505101135896
          ],
          [
            48.47574910112215,
            12.258907134376033
          ],
          [
            48.35679208887572,
            12.244257571699142
          ],
          [
            48.237848215770704,
            12.22955648218126
          ],
          [
            48.118917510121214,
            12.214803935113208
          ],
          [
            48.0,
            12.2
          ],
          [
            47.77793385502153,
            12.219907456401838
          ],
          [
            47.55583465092082,
            12.23963566381199
          ],
          [
            47.33370262755305,
            12.259184298092663
          ],
          [
            47.111538026903034,
            12.278553037881734
          ],
          [
            46.88934109307129,
            12.297741564602466
          ],
          [
            46.667112072259904,
            12.316749562473204
          ],
          [
            46.444851212758316,
            12.335576718516975
          ],
          [
            46.22255876492875,
            12.354222722571038
          ],
          [
            46.000234981191674,
            12.372687267296389
          ],
          [
            45.77788011601094,
            12.390970048187171
          ],
          [
            45.55549442587881,
            12.40907076358005
          ],
          [
            45.33307816930082,
            12.4269891146635
          ],
          [
            45.11063160678042,
            12.444724805487041
          ],
          [
            44.888155000803536,
            12.462277542970403
          ],
          [
            44.665648615822846,
            12.479647036912619
          ],
          [
            44.443112718242,
            12.496833000001047
          ],
          [
            44.220547576399596,
            12.513835147820343
          ],
          [
            43.99795346055301,
            12.530653198861332
          ],
          [
            43.77533064286212,
            12.547286874529833
          ],
          [
            43.552679397372735,
            12.563735899155402
          ],
          [
            43.33,
            12.58
          ],
          [
            42.69999999999999,
            14.600000000000001
          ],
          [
            41.8,
            15.5
          ],
          [
            41.63024450089503,
            15.738211577015514
          ],
          [
            41.460093339183345,
            15.976285526866784
          ],
          [
            41.28953949515673,
            16.214219362974095
          ],
          [
            41.118575903763144,
            16.45201058025109
          ],
          [
            40.947195453811446,
            16.689656654729664
          ],
          [
            40.775390987171505,
            16.92715504318025
          ],
          [
            40.60315529797049,
            17.16450318272747
          ],
          [
            40.43048113178503,
            17.40169849046098
          ],
          [
            40.257361184828994,
            17.638738363041497
          ],
          [
            40.08378810313758,
            17.875620176301865
          ],
          [
            39.90975448174714,
            18.112341284843062
          ],
          [
            39.73525286387115,
            18.34889902162516
          ],
          [
            39.56027574007231,
            18.58529069755296
          ],
          [
            39.384815547430605,
            18.821513601056438
          ],
          [
            39.208864668707804,
            19.057564997665665
          ],
          [
            39.03241543150807,
            19.293442129580328
          ],
          [
            38.855460107435135,
            19.529142215233644
          ],
          [
            38.677990911245786,
            19.764662448850512
          ],
          [
            38.5,
            20.0
          ],
          [
            38.52600000000001,
            20.0563125
          ],
          [
            38.52600000000001,
            20.118625
          ],
          [
            38.52600000000001,
            20.1809375
          ],
          [
            38.52600000000001,
            20.24325
          ],
          [
            38.52600000000001,
            20.3055625
          ],
          [
            38.52600000000001,
            20.367874999999998
          ],
          [
            38.52600000000001,
            20.4301875
          ],
          [
            38.52600000000001,
            20.4925
          ],
          [
            38.52600000000001,
            20.5548125
          ],
          [
            38.52600000000001,
            20.617125
          ],
          [
            38.52600000000001,
            20.6794375
          ],
          [
            38.52600000000001,
            20.74175
          ],
          [
            38.52600000000001,
            20.8040625
          ],
          [
            38.52600000000001,
            20.866374999999998
          ],
          [
            38.52600000000001,
            20.9286875
          ],
          [
            38.52600000000001,
            20.991
          ],
          [
            38.52600000000001,
            21.0533125
          ],
          [
            38.52600000000001,
            21.115625
          ],
          [
            38.52600000000001,
            21.1779375
          ],
          [
            38.52600000000001,
            21.24025
          ],
          [
            38.52600000000001,
            21.3025625
          ],
          [
            38.52600000000001,
            21.364874999999998
          ],
          [
            38.52600000000001,
            21.4271875
          ],
          [
            38.52600000000001,
            21.4895
          ],
          [
            38.52600000000001,
            21.5518125
          ],
          [
            38.52600000000001,
            21.614125
          ],
          [
            38.52600000000001,
            21.6764375
          ],
          [
            38.52600000000001,
            21.73875
          ],
          [
            38.52600000000001,
            21.8010625
          ],
          [
            38.52600000000001,
            21.863374999999998
          ],
          [
            38.52600000000001,
            21.9256875
          ],
          [
            38.52600000000001,
            21.988
          ],
          [
            38.52600000000001,
            22.0503125
          ],
          [
            38.52600000000001,
            22.112625
          ],
          [
            38.52600000000001,
            22.1749375
          ],
          [
            38.52600000000001,
            22.23725
          ],
          [
            38.52600000000001,
            22.2995625
          ],
          [
            38.52600000000001,
            22.361874999999998
          ],
          [
            38.52600000000001,
            22.4241875
          ],
          [
            38.52600000000001,
            22.4865
          ],
          [
            38.52600000000001,
            22.5488125
          ],
          [
            38.52600000000001,
            22.611125
          ],
          [
            38.52600000000001,
            22.6734375
          ],
          [
            38.52600000000001,
            22.73575
          ],
          [
            38.52600000000001,
            22.7980625
          ],
          [
            38.52600000000001,
            22.860374999999998
          ],
          [
            38.52600000000001,
            22.9226875
          ],
          [
            38.52600000000001,
            22.985
          ],
          [
            38.52600000000001,
            23.0473125
          ],
          [
            38.52600000000001,
            23.109625
          ],
          [
            38.46368749999999,
            23.1719375
          ],
          [
            38.401375,
            23.23425
          ],
          [
            38.33906250000001,
            23.2965625
          ],
          [
            38.27674999999999,
            23.358874999999998
          ],
          [
            38.2144375,
            23.4211875
          ],
          [
            38.15212500000001,
            23.4835
          ],
          [
            38.089812499999994,
            23.5458125
          ],
          [
            38.0275,
            23.608125
          ],
          [
            37.96518750000001,
            23.6704375
          ],
          [
            37.902874999999995,
            23.73275
          ],
          [
            37.840562500000004,
            23.7950625
          ],
          [
            37.778250000000014,
            23.857374999999998
          ],
          [
            37.715937499999995,
            23.9196875
          ],
          [
            37.653625000000005,
            23.982
          ],
          [
            37.59131249999999,
            24.0443125
          ],
          [
            37.528999999999996,
            24.106625
          ],
          [
            37.466687500000006,
            24.1689375
          ],
          [
            37.40437499999999,
            24.23125
          ],
          [
            37.3420625,
            24.2935625
          ],
          [
            37.27974999999998,
            24.355874999999997
          ],
          [
            37.21743749999999,
            24.4181875
          ],
          [
            37.155125,
            24.4805
          ],
          [
            37.09281249999998,
            24.5428125
          ],
          [
            37.03049999999999,
            24.605125
          ],
          [
            36.9681875,
            24.6674375
          ],
          [
            36.90587499999998,
            24.72975
          ],
          [
            36.84356249999999,
            24.7920625
          ],
          [
            36.78125,
            24.854374999999997
          ],
          [
            36.71893749999998,
            24.9166875
          ],
          [
            36.65662499999999,
            24.979
          ],
          [
            36.5943125,
            25.0413125
          ],
          [
            36.53199999999998,
            25.103625
          ],
          [
            36.46968749999999,
            25.1659375
          ],
          [
            36.407375,
            25.22825
          ],
          [
            36.34506249999998,
            25.2905625
          ],
          [
            36.28274999999999,
            25.352874999999997
          ],
          [
            36.2204375,
            25.4151875
          ],
          [
            36.158124999999984,
            25.4775
          ],
          [
            36.095812499999994,
            25.5398125
          ],
          [
            36.033500000000004,
            25.602125
          ],
          [
            35.971187499999985,
            25.6644375
          ],
          [
            35.908874999999995,
            25.72675
          ],
          [
            35.846562500000005,
            25.7890625
          ],
          [
            35.784249999999986,
            25.851374999999997
          ],
          [
            35.721937499999996,
            25.913687499999998
          ],
          [
            35.659625000000005,
            25.976
          ],
          [
            35.59731249999999,
            26.0383125
          ],
          [
            35.535,
            26.100625
          ],
          [
            35.472687500000006,
            26.162937499999998
          ],
          [
            35.41037499999999,
            26.22525
          ],
          [
            35.3480625,
            26.2875625
          ],
          [
            35.28575000000001,
            26.349874999999997
          ],
          [
            35.22343749999999,
            26.412187499999998
          ],
          [
            35.161125,
            26.4745
          ],
          [
            35.09881250000001,
            26.5368125
          ],
          [
            35.03649999999999,
            26.599125
          ],
          [
            34.9741875,
            26.661437499999998
          ],
          [
            34.91187500000001,
            26.72375
          ],
          [
            34.84956249999999,
            26.7860625
          ],
          [
            34.78725,
            26.848374999999997
          ],
          [
            34.72493750000001,
            26.910687499999998
          ],
          [
            34.66262499999999,
            26.973
          ],
          [
            34.6003125,
            27.0353125
          ],
          [
            34.53800000000001,
            27.097625
          ],
          [
            34.47568749999999,
            27.159937499999998
          ],
          [
            34.413375,
            27.22225
          ],
          [
            34.35106250000001,
            27.2845625
          ],
          [
            34.28874999999999,
            27.346874999999997
          ],
          [
            34.2264375,
            27.409187499999998
          ],
          [
            34.16412500000001,
            27.4715
          ],
          [
            34.101812499999994,
            27.5338125
          ],
          [
            34.039500000000004,
            27.596125
          ],
          [
            33.977187500000014,
            27.658437499999998
          ],
          [
            33.914874999999995,
            27.72075
          ],
          [
            33.852562500000005,
            27.7830625
          ],
          [
            33.790250000000015,
            27.845374999999997
          ],
          [
            33.727937499999996,
            27.907687499999998
          ],
          [
            33.665625000000006,
            27.97
          ],
          [
            33.60331249999999,
            28.0323125
          ],
          [
            33.541,
            28.094625
          ],
          [
            33.47868750000001,
            28.156937499999998
          ],
          [
            33.41637499999999,
            28.21925
          ],
          [
            33.3540625,
            28.2815625
          ],
          [
            33.29174999999998,
            28.343874999999997
          ],
          [
            33.22943749999999,
            28.406187499999998
          ],
          [
            33.22943749999999,
            28.4685
          ],
          [
            33.167125,
            28.5308125
          ],
          [
            33.10481249999998,
            28.593125
          ],
          [
            33.10481249999998,
            28.655437499999998
          ],
          [
            33.10481249999998,
            28.71775
          ],
          [
            33.10481249999998,
            28.7800625
          ],
          [
            33.04249999999999,
            28.842374999999997
          ],
          [
            33.04249999999999,
            28.904687499999998
          ],
          [
            33.04249999999999,
            28.967
          ],
          [
            32.9801875,
            29.0293125
          ],
          [
            32.91787499999998,
            29.091625
          ],
          [
            32.85556249999999,
            29.153937499999998
          ],
          [
            32.79325,
            29.21625
          ],
          [
            32.73093749999998,
            29.2785625
          ],
          [
            32.73093749999998,
            29.340874999999997
          ],
          [
            32.66862499999999,
            29.403187499999998
          ],
          [
            32.6063125,
            29.4655
          ],
          [
            32.6063125,
            29.5278125
          ],
          [
            32.6063125,
            29.590125
          ],
          [
            32.54399999999998,
            29.652437499999998
          ],
          [
            32.54399999999998,
            29.71475
          ],
          [
            32.54399999999998,
            29.7770625
          ],
          [
            32.54399999999998,
            29.839374999999997
          ],
          [
            32.54399999999998,
            29.901687499999998
          ],
          [
            32.55,
            29.97
          ],
          [
            32.538714057449425,
            30.031444281241935
          ],
          [
            32.52741418362964,
            30.0928870188616
          ],
          [
            32.51610032704373,
            30.154328208587025
          ],
          [
            32.504772436006235,
            30.215767846135837
          ],
          [
            32.49343045864216,
            30.277205927215203
          ],
          [
            32.48207434288597,
            30.338642447521714
          ],
          [
            32.4707040364806,
            30.400077402741367
          ],
          [
            32.45931948697639,
            30.46151078854949
          ],
          [
            32.44792064173013,
            30.522942600610616
          ],
          [
            32.436507447904006,
            30.584372834578513
          ],
          [
            32.42507985246454,
            30.645801486096023
          ],
          [
            32.41363780218162,
            30.707228550795048
          ],
          [
            32.40218124362738,
            30.76865402429643
          ],
          [
            32.39071012317522,
            30.830077902209954
          ],
          [
            32.37922438699867,
            30.8915001801342
          ],
          [
            32.36772398107043,
            30.95292085365653
          ],
          [
            32.3562088511612,
            31.01433991835295
          ],
          [
            32.34467894283868,
            31.07575736978811
          ],
          [
            32.33313420146643,
            31.13717320351519
          ],
          [
            32.32157457220284,
            31.198587415075806
          ],
          [
            32.31,
            31.26
          ],
          [
            32.29539397109889,
            31.309544605020577
          ],
          [
            32.280772645543415,
            31.359087164348654
          ],
          [
            32.2661359780157,
            31.408627672701737
          ],
          [
            32.25148392306232,
            31.45816612478346
          ],
          [
            32.236816435093786,
            31.507702515283498
          ],
          [
            32.22213346838391,
            31.55723683887759
          ],
          [
            32.20743497706927,
            31.60676909022741
          ],
          [
            32.19272091514861,
            31.656299263980465
          ],
          [
            32.177991236482285,
            31.705827354770175
          ],
          [
            32.16324589479166,
            31.755353357215608
          ],
          [
            32.1484848436585,
            31.804877265921593
          ],
          [
            32.13370803652445,
            31.854399075478543
          ],
          [
            32.11891542669037,
            31.903918780462448
          ],
          [
            32.10410696731579,
            31.95343637543475
          ],
          [
            32.08928261141829,
            32.00295185494235
          ],
          [
            32.07444231187291,
            32.05246521351747
          ],
          [
            32.05958602141154,
            32.10197644567762
          ],
          [
            32.04471369262233,
            32.151485545925546
          ],
          [
            32.02982527794906,
            32.2009925087491
          ],
          [
            32.01492072969054,
            32.250497328621265
          ],
          [
            32.0,
            32.3
          ],
          [
            31.672907764172948,
            32.38975162096022
          ],
          [
            31.345171003594327,
            32.47865158446073
          ],
          [
            31.01679242360325,
            32.56669533281475
          ],
          [
            30.687774843000497,
            32.653878326640466
          ],
          [
            30.358121194626943,
            32.74019604563971
          ],
          [
            30.027834525910954,
            32.825643989383636
          ],
          [
            29.69691799938381,
            32.910217678105084
          ],
          [
            29.365374893162254,
            32.99391265349746
          ],
          [
            29.03320860139722,
            33.07672447951987
          ],
          [
            28.70042263468802,
            33.158648743208104
          ],
          [
            28.367020620460845,
            33.23968105549155
          ],
          [
            28.03300630331104,
            33.319817052015395
          ],
          [
            27.698383545307923,
            33.399052393967985
          ],
          [
            27.363156326261702,
            33.47738276891314
          ],
          [
            27.027328743951244,
            33.55480389162693
          ],
          [
            26.690905014312236,
            33.631311504938836
          ],
          [
            26.353889471584687,
            33.70690138057668
          ],
          [
            26.016286568419098,
            33.78156932001532
          ],
          [
            25.678100875940483,
            33.85531115532852
          ],
          [
            25.33933708376952,
            33.92812275004383
          ],
          [
            25.0,
            34.0
          ],
          [
            24.48598119890618,
            34.093687546817655
          ],
          [
            23.970841608593933,
            34.1852184657059
          ],
          [
            23.454601248895827,
            34.274580769284725
          ],
          [
            22.937280685767952,
            34.36176268327003
          ],
          [
            22.418901026144518,
            34.446752652580145
          ],
          [
            21.899483912249455,
            34.529539347401716
          ],
          [
            21.37905151536171,
            34.61011166920775
          ],
          [
            20.857626529031613,
            34.6884587567209
          ],
          [
            20.33523216174701,
            34.76456999181432
          ],
          [
            19.81189212904824,
            34.838435005343285
          ],
          [
            19.287630645092804,
            34.91004368289987
          ],
          [
            18.762472413670906,
            34.97938617048357
          ],
          [
            18.236442618674552,
            35.046452880080516
          ],
          [
            17.709566914023757,
            35.111234495143805
          ],
          [
            17.18187141305451,
            35.17372197596784
          ],
          [
            16.653382677374303,
            35.23390656494932
          ],
          [
            16.124127705192024,
            35.29177979172782
          ],
          [
            15.59413391913028,
            35.347333478198614
          ],
          [
            15.063429153529066,
            35.40055974339097
          ],
          [
            14.532041641251107,
            35.45145100820498
          ],
          [
            14.0,
            35.5
          ],
          [
            13.862361742745243,
            35.6445632140599
          ],
          [
            13.724227007299032,
            35.7889651078679
          ],
          [
            13.585591896208555,
            35.93320427320598
          ],
          [
            13.446452486861652,
            36.07727928939722
          ],
          [
            13.306804831381005,
            36.22118872317399
          ],
          [
            13.1666449565212,
            36.36493112854482
          ],
          [
            13.025968863568666,
            36.50850504666018
          ],
          [
            12.884772528244614,
            36.651909005677254
          ],
          [
            12.743051900611157,
            36.795141520623304
          ],
          [
            12.600802904980696,
            36.938201093258236
          ],
          [
            12.458021439828759,
            37.08108621193573
          ],
          [
            12.314703377710307,
            37.22379535146339
          ],
          [
            12.1708445651798,
            37.36632697296179
          ],
          [
            12.026440822715129,
            37.50867952372222
          ],
          [
            11.881487944645418,
            37.650851437063494
          ],
          [
            11.735981699083075,
            37.79284113218749
          ],
          [
            11.589917827860095,
            37.93464701403366
          ],
          [
            11.443292046468798,
            38.076267473132354
          ],
          [
            11.296100044007238,
            38.21770088545709
          ],
          [
            11.14833748312933,
            38.3589456122756
          ],
          [
            11.0,
            38.5
          ],
          [
            10.933271847972756,
            38.729083838371956
          ],
          [
            10.86611618645252,
            38.95812034804485
          ],
          [
            10.798526808918359,
            39.18710895532965
          ],
          [
            10.730497404125142,
            39.41604907754029
          ],
          [
            10.66202155379636,
            39.64494012277786
          ],
          [
            10.593092730257908,
            39.87378148970903
          ],
          [
            10.523704294011145,
            40.10257256733848
          ],
          [
            10.453849491243396,
            40.331312734775295
          ],
          [
            10.383521451273996,
            40.56000136099318
          ],
          [
            10.312713183934017,
            40.788637804584006
          ],
          [
            10.241417576877604,
            41.01722141350476
          ],
          [
            10.169627392822917,
            41.24575152481767
          ],
          [
            10.09733526672051,
            41.47422746442319
          ],
          [
            10.024533702846952,
            41.70264854678557
          ],
          [
            9.951215071821418,
            41.93101407465105
          ],
          [
            9.87737160754288,
            42.159323338758114
          ],
          [
            9.802995404045477,
            42.387575617539746
          ],
          [
            9.728078412269504,
            42.61577017681739
          ],
          [
            9.652612436745464,
            42.84390626948646
          ],
          [
            9.576589132188435,
            43.07198313519275
          ],
          [
            9.5,
            43.3
          ],
          [
            9.473331412815677,
            43.35292578699285
          ],
          [
            9.446616438557031,
            43.40584485323517
          ],
          [
            9.419854916048841,
            43.458757176474855
          ],
          [
            9.393046683455633,
            43.51166273436569
          ],
          [
            9.366191578278356,
            43.564561504466845
          ],
          [
            9.33928943735103,
            43.61745346424236
          ],
          [
            9.312340096837374,
            43.670338591060606
          ],
          [
            9.285343392227395,
            43.723216862193766
          ],
          [
            9.258299158334,
            43.77608825481726
          ],
          [
            9.231207229289549,
            43.8289527460093
          ],
          [
            9.204067438542404,
            43.88181031275021
          ],
          [
            9.17687961885347,
            43.93466093192203
          ],
          [
            9.149643602292686,
            43.9875045803079
          ],
          [
            9.122359220235538,
            44.040341234591466
          ],
          [
            9.095026303359509,
            44.09317087135642
          ],
          [
            9.06764468164054,
            44.14599346708588
          ],
          [
            9.040214184349455,
            44.19880899816185
          ],
          [
            9.012734640048388,
            44.251617440864656
          ],
          [
            8.985205876587141,
            44.30441877137235
          ],
          [
            8.957627721099591,
            44.35721296576017
          ],
          [
            8.93,
            44.41
          ]
        ]
      }
    },
    {
      "type": "Feature",
      "bbox": [
        8.93,
        44.41,
        11.58,
        48.14
      ],
      "properties": {
        "route_id": "SHA-GOA-MUC",
        "leg_index": 1,
        "from": "ITGOA",
        "to": "DEMUC",
        "mode": "rail",
        "duration_days": 3,
        "distance_km": 462.1,
        "waypoints": [
          {
            "id": "ITGOA",
            "name": "Genoa",
            "lon": 8.93,
            "lat": 44.41,
            "source": "masterdata",
            "ref": "locations.jsonl:ITGOA"
          },
          {
            "id": "DEMUC",
            "name": "Munich",
            "lon": 11.58,
            "lat": 48.14,
            "source": "masterdata",
            "ref": "locations.jsonl:DEMUC"
          }
        ]
      },
      "geometry": {
        "type": "LineString",
        "coordinates": [
          [
            8.93,
            44.41
          ],
          [
            11.58,
            48.14
          ]
        ]
      }
    }
  ]
}
