{
  "type": "FeatureCollection",
  "bbox": [
    -74.01,
    40.45,
    4.4,
    51.5
  ],
  "metadata": {
    "route_id": "TAT-ANR",
    "lane": "DEHAM-USNYC",
    "contracted": false,
    "total_distance_km": 6095.5,
    "total_duration_days": 9,
    "leg_count": 1
  },
  "features": [
    {
      "type": "Feature",
      "bbox": [
        -74.01,
        40.45,
        4.4,
        51.5
      ],
      "properties": {
        "route_id": "TAT-ANR",
        "leg_index": 0,
        "from": "BEANR",
        "to": "USNYC",
        "mode": "ocean",
        "duration_days": 9,
        "distance_km": 6095.5,
        "waypoints": [
          {
            "id": "BEANR",
            "name": "Antwerp",
            "lon": 4.4,
            "lat": 51.26,
            "source": "masterdata",
            "ref": "locations.jsonl:BEANR"
          },
          {
            "id": "BEANR_MOUTH",
            "name": "Scheldt mouth, North Sea",
            "lon": 2.8,
            "lat": 51.5,
            "source": "naturalearth",
            "ref": "data/vendor/naturalearth/10m-physical/ne_10m_land"
          },
          {
            "id": "USNYC_MOUTH",
            "name": "Ambrose Channel approach, open Atlantic",
            "lon": -73.83,
            "lat": 40.45,
            "source": "naturalearth",
            "ref": "data/vendor/naturalearth/10m-physical/ne_10m_land"
          },
          {
            "id": "USNYC",
            "name": "New York",
            "lon": -74.01,
            "lat": 40.71,
            "source": "masterdata",
            "ref": "locations.jsonl:USNYC"
          }
        ]
      },
      "geometry": {
        "type": "LineString",
        "coordinates": [
          [
            4.4,
            51.26
          ],
          [
            4.324193107804273,
            51.27192274703201
          ],
          [
            4.248347049170883,
            51.28379636301116
          ],
          [
            4.1724619491627815,
            51.295620802082375
          ],
          [
            4.096537933406025,
            51.30739601852499
          ],
          [
            4.020575128089083,
            51.31912196675367
          ],
          [
            3.9445736599620402,
            51.33079860131907
          ],
          [
            3.86853365633584,
            51.342425876908656
          ],
          [
            3.792455245081488,
            51.354003748347516
          ],
          [
            3.7163385546292558,
            51.36553217059911
          ],
          [
            3.6401837139678177,
            51.377011098766054
          ],
          [
            3.563990852643442,
            51.388440488090914
          ],
          [
            3.4877601007590995,
            51.399820293956985
          ],
          [
            3.4114915889736017,
            51.41115047188899
          ],
          [
            3.335185448500689,
            51.422430977554
          ],
          [
            3.258841811108108,
            51.433661766762114
          ],
          [
            3.182460809116699,
            51.44484279546723
          ],
          [
            3.106042575399404,
            51.45597401976787
          ],
          [
            3.029587243380348,
            51.467055395907906
          ],
          [
            2.953094947033789,
            51.478086880277374
          ],
          [
            2.876565820883154,
            51.4890684294132
          ],
          [
            2.8,
            51.5
          ],
          [
            -0.07362499999999272,
            50.423437500000006
          ],
          [
            -4.8629999999999995,
            49.944500000000005
          ],
          [
            -5.3419375,
            49.944500000000005
          ],
          [
            -27.852000000000004,
            49.944500000000005
          ],
          [
            -54.6725,
            46.113
          ],
          [
            -70.47743750000001,
            40.844687500000006
          ],
          [
            -73.83,
            40.45
          ],
          [
            -73.83853989878823,
            40.46238756234657
          ],
          [
            -73.84708293551716,
            40.47477446691239
          ],
          [
            -73.8556291125525,
            40.48716071319176
          ],
          [
            -73.86417843226182,
            40.49954630067852
          ],
          [
            -73.87273089701465,
            40.51193122886605
          ],
          [
            -73.88128650918242,
            40.52431549724727
          ],
          [
            -73.88984527113854,
            40.53669910531469
          ],
          [
            -73.89840718525829,
            40.549082052560294
          ],
          [
            -73.90697225391894,
            40.56146433847564
          ],
          [
            -73.91554047949965,
            40.57384596255184
          ],
          [
            -73.92411186438154,
            40.586226924279515
          ],
          [
            -73.93268641094768,
            40.59860722314887
          ],
          [
            -73.94126412158306,
            40.61098685864961
          ],
          [
            -73.9498449986746,
            40.623365830271005
          ],
          [
            -73.95842904461121,
            40.635744137501845
          ],
          [
            -73.96701626178371,
            40.64812177983048
          ],
          [
            -73.97560665258487,
            40.660498756744786
          ],
          [
            -73.98420021940943,
            40.672875067732164
          ],
          [
            -73.99279696465406,
            40.68525071227958
          ],
          [
            -74.00139689071739,
            40.69762568987352
          ],
          [
            -74.01,
            40.71
          ]
        ]
      }
    }
  ]
}
