{
  "type": "FeatureCollection",
  "bbox": [
    -74.01,
    40.39325,
    9.99,
    54.5385
  ],
  "metadata": {
    "route_id": "TAT-NYC",
    "lane": "DEHAM-USNYC",
    "contracted": false,
    "total_distance_km": 7063.8,
    "total_duration_days": 9,
    "leg_count": 1
  },
  "features": [
    {
      "type": "Feature",
      "bbox": [
        -74.01,
        40.39325,
        9.99,
        54.5385
      ],
      "properties": {
        "route_id": "TAT-NYC",
        "leg_index": 0,
        "from": "DEHAM",
        "to": "USNYC",
        "mode": "ocean",
        "duration_days": 9,
        "distance_km": 7063.8,
        "waypoints": [
          {
            "id": "DEHAM",
            "name": "Hamburg",
            "lon": 9.99,
            "lat": 53.55,
            "source": "masterdata",
            "ref": "locations.jsonl:DEHAM"
          },
          {
            "id": "DEHAM_MOUTH",
            "name": "Elbe mouth, German Bight",
            "lon": 7.0,
            "lat": 54.3,
            "source": "naturalearth",
            "ref": "data/vendor/naturalearth/10m-physical/ne_10m_land"
          },
          {
            "id": "USNYC_MOUTH",
            "name": "Ambrose Channel approach, open Atlantic",
            "lon": -73.83,
            "lat": 40.45,
            "source": "naturalearth",
            "ref": "data/vendor/naturalearth/10m-physical/ne_10m_land"
          },
          {
            "id": "USNYC",
            "name": "New York",
            "lon": -74.01,
            "lat": 40.71,
            "source": "masterdata",
            "ref": "locations.jsonl:USNYC"
          }
        ]
      },
      "geometry": {
        "type": "LineString",
        "coordinates": [
          [
            9.99,
            53.55
          ],
          [
            9.850062687300019,
            53.58738821348269
          ],
          [
            9.709878685328821,
            53.62461224754064
          ],
          [
            9.569448313185317,
            53.6616715935701
          ],
          [
            9.428771900440777,
            53.69856574315788
          ],
          [
            9.287849787201074,
            53.73529418810534
          ],
          [
            9.146682324168406,
            53.771856420452515
          ],
          [
            9.00526987270242,
            53.80825193250252
          ],
          [
            8.86361280488074,
            53.84448021684606
          ],
          [
            8.721711503558971,
            53.88054076638626
          ],
          [
            8.579566362430024,
            53.916433074363596
          ],
          [
            8.437177786082827,
            53.95215663438107
          ],
          [
            8.294546190060354,
            53.9877109404296
          ],
          [
            8.151672000917111,
            54.023095486913526
          ],
          [
            8.00855565627575,
            54.05830976867644
          ],
          [
            7.865197604883143,
            54.09335328102707
          ],
          [
            7.721598306665635,
            54.12822551976545
          ],
          [
            7.5777582327836175,
            54.16292598120927
          ],
          [
            7.433677865685309,
            54.19745416222035
          ],
          [
            7.289357699159768,
            54.23180956023139
          ],
          [
            7.144798238389134,
            54.265991673272836
          ],
          [
            7.0,
            54.3
          ],
          [
            6.494812500000023,
            54.5385
          ],
          [
            5.9896249999999895,
            54.5385
          ],
          [
            5.484437500000013,
            54.5385
          ],
          [
            4.9792500000000075,
            54.5385
          ],
          [
            4.474062500000002,
            54.0333125
          ],
          [
            3.9688750000000255,
            53.528125
          ],
          [
            3.463687499999992,
            53.022937500000005
          ],
          [
            2.958500000000015,
            52.51775000000001
          ],
          [
            2.4533125000000098,
            52.0125625
          ],
          [
            1.9481250000000045,
            51.507375
          ],
          [
            1.4429374999999993,
            51.002187500000005
          ],
          [
            0.9377499999999941,
            50.497
          ],
          [
            0.4325625000000173,
            50.497
          ],
          [
            -0.07262499999998795,
            50.497
          ],
          [
            -0.5778124999999932,
            50.497
          ],
          [
            -1.0829999999999984,
            50.497
          ],
          [
            -1.5881875000000036,
            50.497
          ],
          [
            -2.0933749999999804,
            50.497
          ],
          [
            -2.598562500000014,
            50.497
          ],
          [
            -3.103749999999991,
            50.497
          ],
          [
            -3.608937499999996,
            49.9918125
          ],
          [
            -4.114125000000001,
            49.9918125
          ],
          [
            -4.619312499999978,
            49.9918125
          ],
          [
            -5.124500000000012,
            50.497
          ],
          [
            -5.629687499999989,
            50.497
          ],
          [
            -6.134874999999994,
            50.497
          ],
          [
            -6.640062499999999,
            50.497
          ],
          [
            -7.145249999999976,
            50.497
          ],
          [
            -7.6504375000000095,
            50.497
          ],
          [
            -8.155624999999986,
            50.497
          ],
          [
            -8.660812499999992,
            50.497
          ],
          [
            -9.165999999999997,
            50.497
          ],
          [
            -9.671187499999974,
            50.497
          ],
          [
            -10.176375000000007,
            50.497
          ],
          [
            -10.681562499999984,
            50.497
          ],
          [
            -11.18674999999999,
            50.497
          ],
          [
            -11.691937499999995,
            50.497
          ],
          [
            -12.197125,
            50.497
          ],
          [
            -12.702312500000005,
            50.497
          ],
          [
            -13.207499999999982,
            50.497
          ],
          [
            -13.712687500000015,
            50.497
          ],
          [
            -14.217874999999992,
            50.497
          ],
          [
            -14.723062499999997,
            50.497
          ],
          [
            -15.228250000000003,
            50.497
          ],
          [
            -15.73343749999998,
            50.497
          ],
          [
            -16.238625000000013,
            50.497
          ],
          [
            -16.74381249999999,
            50.497
          ],
          [
            -17.248999999999995,
            50.497
          ],
          [
            -17.7541875,
            50.497
          ],
          [
            -18.259374999999977,
            50.497
          ],
          [
            -18.76456250000001,
            50.497
          ],
          [
            -19.269749999999988,
            50.497
          ],
          [
            -19.774937499999993,
            50.497
          ],
          [
            -20.280124999999998,
            50.497
          ],
          [
            -20.785312499999975,
            50.497
          ],
          [
            -21.29050000000001,
            50.497
          ],
          [
            -21.795687499999985,
            50.497
          ],
          [
            -22.30087499999999,
            50.497
          ],
          [
            -22.806062499999996,
            50.497
          ],
          [
            -23.31125,
            50.497
          ],
          [
            -23.816437500000006,
            50.497
          ],
          [
            -24.321624999999983,
            50.497
          ],
          [
            -24.82681249999999,
            50.497
          ],
          [
            -25.331999999999994,
            50.497
          ],
          [
            -25.8371875,
            50.497
          ],
          [
            -26.342375000000004,
            50.497
          ],
          [
            -26.84756249999998,
            50.497
          ],
          [
            -27.352749999999986,
            50.497
          ],
          [
            -27.85793749999999,
            50.497
          ],
          [
            -28.363124999999997,
            50.497
          ],
          [
            -28.868312500000002,
            50.497
          ],
          [
            -29.37349999999998,
            50.497
          ],
          [
            -29.878687500000012,
            50.497
          ],
          [
            -30.38387499999999,
            50.497
          ],
          [
            -30.889062499999994,
            50.497
          ],
          [
            -31.39425,
            50.497
          ],
          [
            -31.899437500000005,
            50.497
          ],
          [
            -32.40462500000001,
            50.497
          ],
          [
            -32.90981249999999,
            50.497
          ],
          [
            -33.41499999999999,
            50.497
          ],
          [
            -33.9201875,
            50.497
          ],
          [
            -34.425375,
            50.497
          ],
          [
            -34.93056250000001,
            50.497
          ],
          [
            -35.435749999999985,
            50.497
          ],
          [
            -35.94093749999999,
            50.497
          ],
          [
            -36.446124999999995,
            50.497
          ],
          [
            -36.9513125,
            50.497
          ],
          [
            -37.456500000000005,
            50.497
          ],
          [
            -37.96168749999998,
            50.497
          ],
          [
            -38.46687499999999,
            50.497
          ],
          [
            -38.97206249999999,
            50.497
          ],
          [
            -39.47725,
            50.497
          ],
          [
            -39.9824375,
            50.497
          ],
          [
            -40.48762499999998,
            50.497
          ],
          [
            -40.992812499999985,
            50.497
          ],
          [
            -41.49799999999999,
            50.497
          ],
          [
            -42.003187499999996,
            50.497
          ],
          [
            -42.508375,
            50.497
          ],
          [
            -43.01356249999998,
            50.497
          ],
          [
            -43.51875000000001,
            50.497
          ],
          [
            -44.02393749999999,
            50.497
          ],
          [
            -44.52912499999999,
            50.497
          ],
          [
            -45.0343125,
            50.497
          ],
          [
            -45.539500000000004,
            50.497
          ],
          [
            -46.04468750000001,
            50.497
          ],
          [
            -46.549874999999986,
            50.497
          ],
          [
            -47.05506249999999,
            50.497
          ],
          [
            -47.560249999999996,
            50.497
          ],
          [
            -48.0654375,
            50.497
          ],
          [
            -48.57062500000001,
            50.497
          ],
          [
            -49.075812499999984,
            50.497
          ],
          [
            -49.58099999999999,
            49.9918125
          ],
          [
            -50.086187499999994,
            49.486625000000004
          ],
          [
            -50.591375,
            48.9814375
          ],
          [
            -51.096562500000005,
            48.47625
          ],
          [
            -51.60174999999998,
            47.9710625
          ],
          [
            -52.10693749999999,
            47.465875000000004
          ],
          [
            -52.61212499999999,
            46.960687500000006
          ],
          [
            -53.1173125,
            46.4555
          ],
          [
            -53.6225,
            46.4555
          ],
          [
            -54.12768749999999,
            46.4555
          ],
          [
            -54.632875,
            46.4555
          ],
          [
            -55.13806249999999,
            46.4555
          ],
          [
            -55.643249999999995,
            46.4555
          ],
          [
            -56.1484375,
            46.4555
          ],
          [
            -56.65362499999999,
            46.4555
          ],
          [
            -57.158812499999996,
            46.4555
          ],
          [
            -57.66399999999999,
            46.4555
          ],
          [
            -58.16918749999999,
            46.4555
          ],
          [
            -58.674375,
            46.4555
          ],
          [
            -59.1795625,
            46.4555
          ],
          [
            -59.684749999999994,
            45.9503125
          ],
          [
            -60.1899375,
            45.445125000000004
          ],
          [
            -60.69512499999999,
            45.445125000000004
          ],
          [
            -61.200312499999995,
            45.445125000000004
          ],
          [
            -61.7055,
            44.9399375
          ],
          [
            -62.21068749999999,
            44.43475
          ],
          [
            -62.715875,
            44.43475
          ],
          [
            -63.22106249999999,
            44.43475
          ],
          [
            -63.72624999999999,
            43.9295625
          ],
          [
            -64.2314375,
            43.9295625
          ],
          [
            -64.736625,
            43.424375000000005
          ],
          [
            -65.2418125,
            43.424375000000005
          ],
          [
            -65.747,
            43.424375000000005
          ],
          [
            -66.25218749999999,
            43.424375000000005
          ],
          [
            -66.757375,
            43.424375000000005
          ],
          [
            -67.2625625,
            43.424375000000005
          ],
          [
            -67.76774999999999,
            43.424375000000005
          ],
          [
            -68.2729375,
            43.424375000000005
          ],
          [
            -68.77812499999999,
            42.9191875
          ],
          [
            -69.2833125,
            42.414
          ],
          [
            -69.7885,
            41.9088125
          ],
          [
            -70.29368749999999,
            41.403625000000005
          ],
          [
            -70.798875,
            40.8984375
          ],
          [
            -71.3040625,
            40.8984375
          ],
          [
            -71.80924999999999,
            40.8984375
          ],
          [
            -72.3144375,
            40.39325
          ],
          [
            -72.819625,
            40.39325
          ],
          [
            -73.3248125,
            40.39325
          ],
          [
            -73.83,
            40.45
          ],
          [
            -73.83853989878823,
            40.46238756234657
          ],
          [
            -73.84708293551716,
            40.47477446691239
          ],
          [
            -73.8556291125525,
            40.48716071319176
          ],
          [
            -73.86417843226182,
            40.49954630067852
          ],
          [
            -73.87273089701465,
            40.51193122886605
          ],
          [
            -73.88128650918242,
            40.52431549724727
          ],
          [
            -73.88984527113854,
            40.53669910531469
          ],
          [
            -73.89840718525829,
            40.549082052560294
          ],
          [
            -73.90697225391894,
            40.56146433847564
          ],
          [
            -73.91554047949965,
            40.57384596255184
          ],
          [
            -73.92411186438154,
            40.586226924279515
          ],
          [
            -73.93268641094768,
            40.59860722314887
          ],
          [
            -73.94126412158306,
            40.61098685864961
          ],
          [
            -73.9498449986746,
            40.623365830271005
          ],
          [
            -73.95842904461121,
            40.635744137501845
          ],
          [
            -73.96701626178371,
            40.64812177983048
          ],
          [
            -73.97560665258487,
            40.660498756744786
          ],
          [
            -73.98420021940943,
            40.672875067732164
          ],
          [
            -73.99279696465406,
            40.68525071227958
          ],
          [
            -74.00139689071739,
            40.69762568987352
          ],
          [
            -74.01,
            40.71
          ]
        ]
      }
    }
  ]
}
