{
  "type": "FeatureCollection",
  "bbox": [
    -74.00999999999999,
    40.390750000000004,
    9.99,
    53.55
  ],
  "metadata": {
    "route_id": "TAT-RTM",
    "lane": "DEHAM-USNYC",
    "contracted": false,
    "total_distance_km": 6935.0,
    "total_duration_days": 9,
    "leg_count": 2
  },
  "features": [
    {
      "type": "Feature",
      "bbox": [
        4.14,
        51.95,
        9.99,
        53.55
      ],
      "properties": {
        "route_id": "TAT-RTM",
        "leg_index": 0,
        "from": "DEHAM",
        "to": "NLRTM",
        "mode": "rail",
        "duration_days": 1,
        "distance_km": 433.1,
        "waypoints": [
          {
            "id": "DEHAM",
            "name": "Hamburg",
            "lon": 9.99,
            "lat": 53.55,
            "source": "masterdata",
            "ref": "locations.jsonl:DEHAM"
          },
          {
            "id": "NLRTM",
            "name": "Rotterdam",
            "lon": 4.14,
            "lat": 51.95,
            "source": "masterdata",
            "ref": "locations.jsonl:NLRTM"
          }
        ]
      },
      "geometry": {
        "type": "LineString",
        "coordinates": [
          [
            9.99,
            53.55
          ],
          [
            4.14,
            51.95
          ]
        ]
      }
    },
    {
      "type": "Feature",
      "bbox": [
        -74.01,
        40.390750000000004,
        4.14,
        52.035250000000005
      ],
      "properties": {
        "route_id": "TAT-RTM",
        "leg_index": 1,
        "from": "NLRTM",
        "to": "USNYC",
        "mode": "ocean",
        "duration_days": 8,
        "distance_km": 6501.9,
        "waypoints": [
          {
            "id": "NLRTM",
            "name": "Rotterdam",
            "lon": 4.14,
            "lat": 51.95,
            "source": "masterdata",
            "ref": "locations.jsonl:NLRTM"
          },
          {
            "id": "NLRTM_MOUTH",
            "name": "Nieuwe Waterweg mouth, North Sea",
            "lon": 3.8,
            "lat": 51.95,
            "source": "naturalearth",
            "ref": "data/vendor/naturalearth/10m-physical/ne_10m_land"
          },
          {
            "id": "USNYC_MOUTH",
            "name": "Ambrose Channel approach, open Atlantic",
            "lon": -73.83,
            "lat": 40.45,
            "source": "naturalearth",
            "ref": "data/vendor/naturalearth/10m-physical/ne_10m_land"
          },
          {
            "id": "USNYC",
            "name": "New York",
            "lon": -74.01,
            "lat": 40.71,
            "source": "masterdata",
            "ref": "locations.jsonl:USNYC"
          }
        ]
      },
      "geometry": {
        "type": "LineString",
        "coordinates": [
          [
            4.14,
            51.95
          ],
          [
            4.123809574583153,
            51.950022262263616
          ],
          [
            4.107619133934273,
            51.950042298312155
          ],
          [
            4.091428679656703,
            51.950060108142054
          ],
          [
            4.075238213353794,
            51.950075691750136
          ],
          [
            4.059047736628908,
            51.950089049133645
          ],
          [
            4.0428572510854135,
            51.95010018029019
          ],
          [
            4.026666758326685,
            51.95010908521781
          ],
          [
            4.010476259956103,
            51.95011576391491
          ],
          [
            3.9942857575770505,
            51.9501202163803
          ],
          [
            3.9780952527929148,
            51.95012244261319
          ],
          [
            3.9619047472070847,
            51.95012244261319
          ],
          [
            3.945714242422949,
            51.9501202163803
          ],
          [
            3.929523740043897,
            51.950115763914894
          ],
          [
            3.9133332416733144,
            51.95010908521781
          ],
          [
            3.897142748914586,
            51.95010018029019
          ],
          [
            3.8809522633710913,
            51.950089049133645
          ],
          [
            3.8647617866462056,
            51.950075691750136
          ],
          [
            3.848571320343297,
            51.950060108142054
          ],
          [
            3.8323808660657264,
            51.95004229831216
          ],
          [
            3.8161904254168464,
            51.950022262263616
          ],
          [
            3.8,
            51.95
          ],
          [
            3.3148125000000164,
            52.035250000000005
          ],
          [
            2.8296250000000214,
            52.035250000000005
          ],
          [
            2.3444375000000264,
            52.035250000000005
          ],
          [
            1.859250000000003,
            51.5500625
          ],
          [
            1.374062500000008,
            51.064875
          ],
          [
            0.888875000000013,
            50.579687500000006
          ],
          [
            0.40368749999998954,
            50.579687500000006
          ],
          [
            -0.08150000000000546,
            50.579687500000006
          ],
          [
            -0.5666875000000005,
            50.579687500000006
          ],
          [
            -1.0518749999999955,
            50.579687500000006
          ],
          [
            -1.5370624999999905,
            50.579687500000006
          ],
          [
            -2.0222499999999854,
            50.094500000000004
          ],
          [
            -2.5074374999999804,
            50.094500000000004
          ],
          [
            -2.9926249999999754,
            50.094500000000004
          ],
          [
            -3.477812499999999,
            50.094500000000004
          ],
          [
            -3.962999999999994,
            50.094500000000004
          ],
          [
            -4.448187499999989,
            50.094500000000004
          ],
          [
            -4.933375000000012,
            50.094500000000004
          ],
          [
            -5.418562500000007,
            50.579687500000006
          ],
          [
            -5.903750000000002,
            50.579687500000006
          ],
          [
            -6.388937499999997,
            50.579687500000006
          ],
          [
            -6.874124999999992,
            50.579687500000006
          ],
          [
            -7.359312499999987,
            50.579687500000006
          ],
          [
            -7.844499999999982,
            50.579687500000006
          ],
          [
            -8.329687499999977,
            50.579687500000006
          ],
          [
            -8.814874999999972,
            50.579687500000006
          ],
          [
            -9.300062499999996,
            50.579687500000006
          ],
          [
            -9.78524999999999,
            50.579687500000006
          ],
          [
            -10.270437500000014,
            50.579687500000006
          ],
          [
            -10.755625000000009,
            50.579687500000006
          ],
          [
            -11.240812500000004,
            50.579687500000006
          ],
          [
            -11.725999999999999,
            50.579687500000006
          ],
          [
            -12.211187499999994,
            50.579687500000006
          ],
          [
            -12.696374999999989,
            50.579687500000006
          ],
          [
            -13.181562499999984,
            50.579687500000006
          ],
          [
            -13.666749999999979,
            50.579687500000006
          ],
          [
            -14.151937499999974,
            50.579687500000006
          ],
          [
            -14.637124999999997,
            50.579687500000006
          ],
          [
            -15.122312499999992,
            50.579687500000006
          ],
          [
            -15.607499999999987,
            50.579687500000006
          ],
          [
            -16.09268750000001,
            50.579687500000006
          ],
          [
            -16.577875000000006,
            50.579687500000006
          ],
          [
            -17.0630625,
            50.579687500000006
          ],
          [
            -17.548249999999996,
            50.579687500000006
          ],
          [
            -18.03343749999999,
            50.579687500000006
          ],
          [
            -18.518624999999986,
            50.579687500000006
          ],
          [
            -19.00381249999998,
            50.579687500000006
          ],
          [
            -19.488999999999976,
            50.579687500000006
          ],
          [
            -19.9741875,
            50.579687500000006
          ],
          [
            -20.459374999999994,
            50.579687500000006
          ],
          [
            -20.94456249999999,
            50.579687500000006
          ],
          [
            -21.429750000000013,
            50.579687500000006
          ],
          [
            -21.914937500000008,
            50.579687500000006
          ],
          [
            -22.400125000000003,
            50.579687500000006
          ],
          [
            -22.885312499999998,
            50.579687500000006
          ],
          [
            -23.370499999999993,
            50.579687500000006
          ],
          [
            -23.855687499999988,
            50.579687500000006
          ],
          [
            -24.340874999999983,
            50.579687500000006
          ],
          [
            -24.826062499999978,
            50.579687500000006
          ],
          [
            -25.31125,
            50.579687500000006
          ],
          [
            -25.796437499999996,
            50.579687500000006
          ],
          [
            -26.28162499999999,
            50.579687500000006
          ],
          [
            -26.766812499999986,
            50.579687500000006
          ],
          [
            -27.25200000000001,
            50.579687500000006
          ],
          [
            -27.737187500000005,
            50.579687500000006
          ],
          [
            -28.222375,
            50.579687500000006
          ],
          [
            -28.707562499999995,
            50.579687500000006
          ],
          [
            -29.19274999999999,
            50.579687500000006
          ],
          [
            -29.677937499999985,
            50.579687500000006
          ],
          [
            -30.16312499999998,
            50.579687500000006
          ],
          [
            -30.648312500000003,
            50.579687500000006
          ],
          [
            -31.133499999999998,
            50.579687500000006
          ],
          [
            -31.618687499999993,
            50.579687500000006
          ],
          [
            -32.10387499999999,
            50.579687500000006
          ],
          [
            -32.58906249999998,
            50.579687500000006
          ],
          [
            -33.074250000000006,
            50.579687500000006
          ],
          [
            -33.5594375,
            50.579687500000006
          ],
          [
            -34.044624999999996,
            50.579687500000006
          ],
          [
            -34.52981249999999,
            50.579687500000006
          ],
          [
            -35.014999999999986,
            50.579687500000006
          ],
          [
            -35.50018749999998,
            50.579687500000006
          ],
          [
            -35.985374999999976,
            50.579687500000006
          ],
          [
            -36.4705625,
            50.579687500000006
          ],
          [
            -36.955749999999995,
            50.579687500000006
          ],
          [
            -37.44093749999999,
            50.579687500000006
          ],
          [
            -37.926124999999985,
            50.579687500000006
          ],
          [
            -38.41131250000001,
            50.579687500000006
          ],
          [
            -38.8965,
            50.579687500000006
          ],
          [
            -39.3816875,
            50.579687500000006
          ],
          [
            -39.86687499999999,
            50.579687500000006
          ],
          [
            -40.35206249999999,
            50.579687500000006
          ],
          [
            -40.83724999999998,
            50.579687500000006
          ],
          [
            -41.32243749999998,
            50.579687500000006
          ],
          [
            -41.807625,
            50.579687500000006
          ],
          [
            -42.2928125,
            50.579687500000006
          ],
          [
            -42.77799999999999,
            50.579687500000006
          ],
          [
            -43.26318749999999,
            50.579687500000006
          ],
          [
            -43.74837500000001,
            50.579687500000006
          ],
          [
            -44.233562500000005,
            50.579687500000006
          ],
          [
            -44.71875,
            50.579687500000006
          ],
          [
            -45.203937499999995,
            50.579687500000006
          ],
          [
            -45.68912499999999,
            50.579687500000006
          ],
          [
            -46.174312499999985,
            50.579687500000006
          ],
          [
            -46.65949999999998,
            50.579687500000006
          ],
          [
            -47.144687499999975,
            50.579687500000006
          ],
          [
            -47.629875,
            50.579687500000006
          ],
          [
            -48.11506249999999,
            50.579687500000006
          ],
          [
            -48.60024999999999,
            50.579687500000006
          ],
          [
            -49.08543749999998,
            50.094500000000004
          ],
          [
            -49.57062500000001,
            49.6093125
          ],
          [
            -50.0558125,
            49.12412500000001
          ],
          [
            -50.541,
            48.638937500000004
          ],
          [
            -51.02618749999999,
            48.15375
          ],
          [
            -51.51137499999999,
            47.6685625
          ],
          [
            -51.99656249999998,
            47.183375000000005
          ],
          [
            -52.48174999999999,
            46.6981875
          ],
          [
            -52.9669375,
            46.213
          ],
          [
            -53.452124999999995,
            46.213
          ],
          [
            -53.93731249999999,
            46.213
          ],
          [
            -54.422499999999985,
            46.213
          ],
          [
            -54.907687499999994,
            46.213
          ],
          [
            -55.39287499999999,
            46.213
          ],
          [
            -55.8780625,
            46.213
          ],
          [
            -56.363249999999994,
            46.213
          ],
          [
            -56.84843749999999,
            46.213
          ],
          [
            -57.333624999999984,
            46.213
          ],
          [
            -57.81881249999999,
            46.213
          ],
          [
            -58.30399999999999,
            46.213
          ],
          [
            -58.7891875,
            46.213
          ],
          [
            -59.27437499999999,
            46.213
          ],
          [
            -59.75956249999999,
            45.7278125
          ],
          [
            -60.244749999999996,
            45.242625000000004
          ],
          [
            -60.72993749999999,
            45.242625000000004
          ],
          [
            -61.215125,
            44.7574375
          ],
          [
            -61.700312499999995,
            44.7574375
          ],
          [
            -62.18549999999999,
            44.7574375
          ],
          [
            -62.670687499999985,
            44.27225
          ],
          [
            -63.155874999999995,
            44.27225
          ],
          [
            -63.64106249999999,
            44.27225
          ],
          [
            -64.12625,
            44.27225
          ],
          [
            -64.6114375,
            43.787062500000005
          ],
          [
            -65.09662499999999,
            43.301875
          ],
          [
            -65.58181249999998,
            43.301875
          ],
          [
            -66.067,
            43.301875
          ],
          [
            -66.55218749999999,
            43.301875
          ],
          [
            -67.037375,
            43.301875
          ],
          [
            -67.52256249999999,
            43.301875
          ],
          [
            -68.00774999999999,
            42.8166875
          ],
          [
            -68.4929375,
            42.331500000000005
          ],
          [
            -68.97812499999999,
            41.8463125
          ],
          [
            -69.4633125,
            41.361125
          ],
          [
            -69.9485,
            40.875937500000006
          ],
          [
            -70.43368749999999,
            40.875937500000006
          ],
          [
            -70.91887499999999,
            40.875937500000006
          ],
          [
            -71.4040625,
            40.875937500000006
          ],
          [
            -71.88924999999999,
            40.875937500000006
          ],
          [
            -72.3744375,
            40.390750000000004
          ],
          [
            -72.859625,
            40.390750000000004
          ],
          [
            -73.34481249999999,
            40.390750000000004
          ],
          [
            -73.83,
            40.45
          ],
          [
            -73.83853989878823,
            40.46238756234657
          ],
          [
            -73.84708293551716,
            40.47477446691239
          ],
          [
            -73.8556291125525,
            40.48716071319176
          ],
          [
            -73.86417843226182,
            40.49954630067852
          ],
          [
            -73.87273089701465,
            40.51193122886605
          ],
          [
            -73.88128650918242,
            40.52431549724727
          ],
          [
            -73.88984527113854,
            40.53669910531469
          ],
          [
            -73.89840718525829,
            40.549082052560294
          ],
          [
            -73.90697225391894,
            40.56146433847564
          ],
          [
            -73.91554047949965,
            40.57384596255184
          ],
          [
            -73.92411186438154,
            40.586226924279515
          ],
          [
            -73.93268641094768,
            40.59860722314887
          ],
          [
            -73.94126412158306,
            40.61098685864961
          ],
          [
            -73.9498449986746,
            40.623365830271005
          ],
          [
            -73.95842904461121,
            40.635744137501845
          ],
          [
            -73.96701626178371,
            40.64812177983048
          ],
          [
            -73.97560665258487,
            40.660498756744786
          ],
          [
            -73.98420021940943,
            40.672875067732164
          ],
          [
            -73.99279696465406,
            40.68525071227958
          ],
          [
            -74.00139689071739,
            40.69762568987352
          ],
          [
            -74.01,
            40.71
          ]
        ]
      }
    }
  ]
}
