{
  "type": "FeatureCollection",
  "bbox": [
    121.47,
    30.9,
    -118.26999999999998,
    41.991125
  ],
  "metadata": {
    "route_id": "TPA-OAK",
    "lane": "CNSHA-USLAX",
    "contracted": false,
    "total_distance_km": 11186.0,
    "total_duration_days": 16,
    "leg_count": 2
  },
  "features": [
    {
      "type": "Feature",
      "bbox": [
        121.47,
        30.9,
        -122.32,
        41.991125
      ],
      "properties": {
        "route_id": "TPA-OAK",
        "leg_index": 0,
        "from": "CNSHA",
        "to": "USOAK",
        "mode": "ocean",
        "duration_days": 15,
        "distance_km": 10605.6,
        "waypoints": [
          {
            "id": "CNSHA",
            "name": "Shanghai",
            "lon": 121.47,
            "lat": 31.23,
            "source": "masterdata",
            "ref": "locations.jsonl:CNSHA"
          },
          {
            "id": "CNSHA_MOUTH",
            "name": "East China Sea, off the Yangtze mouth",
            "lon": 122.7,
            "lat": 30.9,
            "source": "naturalearth",
            "ref": "data/vendor/naturalearth/10m-physical/ne_10m_land"
          },
          {
            "id": "USOAK",
            "name": "Oakland",
            "lon": -122.32,
            "lat": 37.8,
            "source": "masterdata",
            "ref": "locations.jsonl:USOAK"
          }
        ]
      },
      "geometry": {
        "type": "MultiLineString",
        "coordinates": [
          [
            [
              121.47,
              31.23
            ],
            [
              121.52876356517704,
              31.214552858609807
            ],
            [
              121.5875080104748,
              31.199078844705088
            ],
            [
              121.64623332060692,
              31.18357798316119
            ],
            [
              121.70493948039378,
              31.168050298872807
            ],
            [
              121.76362647476232,
              31.1524958167538
            ],
            [
              121.82229428874606,
              31.136914561737107
            ],
            [
              121.88094290748491,
              31.121306558774627
            ],
            [
              121.93957231622514,
              31.105671832837032
            ],
            [
              121.99818250031927,
              31.090010408913695
            ],
            [
              122.05677344522599,
              31.074322312012526
            ],
            [
              122.11534513651003,
              31.058607567159832
            ],
            [
              122.17389755984213,
              31.04286619940023
            ],
            [
              122.23243070099892,
              31.027098233796504
            ],
            [
              122.29094454586276,
              31.011303695429444
            ],
            [
              122.34943908042175,
              30.99548260939774
            ],
            [
              122.40791429076958,
              30.979635000817854
            ],
            [
              122.46637016310547,
              30.963760894823917
            ],
            [
              122.52480668373397,
              30.947860316567528
            ],
            [
              122.58322383906498,
              30.931933291217714
            ],
            [
              122.64162161561359,
              30.915979843960738
            ],
            [
              122.7,
              30.9
            ],
            [
              123.41862500000002,
              31.930374999999998
            ],
            [
              124.13725,
              32.649
            ],
            [
              124.85587499999997,
              33.367625
            ],
            [
              125.5745,
              34.08625
            ],
            [
              126.29312500000003,
              34.08625
            ],
            [
              127.01175,
              34.08625
            ],
            [
              127.73037499999998,
              34.08625
            ],
            [
              128.449,
              34.08625
            ],
            [
              129.16762500000004,
              34.804874999999996
            ],
            [
              129.88625000000002,
              35.5235
            ],
            [
              130.604875,
              36.242125
            ],
            [
              131.32350000000002,
              36.96075
            ],
            [
              132.042125,
              37.679375
            ],
            [
              132.76075000000003,
              38.397999999999996
            ],
            [
              133.479375,
              39.116625
            ],
            [
              134.19799999999998,
              39.83525
            ],
            [
              134.916625,
              40.553875
            ],
            [
              135.63525000000004,
              41.2725
            ],
            [
              136.35387500000002,
              41.2725
            ],
            [
              137.0725,
              41.2725
            ],
            [
              137.79112500000002,
              41.2725
            ],
            [
              138.50975,
              41.2725
            ],
            [
              139.22837500000003,
              41.2725
            ],
            [
              139.947,
              41.2725
            ],
            [
              140.66562499999998,
              41.2725
            ],
            [
              141.38425,
              41.991125
            ],
            [
              142.10287500000004,
              41.991125
            ],
            [
              142.82150000000001,
              41.991125
            ],
            [
              143.540125,
              41.991125
            ],
            [
              144.25875000000002,
              41.991125
            ],
            [
              144.977375,
              41.991125
            ],
            [
              145.69600000000003,
              41.991125
            ],
            [
              146.414625,
              41.991125
            ],
            [
              147.13324999999998,
              41.991125
            ],
            [
              147.851875,
              41.991125
            ],
            [
              148.57050000000004,
              41.991125
            ],
            [
              149.289125,
              41.991125
            ],
            [
              150.00775,
              41.991125
            ],
            [
              150.72637500000002,
              41.991125
            ],
            [
              151.445,
              41.991125
            ],
            [
              152.16362500000002,
              41.991125
            ],
            [
              152.88225,
              41.991125
            ],
            [
              153.60087500000003,
              41.991125
            ],
            [
              154.3195,
              41.991125
            ],
            [
              155.03812500000004,
              41.991125
            ],
            [
              155.75675,
              41.991125
            ],
            [
              156.47537499999999,
              41.991125
            ],
            [
              157.19400000000002,
              41.991125
            ],
            [
              157.912625,
              41.991125
            ],
            [
              158.63125000000002,
              41.991125
            ],
            [
              159.349875,
              41.991125
            ],
            [
              160.06850000000003,
              41.991125
            ],
            [
              160.787125,
              41.991125
            ],
            [
              161.50575000000003,
              41.991125
            ],
            [
              162.224375,
              41.991125
            ],
            [
              162.94299999999998,
              41.991125
            ],
            [
              163.66162500000002,
              41.991125
            ],
            [
              164.38025,
              41.991125
            ],
            [
              165.09887500000002,
              41.991125
            ],
            [
              165.8175,
              41.991125
            ],
            [
              166.53612500000003,
              41.991125
            ],
            [
              167.25475,
              41.991125
            ],
            [
              167.97337500000003,
              41.991125
            ],
            [
              168.692,
              41.991125
            ],
            [
              169.41062499999998,
              41.991125
            ],
            [
              170.12925,
              41.991125
            ],
            [
              170.84787500000004,
              41.991125
            ],
            [
              171.56650000000002,
              41.991125
            ],
            [
              172.285125,
              41.991125
            ],
            [
              173.00375000000003,
              41.991125
            ],
            [
              173.722375,
              41.991125
            ],
            [
              174.44100000000003,
              41.991125
            ],
            [
              175.159625,
              41.991125
            ],
            [
              175.87824999999998,
              41.991125
            ],
            [
              176.596875,
              41.991125
            ],
            [
              177.31550000000004,
              41.991125
            ],
            [
              178.03412500000002,
              41.991125
            ],
            [
              178.75275,
              41.991125
            ],
            [
              179.47137500000002,
              41.991125
            ],
            [
              180.0,
              41.991125
            ]
          ],
          [
            [
              -180.0,
              41.991125
            ],
            [
              -179.81,
              41.991125
            ],
            [
              -179.09137499999997,
              41.991125
            ],
            [
              -178.37275,
              41.991125
            ],
            [
              -177.65412500000002,
              41.991125
            ],
            [
              -176.9355,
              41.991125
            ],
            [
              -176.21687499999996,
              41.991125
            ],
            [
              -175.49824999999998,
              41.991125
            ],
            [
              -174.779625,
              41.991125
            ],
            [
              -174.06099999999998,
              41.991125
            ],
            [
              -173.342375,
              41.991125
            ],
            [
              -172.62374999999997,
              41.991125
            ],
            [
              -171.905125,
              41.991125
            ],
            [
              -171.18649999999997,
              41.991125
            ],
            [
              -170.467875,
              41.991125
            ],
            [
              -169.74924999999996,
              41.991125
            ],
            [
              -169.030625,
              41.991125
            ],
            [
              -168.312,
              41.991125
            ],
            [
              -167.59337499999998,
              41.991125
            ],
            [
              -166.87475,
              41.991125
            ],
            [
              -166.15612499999997,
              41.991125
            ],
            [
              -165.4375,
              41.991125
            ],
            [
              -164.71887499999997,
              41.991125
            ],
            [
              -164.00025,
              41.991125
            ],
            [
              -163.28162499999996,
              41.991125
            ],
            [
              -162.563,
              41.991125
            ],
            [
              -161.844375,
              41.991125
            ],
            [
              -161.12574999999998,
              41.991125
            ],
            [
              -160.40712499999995,
              41.991125
            ],
            [
              -159.68849999999998,
              41.991125
            ],
            [
              -158.969875,
              41.991125
            ],
            [
              -158.25124999999997,
              41.991125
            ],
            [
              -157.532625,
              41.991125
            ],
            [
              -156.81399999999996,
              41.991125
            ],
            [
              -156.095375,
              41.991125
            ],
            [
              -155.37675000000002,
              41.991125
            ],
            [
              -154.65812499999998,
              41.991125
            ],
            [
              -153.93949999999995,
              41.991125
            ],
            [
              -153.22087499999998,
              41.991125
            ],
            [
              -152.50225,
              41.991125
            ],
            [
              -151.78362499999997,
              41.991125
            ],
            [
              -151.065,
              41.991125
            ],
            [
              -150.34637499999997,
              41.991125
            ],
            [
              -149.62775,
              41.991125
            ],
            [
              -148.90912500000002,
              41.991125
            ],
            [
              -148.1905,
              41.991125
            ],
            [
              -147.47187499999995,
              41.991125
            ],
            [
              -146.75324999999998,
              41.991125
            ],
            [
              -146.034625,
              41.991125
            ],
            [
              -145.31599999999997,
              41.991125
            ],
            [
              -144.597375,
              41.991125
            ],
            [
              -143.87874999999997,
              41.991125
            ],
            [
              -143.160125,
              41.991125
            ],
            [
              -142.44149999999996,
              41.991125
            ],
            [
              -141.722875,
              41.991125
            ],
            [
              -141.00424999999996,
              41.991125
            ],
            [
              -140.28562499999998,
              41.991125
            ],
            [
              -139.567,
              41.991125
            ],
            [
              -138.84837499999998,
              41.991125
            ],
            [
              -138.12975,
              41.991125
            ],
            [
              -137.41112499999997,
              41.991125
            ],
            [
              -136.6925,
              41.991125
            ],
            [
              -135.97387499999996,
              41.991125
            ],
            [
              -135.25525,
              41.991125
            ],
            [
              -134.53662499999996,
              41.991125
            ],
            [
              -133.81799999999998,
              41.991125
            ],
            [
              -133.099375,
              41.991125
            ],
            [
              -132.38074999999998,
              41.991125
            ],
            [
              -131.662125,
              41.991125
            ],
            [
              -130.94349999999997,
              41.991125
            ],
            [
              -130.224875,
              41.991125
            ],
            [
              -129.50624999999997,
              41.991125
            ],
            [
              -128.787625,
              41.991125
            ],
            [
              -128.06899999999996,
              41.991125
            ],
            [
              -127.35037499999999,
              41.991125
            ],
            [
              -126.63175000000001,
              41.2725
            ],
            [
              -125.91312499999998,
              40.553875
            ],
            [
              -125.1945,
              39.83525
            ],
            [
              -124.47587499999997,
              39.116625
            ],
            [
              -123.75725,
              38.397999999999996
            ],
            [
              -123.03862499999997,
              37.679375
            ],
            [
              -122.32,
              37.8
            ]
          ]
        ]
      }
    },
    {
      "type": "Feature",
      "bbox": [
        -122.32,
        33.74,
        -118.27,
        37.8
      ],
      "properties": {
        "route_id": "TPA-OAK",
        "leg_index": 1,
        "from": "USOAK",
        "to": "USLAX",
        "mode": "road",
        "duration_days": 1,
        "distance_km": 580.4,
        "waypoints": [
          {
            "id": "USOAK",
            "name": "Oakland",
            "lon": -122.32,
            "lat": 37.8,
            "source": "masterdata",
            "ref": "locations.jsonl:USOAK"
          },
          {
            "id": "USLAX",
            "name": "Los Angeles",
            "lon": -118.27,
            "lat": 33.74,
            "source": "masterdata",
            "ref": "locations.jsonl:USLAX"
          }
        ]
      },
      "geometry": {
        "type": "LineString",
        "coordinates": [
          [
            -122.32,
            37.8
          ],
          [
            -118.27,
            33.74
          ]
        ]
      }
    }
  ]
}
