{
  "type": "FeatureCollection",
  "bbox": [
    121.47,
    30.9,
    -118.27,
    35.5954375
  ],
  "metadata": {
    "route_id": "TPA-LAX",
    "lane": "CNSHA-USLAX",
    "contracted": false,
    "total_distance_km": 11478.7,
    "total_duration_days": 14,
    "leg_count": 1
  },
  "features": [
    {
      "type": "Feature",
      "bbox": [
        121.47,
        30.9,
        -118.27,
        35.5954375
      ],
      "properties": {
        "route_id": "TPA-LAX",
        "leg_index": 0,
        "from": "CNSHA",
        "to": "USLAX",
        "mode": "ocean",
        "duration_days": 14,
        "distance_km": 11478.7,
        "waypoints": [
          {
            "id": "CNSHA",
            "name": "Shanghai",
            "lon": 121.47,
            "lat": 31.23,
            "source": "masterdata",
            "ref": "locations.jsonl:CNSHA"
          },
          {
            "id": "CNSHA_MOUTH",
            "name": "East China Sea, off the Yangtze mouth",
            "lon": 122.7,
            "lat": 30.9,
            "source": "naturalearth",
            "ref": "data/vendor/naturalearth/10m-physical/ne_10m_land"
          },
          {
            "id": "USLAX",
            "name": "Los Angeles",
            "lon": -118.27,
            "lat": 33.74,
            "source": "masterdata",
            "ref": "locations.jsonl:USLAX"
          }
        ]
      },
      "geometry": {
        "type": "MultiLineString",
        "coordinates": [
          [
            [
              121.47,
              31.23
            ],
            [
              121.52876356517704,
              31.214552858609807
            ],
            [
              121.5875080104748,
              31.199078844705088
            ],
            [
              121.64623332060692,
              31.18357798316119
            ],
            [
              121.70493948039378,
              31.168050298872807
            ],
            [
              121.76362647476232,
              31.1524958167538
            ],
            [
              121.82229428874606,
              31.136914561737107
            ],
            [
              121.88094290748491,
              31.121306558774627
            ],
            [
              121.93957231622514,
              31.105671832837032
            ],
            [
              121.99818250031927,
              31.090010408913695
            ],
            [
              122.05677344522599,
              31.074322312012526
            ],
            [
              122.11534513651003,
              31.058607567159832
            ],
            [
              122.17389755984213,
              31.04286619940023
            ],
            [
              122.23243070099892,
              31.027098233796504
            ],
            [
              122.29094454586276,
              31.011303695429444
            ],
            [
              122.34943908042175,
              30.99548260939774
            ],
            [
              122.40791429076958,
              30.979635000817854
            ],
            [
              122.46637016310547,
              30.963760894823917
            ],
            [
              122.52480668373397,
              30.947860316567528
            ],
            [
              122.58322383906498,
              30.931933291217714
            ],
            [
              122.64162161561359,
              30.915979843960738
            ],
            [
              122.7,
              30.9
            ],
            [
              123.4439375,
              31.87575
            ],
            [
              124.18787500000002,
              32.6196875
            ],
            [
              124.93181249999998,
              33.363625
            ],
            [
              125.67575,
              34.1075625
            ],
            [
              126.41968750000001,
              34.1075625
            ],
            [
              127.16362500000002,
              34.1075625
            ],
            [
              127.90756250000004,
              34.1075625
            ],
            [
              128.6515,
              34.1075625
            ],
            [
              129.3954375,
              34.8515
            ],
            [
              130.13937499999997,
              34.8515
            ],
            [
              130.8833125,
              34.8515
            ],
            [
              131.62725,
              34.8515
            ],
            [
              132.37118750000002,
              34.1075625
            ],
            [
              133.11512500000003,
              34.1075625
            ],
            [
              133.8590625,
              33.363625
            ],
            [
              134.603,
              33.363625
            ],
            [
              135.34693749999997,
              33.363625
            ],
            [
              136.09087499999998,
              33.363625
            ],
            [
              136.8348125,
              34.1075625
            ],
            [
              137.57875,
              34.1075625
            ],
            [
              138.32268750000003,
              34.1075625
            ],
            [
              139.06662500000004,
              34.1075625
            ],
            [
              139.8105625,
              34.1075625
            ],
            [
              140.55450000000002,
              34.8515
            ],
            [
              141.29843749999998,
              35.5954375
            ],
            [
              142.042375,
              35.5954375
            ],
            [
              142.7863125,
              35.5954375
            ],
            [
              143.53025000000002,
              35.5954375
            ],
            [
              144.27418750000004,
              35.5954375
            ],
            [
              145.018125,
              35.5954375
            ],
            [
              145.7620625,
              35.5954375
            ],
            [
              146.50599999999997,
              35.5954375
            ],
            [
              147.2499375,
              35.5954375
            ],
            [
              147.993875,
              35.5954375
            ],
            [
              148.73781250000002,
              35.5954375
            ],
            [
              149.48175000000003,
              35.5954375
            ],
            [
              150.2256875,
              35.5954375
            ],
            [
              150.969625,
              35.5954375
            ],
            [
              151.71356250000002,
              35.5954375
            ],
            [
              152.45749999999998,
              35.5954375
            ],
            [
              153.2014375,
              35.5954375
            ],
            [
              153.945375,
              35.5954375
            ],
            [
              154.68931250000003,
              35.5954375
            ],
            [
              155.43325000000004,
              35.5954375
            ],
            [
              156.1771875,
              35.5954375
            ],
            [
              156.92112500000002,
              35.5954375
            ],
            [
              157.66506249999998,
              35.5954375
            ],
            [
              158.409,
              35.5954375
            ],
            [
              159.1529375,
              35.5954375
            ],
            [
              159.89687500000002,
              35.5954375
            ],
            [
              160.64081250000004,
              35.5954375
            ],
            [
              161.38475,
              35.5954375
            ],
            [
              162.1286875,
              35.5954375
            ],
            [
              162.87262500000003,
              35.5954375
            ],
            [
              163.6165625,
              35.5954375
            ],
            [
              164.3605,
              35.5954375
            ],
            [
              165.10443750000002,
              35.5954375
            ],
            [
              165.84837500000003,
              35.5954375
            ],
            [
              166.59231250000005,
              35.5954375
            ],
            [
              167.33625,
              35.5954375
            ],
            [
              168.08018750000002,
              35.5954375
            ],
            [
              168.82412499999998,
              35.5954375
            ],
            [
              169.5680625,
              35.5954375
            ],
            [
              170.312,
              35.5954375
            ],
            [
              171.05593750000003,
              35.5954375
            ],
            [
              171.79987500000004,
              35.5954375
            ],
            [
              172.5438125,
              35.5954375
            ],
            [
              173.28775000000002,
              35.5954375
            ],
            [
              174.03168750000003,
              35.5954375
            ],
            [
              174.775625,
              35.5954375
            ],
            [
              175.5195625,
              35.5954375
            ],
            [
              176.26350000000002,
              35.5954375
            ],
            [
              177.00743750000004,
              35.5954375
            ],
            [
              177.751375,
              35.5954375
            ],
            [
              178.4953125,
              35.5954375
            ],
            [
              179.23925000000003,
              35.5954375
            ],
            [
              179.98318749999999,
              35.5954375
            ],
            [
              180.0,
              35.5954375
            ]
          ],
          [
            [
              -180.0,
              35.5954375
            ],
            [
              -179.272875,
              35.5954375
            ],
            [
              -178.52893749999998,
              35.5954375
            ],
            [
              -177.78499999999997,
              35.5954375
            ],
            [
              -177.04106249999995,
              35.5954375
            ],
            [
              -176.297125,
              35.5954375
            ],
            [
              -175.55318749999998,
              35.5954375
            ],
            [
              -174.80924999999996,
              35.5954375
            ],
            [
              -174.0653125,
              35.5954375
            ],
            [
              -173.321375,
              35.5954375
            ],
            [
              -172.57743749999997,
              35.5954375
            ],
            [
              -171.83349999999996,
              35.5954375
            ],
            [
              -171.0895625,
              35.5954375
            ],
            [
              -170.34562499999998,
              35.5954375
            ],
            [
              -169.60168749999997,
              35.5954375
            ],
            [
              -168.85775,
              35.5954375
            ],
            [
              -168.1138125,
              35.5954375
            ],
            [
              -167.36987499999998,
              35.5954375
            ],
            [
              -166.62593749999996,
              35.5954375
            ],
            [
              -165.88199999999995,
              35.5954375
            ],
            [
              -165.1380625,
              35.5954375
            ],
            [
              -164.39412499999997,
              35.5954375
            ],
            [
              -163.65018750000002,
              35.5954375
            ],
            [
              -162.90625,
              35.5954375
            ],
            [
              -162.16231249999998,
              35.5954375
            ],
            [
              -161.41837499999997,
              35.5954375
            ],
            [
              -160.67443749999995,
              35.5954375
            ],
            [
              -159.9305,
              35.5954375
            ],
            [
              -159.18656249999998,
              35.5954375
            ],
            [
              -158.44262499999996,
              35.5954375
            ],
            [
              -157.6986875,
              35.5954375
            ],
            [
              -156.95475,
              35.5954375
            ],
            [
              -156.21081249999997,
              35.5954375
            ],
            [
              -155.46687499999996,
              35.5954375
            ],
            [
              -154.7229375,
              35.5954375
            ],
            [
              -153.97899999999998,
              35.5954375
            ],
            [
              -153.23506249999997,
              35.5954375
            ],
            [
              -152.491125,
              35.5954375
            ],
            [
              -151.7471875,
              35.5954375
            ],
            [
              -151.00324999999998,
              35.5954375
            ],
            [
              -150.25931249999996,
              35.5954375
            ],
            [
              -149.51537499999995,
              35.5954375
            ],
            [
              -148.7714375,
              35.5954375
            ],
            [
              -148.02749999999997,
              35.5954375
            ],
            [
              -147.28356249999996,
              35.5954375
            ],
            [
              -146.539625,
              35.5954375
            ],
            [
              -145.79568749999999,
              35.5954375
            ],
            [
              -145.05174999999997,
              35.5954375
            ],
            [
              -144.30781249999995,
              35.5954375
            ],
            [
              -143.563875,
              35.5954375
            ],
            [
              -142.81993749999998,
              35.5954375
            ],
            [
              -142.07599999999996,
              35.5954375
            ],
            [
              -141.3320625,
              35.5954375
            ],
            [
              -140.588125,
              35.5954375
            ],
            [
              -139.84418749999998,
              35.5954375
            ],
            [
              -139.10024999999996,
              35.5954375
            ],
            [
              -138.35631249999994,
              35.5954375
            ],
            [
              -137.612375,
              35.5954375
            ],
            [
              -136.86843749999997,
              35.5954375
            ],
            [
              -136.12449999999995,
              35.5954375
            ],
            [
              -135.3805625,
              35.5954375
            ],
            [
              -134.63662499999998,
              35.5954375
            ],
            [
              -133.89268749999997,
              35.5954375
            ],
            [
              -133.14874999999995,
              35.5954375
            ],
            [
              -132.4048125,
              35.5954375
            ],
            [
              -131.66087499999998,
              35.5954375
            ],
            [
              -130.91693749999996,
              35.5954375
            ],
            [
              -130.173,
              35.5954375
            ],
            [
              -129.4290625,
              35.5954375
            ],
            [
              -128.68512499999997,
              35.5954375
            ],
            [
              -127.94118749999996,
              35.5954375
            ],
            [
              -127.19724999999994,
              35.5954375
            ],
            [
              -126.45331249999998,
              35.5954375
            ],
            [
              -125.70937499999997,
              35.5954375
            ],
            [
              -124.96543749999995,
              35.5954375
            ],
            [
              -124.22149999999999,
              35.5954375
            ],
            [
              -123.47756249999998,
              35.5954375
            ],
            [
              -122.73362499999996,
              35.5954375
            ],
            [
              -121.98968749999995,
              35.5954375
            ],
            [
              -121.24574999999999,
              34.8515
            ],
            [
              -120.50181249999997,
              34.1075625
            ],
            [
              -119.75787499999996,
              33.363625
            ],
            [
              -118.27,
              33.74
            ]
          ]
        ]
      }
    }
  ]
}
